address,city,name,slug,state,type,url,x,y,zipcode,geometry
1302 North Wilmington Blvd,Wilmington,The W 25CAP of Wilmington,the-w-collective,CA,dispensary,https://weedmaps.com/dispensaries/the-w-collective,-118.274743,33.788653,90744,POINT (-118.274743 33.788653)
7570 San Fernando Rd.,Burbank,BONAFIDE COLLECTIVE - Pre ICO,bonafide-group-collective,CA,dispensary,https://weedmaps.com/dispensaries/bonafide-group-collective,-118.35357,34.2094049,91504,POINT (-118.35357 34.2094049)
1862 E 1st,Los Angeles,Cali Culture,cali-culture,CA,dispensary,https://weedmaps.com/dispensaries/cali-culture,-118.217847,34.046554,90033,POINT (-118.217847 34.046554)
17523 Ventura Blvd.,Encino,Hazel PRE-ICO - CLOSED DURING REMODELING,hazel,CA,dispensary,https://weedmaps.com/dispensaries/hazel,-118.514986,34.162006,91316,POINT (-118.514986 34.162006)
11000 Randall St. #E,Sun Valley,Sun Valley Caregivers,svc-home-of-the-louie-xiii,CA,dispensary,https://weedmaps.com/dispensaries/svc-home-of-the-louie-xiii,-118.370245,34.237405,91352,POINT (-118.370245 34.237405)
2222 East Olympic Blvd.,Los Angeles,ADCC,arts-district-cannabis-center,CA,dispensary,https://weedmaps.com/dispensaries/arts-district-cannabis-center,-118.232836,34.025585,90021,POINT (-118.232836 34.025585)
11123 Burbank Blvd,North Hollywood,Tri Star Organics,ccc-3,California,dispensary,https://weedmaps.com/dispensaries/ccc-3,-118.373309,34.17229,91601,POINT (-118.373309 34.17229)
18446 Hart St. Unit M2,Reseda,Mission Hills Patients Collective - Northridge / Reseda / Chatsworth,bmc-2,CA,dispensary,https://weedmaps.com/dispensaries/bmc-2,-118.5348403,34.1972522,91335,POINT (-118.5348403 34.1972522)
1321 W Carson St,Torrance,Torrance Healing Church,torrance-gold,CA,dispensary,https://weedmaps.com/dispensaries/torrance-gold,-118.300463,33.831797,90501,POINT (-118.300463 33.831797)
12708 Foothill Blvd,Sylmar,FAMOUS ROOTS 25 CAP,famous-roots,CA,dispensary,https://weedmaps.com/dispensaries/famous-roots,-118.412123,34.290092,91342,POINT (-118.412123 34.290092)
1719 Pacific Coast Highway,Lomita,NACCC,new-age-compassion-care,CA,dispensary,https://weedmaps.com/dispensaries/new-age-compassion-care,-118.308412,33.789777,90717,POINT (-118.308412 33.789777)
980 North La Cienega #102,Los Angeles,EXHALE MED CENTER,exhale-med-center,,dispensary,https://weedmaps.com/dispensaries/exhale-med-center,-118.376318,34.088813,90069,POINT (-118.376318 34.088813)
11557 Ventura Blvd.,Studio City,WEED - Wellness Earth Energy Dispensary Powered by Project Cannabis,concentrate-leader,CA,dispensary,https://weedmaps.com/dispensaries/concentrate-leader,-118.38341,34.139865,91604,POINT (-118.38341 34.139865)
2131 Westwood Blvd,Los Angeles,Happy Leaf Collective,happy-leaf-la,CA,dispensary,https://weedmaps.com/dispensaries/happy-leaf-la,-118.432401,34.044288,90025,POINT (-118.432401 34.044288)
3791 2nd Avenue,Los Angeles,LA Cannabis Co. - Los Angeles,organic-green-treatment-center,CA,dispensary,https://weedmaps.com/dispensaries/organic-green-treatment-center,-118.319333,34.018748,90018,POINT (-118.319333 34.018748)
8332 Lincoln Blvd.,Los Angeles,LAXCC 21+,premium-pacific,CA,dispensary,https://weedmaps.com/dispensaries/premium-pacific,-118.420744,33.961924,90045,POINT (-118.420744 33.961924)
1515 N Cahuenga Blvd,Los Angeles,MMD Hollywood,mmd,CA,dispensary,https://weedmaps.com/dispensaries/mmd,-118.329756,34.098493,90028,POINT (-118.329756 34.098493)
6322 Fallbrook Ave.,Woodland Hills,So-Cal Co-op,so-cal-co-op-2,CA,dispensary,https://weedmaps.com/dispensaries/so-cal-co-op-2,-118.622936,34.185259,91367,POINT (-118.622936 34.185259)
2950 Los Feliz Blvd. Unit #100,Los Angeles,GREENWOLF LA Pre ICO,greenwolf-la,California,dispensary,https://weedmaps.com/dispensaries/greenwolf-la,-118.263905,34.125669,90039,POINT (-118.263905 34.125669)
16220 South Vermont Ave,Gardena,Gardena Gardens,gardena-gardens,CA,dispensary,https://weedmaps.com/dispensaries/gardena-gardens,-118.290989,33.883652,90247,POINT (-118.290989 33.883652)
4359 Avalon Boulevard,Los Angeles,Three Kings,three-kings-1,Ca,dispensary,https://weedmaps.com/dispensaries/three-kings-1,-118.265544,34.004493,90011,POINT (-118.265544 34.004493)
6424 South Normandie,Los Angeles,Normandie House of BOGO,normandy,CA,dispensary,https://weedmaps.com/dispensaries/normandy,-118.300004,33.980797,90044,POINT (-118.300004 33.980797)
,Woodland Hills,Puffy Delivery,organix-woodland-hills,CA,delivery,https://weedmaps.com/deliveries/organix-woodland-hills,-118.553488,34.186611,91364,POINT (-118.553488 34.186611)
,Los Angeles,Vees Delivery,vee-s-delivery,CA,delivery,https://weedmaps.com/deliveries/vee-s-delivery,-118.446209,34.073949,90077,POINT (-118.446209 34.073949)
,North Hollywood,Bud Cellar,bud-cellar,CA,delivery,https://weedmaps.com/deliveries/bud-cellar,-118.375784,34.163821,90069,POINT (-118.375784 34.163821)
,Hollywood,Fly Delivery - Hollywood,fly-delivery-3,CA,delivery,https://weedmaps.com/deliveries/fly-delivery-3,-118.333207,34.094358,90028,POINT (-118.333207 34.094358)
,Sherman Oaks,Puffy Delivery,organix-3,CA,delivery,https://weedmaps.com/deliveries/organix-3,-118.431332,34.15311,91403,POINT (-118.431332 34.15311)
,Van Nuys,Ez Meds,ez-meds-delivery-2,CA,delivery,https://weedmaps.com/deliveries/ez-meds-delivery-2,-118.422515,34.172186,91401,POINT (-118.422515 34.172186)
,Encino,CanEx Delivery,canex-2,CA,delivery,https://weedmaps.com/deliveries/canex-2,-118.483522,34.15646,91316,POINT (-118.483522 34.15646)
,Los Angeles,The Original 24/7 Top Shelf Deliveries,24-7-top-shelf-deliveries-26,California,delivery,https://weedmaps.com/deliveries/24-7-top-shelf-deliveries-26,-118.342577,34.053296,90019,POINT (-118.342577 34.053296)
,Venice,High Tide Organics,high-tide-organics-4,CA,delivery,https://weedmaps.com/deliveries/high-tide-organics-4,-118.465168,33.987191,90291,POINT (-118.465168 33.987191)
,Sylmar,iWeed,iweed-4,Ca,delivery,https://weedmaps.com/deliveries/iweed-4,-118.453285,34.310305,91342,POINT (-118.453285 34.310305)
,Northridge,iWeed,iweed-northridge,CA,delivery,https://weedmaps.com/deliveries/iweed-northridge,-118.5022,34.272072,91344,POINT (-118.5022 34.272072)
,Silverlake,KUSHAGRAM - Silverlake,kushagram-silverlake,CA,delivery,https://weedmaps.com/deliveries/kushagram-silverlake,-118.263327,34.10714,90039,POINT (-118.263327 34.10714)
,Los Angeles,KUSHAGRAM - DTLA,kushagram-dtla,CA,delivery,https://weedmaps.com/deliveries/kushagram-dtla,-118.259303,34.050068,90017,POINT (-118.259303 34.050068)
,Central LA,Kushagram - Central LA,kushagram-2,CA,delivery,https://weedmaps.com/deliveries/kushagram-2,-118.283982,34.021149,90089,POINT (-118.283982 34.021149)
,West Hollywood,Bud Runners - West Hollywood,bud-runners-west-hollywood,California,delivery,https://weedmaps.com/deliveries/bud-runners-west-hollywood,-118.383782,34.072128,90210,POINT (-118.383782 34.072128)
1155 N. Vermont Ave; Ste. 200,Los Angeles,Los Angeles Medical Marijuana 420 Doctor,los-angeles-marijuana-doctor,CA,doctor,https://weedmaps.com/doctors/los-angeles-marijuana-doctor,-118.291965,34.092598,90029,POINT (-118.291965 34.092598)
"19231 Victory Blvd., Suite #557",Reseda,The Doctor - Reseda,the-recommendation-station-2-2,CA,doctor,https://weedmaps.com/doctors/the-recommendation-station-2-2,-118.552302,34.187006,91335,POINT (-118.552302 34.187006)
1613 West Carson Street #104,Torrance,HACC - Torrance,haccnc,CA,dispensary,https://weedmaps.com/dispensaries/haccnc,-118.306984,33.831736,90501,POINT (-118.306984 33.831736)
837 South Los Angeles Street,Los Angeles,Buddha Company,mosaic,California,dispensary,https://weedmaps.com/dispensaries/mosaic,-118.25342,34.04136,90014,POINT (-118.25342 34.04136)
9636 Venice Blvd,Culver City,Venice Medical Center,culver-medical-center,CA,dispensary,https://weedmaps.com/dispensaries/culver-medical-center,-118.396509,34.024321,90232,POINT (-118.396509 34.024321)
310 Culver,Playa Del Rey,Beach Club 310,beach-club,California,dispensary,https://weedmaps.com/dispensaries/beach-club,-118.447241,33.95964,90293,POINT (-118.447241 33.95964)
5441 Topanga Canyon Blvd,Woodland Hills,ATRIUM,atrium,,dispensary,https://weedmaps.com/dispensaries/atrium,-118.606036,34.169815,91367,POINT (-118.606036 34.169815)
124 E. Florence St.,Los Angeles,LA 420,la-420,CA,dispensary,https://weedmaps.com/dispensaries/la-420,-118.273001,33.974556,90003,POINT (-118.273001 33.974556)
10467 Roscoe Blvd,Sun Valley,Exhalence,exhalence,CA,dispensary,https://weedmaps.com/dispensaries/exhalence,-118.359563,34.221922,91352,POINT (-118.359563 34.221922)
5158 Venice Blvd,Los Angeles,HOLLYWEED DISPENSARY,hollyweed,CA,dispensary,https://weedmaps.com/dispensaries/hollyweed,-118.352704,34.044844,90019,POINT (-118.352704 34.044844)
5142 Vineland Avenue,North Hollywood,Zen Noho pre-ICO,magnolia-wellness-center,CA,dispensary,https://weedmaps.com/dispensaries/magnolia-wellness-center,-118.3700182,34.1638419,91601,POINT (-118.3700182 34.1638419)
520 W 182nd St,Gardena,110 Cooperative 30 Cap,110-co-op,CA,dispensary,https://weedmaps.com/dispensaries/110-co-op,-118.282474,33.870022,90248,POINT (-118.282474 33.870022)
18306 Eddy St.,Northridge,H.A.I,holistic-alternative-inc-57-d-2,CA,dispensary,https://weedmaps.com/dispensaries/holistic-alternative-inc-57-d-2,-118.531973,34.227216,91325,POINT (-118.531973 34.227216)
11221 Venice Blvd,Los Angeles,Save Greens,save-greens,CA,dispensary,https://weedmaps.com/dispensaries/save-greens,-118.418316,34.013027,90066,POINT (-118.418316 34.013027)
2551 Colorado Blvd,Los Angeles,Cornerstone Research Collective,cornerstone-research-collective,CA,dispensary,https://weedmaps.com/dispensaries/cornerstone-research-collective,-118.22198,34.142091,90041,POINT (-118.22198 34.142091)
8360 Melrose Ave,Los Angeles,Cookies Melrose,cookies-melrose-hollywood,CA,dispensary,https://weedmaps.com/dispensaries/cookies-melrose-hollywood,-118.372365,34.083554,90069,POINT (-118.372365 34.083554)
1227 West 253rd St,Harbor City,Elevate Harbor City - Coming Soon!,elevate-harbor-city,California,dispensary,https://weedmaps.com/dispensaries/elevate-harbor-city,-118.298215,33.79501,90710,POINT (-118.298215 33.79501)
,Highland Park,Green Tree Remedy,exclusive-35-cap-2-3,CA,delivery,https://weedmaps.com/deliveries/exclusive-35-cap-2-3,-118.201096,34.120531,90042,POINT (-118.201096 34.120531)
,North Hollywood,Puffy Delivery,organix-4,CA,delivery,https://weedmaps.com/deliveries/organix-4,-118.38,34.18,91606,POINT (-118.38 34.18)
,Korea Town,BudEx Delivery - Korea Town,budex-delivery-2-4,Ca,delivery,https://weedmaps.com/deliveries/budex-delivery-2-4,-118.282364,34.060898,90005,POINT (-118.282364 34.060898)
,Mission Hills,The Gas Station - Delivery Service,the-gas-station-8,CA,delivery,https://weedmaps.com/deliveries/the-gas-station-8,-118.473186,34.260869,91345,POINT (-118.473186 34.260869)
,woodland hills,GRASSDOOR,grassdoor-7,California,delivery,https://weedmaps.com/deliveries/grassdoor-7,-118.597424,34.188342,91303,POINT (-118.597424 34.188342)
,Los Angeles,420 King Delivery,420-king-delivery-421-423,CA,delivery,https://weedmaps.com/deliveries/420-king-delivery-421-423,-118.36159,34.098053,90046,POINT (-118.36159 34.098053)
,Van Nuys,Tasty Farms Delivery - Van Nuys,tasty-farms-delivery-3,,delivery,https://weedmaps.com/deliveries/tasty-farms-delivery-3,-118.431346,34.19401,91403,POINT (-118.431346 34.19401)
,Mid City,Golden leaf - Mid town,golden-leaf-mid-city,CA,delivery,https://weedmaps.com/deliveries/golden-leaf-mid-city,-118.285967,34.028441,90019,POINT (-118.285967 34.028441)
,Venice,The Pottery Delivery,soco-la-venice,CA,delivery,https://weedmaps.com/deliveries/soco-la-venice,-118.425549,34.001844,90066,POINT (-118.425549 34.001844)
,Downtown LA,Hyperwolf,hyperwolf-dtla,California,delivery,https://weedmaps.com/deliveries/hyperwolf-dtla,-118.267263,34.046066,90015,POINT (-118.267263 34.046066)
,Reseda,CanEx Delivery,canex-delivery-3,CA,delivery,https://weedmaps.com/deliveries/canex-delivery-3,-118.553568,34.210139,91335,POINT (-118.553568 34.210139)
,Los Angeles,STIIIZY DELIVERY,stiiizy-2,California,delivery,https://weedmaps.com/deliveries/stiiizy-2,-118.283744,34.019667,90089,POINT (-118.283744 34.019667)
,Pacific Palisades,Westside Organic Delivery,westside-organic-delivery-malibu-pacific-palisades,CA,delivery,https://weedmaps.com/deliveries/westside-organic-delivery-malibu-pacific-palisades,-118.539588,34.038337,90272,POINT (-118.539588 34.038337)
,Sherman Oaks,iWeed,i-weed-007,CA,delivery,https://weedmaps.com/deliveries/i-weed-007,-118.426437,34.149432,91604,POINT (-118.426437 34.149432)
,West Los Angeles,LYT Delivery,lyt-delivery,Ca,delivery,https://weedmaps.com/deliveries/lyt-delivery,-118.466044,34.042513,90025,POINT (-118.466044 34.042513)
,San Pedro,Ohana Kush Co,ohana-kush-co,California,delivery,https://weedmaps.com/deliveries/ohana-kush-co,-118.292378,33.737883,90731,POINT (-118.292378 33.737883)
,Encino,THE HEALING TOUCH Delivery,the-healing-touch-delivery,CA,delivery,https://weedmaps.com/deliveries/the-healing-touch-delivery,-118.528842,34.16591,91436,POINT (-118.528842 34.16591)
169 S Alvarado St Suite # 101,Los Angeles,MGN Medical Clinic,mgn-medical-clinic-2,CA,doctor,https://weedmaps.com/doctors/mgn-medical-clinic-2,-118.2718132,34.0650641,90057,POINT (-118.2718132 34.0650641)
420evaluationsonline.com,South LA,420EvaluationsOnline-Central La,420evaluationsonline,CA,doctor,https://weedmaps.com/doctors/420evaluationsonline,-118.269901,34.008186,90011,POINT (-118.269901 34.008186)
202 E Martin Luther King Jr Blvd.,Los Angeles,420 Frat House 30 CAP,central-la-collective,CA,dispensary,https://weedmaps.com/dispensaries/central-la-collective,-118.271425,34.010753,90011,POINT (-118.271425 34.010753)
1412 S Alameda St,Los Angeles,Greenbear 20 Cap Collective,ogb-2,CA,dispensary,https://weedmaps.com/dispensaries/ogb-2,-118.23904,34.025136,90021,POINT (-118.23904 34.025136)
1677 Pacific Coast Hwy,Lomita,Killer Meds 30CAP,killer-meds-2,CA,dispensary,https://weedmaps.com/dispensaries/killer-meds-2,-118.306936,33.789778,90710,POINT (-118.306936 33.789778)
7648 Clybourn Ave.,Sun Valley,SEMILLA HRC,herbal-relief-caregivers-inc,CA,dispensary,https://weedmaps.com/dispensaries/herbal-relief-caregivers-inc,-118.363005,34.209269,91352,POINT (-118.363005 34.209269)
13509 Hubbard Street,Sylmar,ELEVATE,sylmar-holistic-center,CA,dispensary,https://weedmaps.com/dispensaries/sylmar-holistic-center,-118.427823,34.3099158,91342,POINT (-118.427823 34.3099158)
21759 Erwin St,Woodland Hills,The Plant,the-plant,California,dispensary,https://weedmaps.com/dispensaries/the-plant,-118.60294,34.183078,91367,POINT (-118.60294 34.183078)
"1555 W Sepulveda Blvd, Suite J",Torrance,TCC,tcc-3,CA,dispensary,https://weedmaps.com/dispensaries/tcc-3,-118.304897,33.816182,90501,POINT (-118.304897 33.816182)
5993 S St Andrews Pl.,Los Angeles,LA Cannabis Co. - Inglewood,holistic-pain-relief-lax,CA,dispensary,https://weedmaps.com/dispensaries/holistic-pain-relief-lax,-118.311999,33.985454,90047,POINT (-118.311999 33.985454)
1026 W Pacific Coast,Wilmington,White Castle,lol-1,CA,dispensary,https://weedmaps.com/dispensaries/lol-1,-118.276013,33.790018,90744,POINT (-118.276013 33.790018)
14000 Ventura Blvd,Sherman Oaks,Green Angel (Pre-ICO),mmrc,CA,dispensary,https://weedmaps.com/dispensaries/mmrc,-118.437371,34.148845,91423,POINT (-118.437371 34.148845)
737 S. Vermont Ave,Los Angeles,K-Town Vermont,k-town-vermont,CA,dispensary,https://weedmaps.com/dispensaries/k-town-vermont,-118.291675,34.058561,90005,POINT (-118.291675 34.058561)
8918 S Vermont Ave,Los Angeles,Vermont 30 Cap,vermont-30-cap,California,dispensary,https://weedmaps.com/dispensaries/vermont-30-cap,-118.29127,33.955963,90044,POINT (-118.29127 33.955963)
13453 Beach Avenue,Marina del Rey,"Marina Caregivers, Inc.",marina-caregivers-inc,California,dispensary,https://weedmaps.com/dispensaries/marina-caregivers-inc,-118.445791,33.990801,90292,POINT (-118.445791 33.990801)
10717 Venice Blvd,Los Angeles,Venice Serenity Gardens,venice-serenity-gardens-1,CA,dispensary,https://weedmaps.com/dispensaries/venice-serenity-gardens-1,-118.407696,34.018826,90034,POINT (-118.407696 34.018826)
18526 Parthenia Street,Northridge,CPR,compassionate-patient-resources,CA,dispensary,https://weedmaps.com/dispensaries/compassionate-patient-resources,-118.53711,34.228094,91324,POINT (-118.53711 34.228094)
1716 S Sepulveda Blvd,Los Angeles,Kush Palace,kush-palace,California,dispensary,https://weedmaps.com/dispensaries/kush-palace,-118.44327,34.047007,90025,POINT (-118.44327 34.047007)
4801 York Blvd,Los Angeles,Green Earth Collective,green-earth-collective,CA,dispensary,https://weedmaps.com/dispensaries/green-earth-collective,-118.210695,34.122485,90042,POINT (-118.210695 34.122485)
10626 Burbank Blvd,North Hollywood,Burdank Blvd,burdank-blvd,CA,dispensary,https://weedmaps.com/dispensaries/burdank-blvd,-118.362507,34.171899,91601,POINT (-118.362507 34.171899)
3601 South Western AVe,Los Angeles,"Western Wellness ""Grand Opening""",western-wellness-los-angeles,CA,dispensary,https://weedmaps.com/dispensaries/western-wellness-los-angeles,-118.309104,34.022672,90018,POINT (-118.309104 34.022672)
,Central Los Angeles,Budex - Central La,budex-central-los-angeles,CA,delivery,https://weedmaps.com/deliveries/budex-central-los-angeles,-118.283921,34.025527,92345,POINT (-118.283921 34.025527)
,Los Angeles,Puffy Delivery,organix-sherman-oaks,CA,delivery,https://weedmaps.com/deliveries/organix-sherman-oaks,-118.301976,34.109157,90027,POINT (-118.301976 34.109157)
,Downtown LA,Puffy Delivery,organix-7,CA,delivery,https://weedmaps.com/deliveries/organix-7,-118.263945,34.045026,90021,POINT (-118.263945 34.045026)
,Encino,GRASSDOOR,grassdoor,California,delivery,https://weedmaps.com/deliveries/grassdoor,-118.496083,34.158075,91316,POINT (-118.496083 34.158075)
,Woodland Hills,CanEx Delivery,canex-delivery,CA,delivery,https://weedmaps.com/deliveries/canex-delivery,-118.597273,34.166246,91367,POINT (-118.597273 34.166246)
,studio city,Golden Leaf,golen-leaf,CA,delivery,https://weedmaps.com/deliveries/golen-leaf,-118.403031,34.146739,91602,POINT (-118.403031 34.146739)
,Los Angeles,STIIIZY DELIVERY,stiiizy-5,California,delivery,https://weedmaps.com/deliveries/stiiizy-5,-118.269034,34.111544,90027,POINT (-118.269034 34.111544)
,Va Nuys,CanEx Delivery,canex-delivery-2,CA,delivery,https://weedmaps.com/deliveries/canex-delivery-2,-118.457411,34.193931,91403,POINT (-118.457411 34.193931)
,Venice,GRASSDOOR,grassdoor-4,California,delivery,https://weedmaps.com/deliveries/grassdoor-4,-118.459393,33.99508,90291,POINT (-118.459393 33.99508)
,Los Angeles,STIIIZY DELIVERY,stiiizy-4,California,delivery,https://weedmaps.com/deliveries/stiiizy-4,-118.348933,34.051843,90019,POINT (-118.348933 34.051843)
,Sylmar,Golden Leaf,golden-leaf-sylmar,Ca,delivery,https://weedmaps.com/deliveries/golden-leaf-sylmar,-118.429489,34.270483,91342,POINT (-118.429489 34.270483)
,Northridge,Nugmen Cannabis Delivery,nugmen-cannabis-delivery,CA,delivery,https://weedmaps.com/deliveries/nugmen-cannabis-delivery,-118.53169,34.235499,91205,POINT (-118.53169 34.235499)
,West Los Angeles,Hyperwolf,hyperwolf-2,CA,delivery,https://weedmaps.com/deliveries/hyperwolf-2,-118.416071,34.062907,90024,POINT (-118.416071 34.062907)
13755 Victory Blvd.,Van Nuys,WOODVIC,woodvic-medical-care,CA,doctor,https://weedmaps.com/doctors/woodvic-medical-care,-118.433221,34.186666,91401,POINT (-118.433221 34.186666)
100% Online,Sherman Oaks,Weed Recs (100% Online),weedrecs-com-35,CA,doctor,https://weedmaps.com/doctors/weedrecs-com-35,-118.455088,34.151988,96019,POINT (-118.455088 34.151988)
100% Online,West Los Angeles,Weed Recs (100% Online),weedrecs-com-34,CA,doctor,https://weedmaps.com/doctors/weedrecs-com-34,-118.442003,34.038638,90025,POINT (-118.442003 34.038638)
1603 S. La Brea Avenue,Los Angeles,LA Cannabis Co. - La Brea,wcc-2,CA,dispensary,https://weedmaps.com/dispensaries/wcc-2,-118.345797,34.045424,90019,POINT (-118.345797 34.045424)
8514 S Broadway,Los Angeles,Green Diamond Caregivers,green-diamond-caregivers-2,CA,dispensary,https://weedmaps.com/dispensaries/green-diamond-caregivers-2,-118.278141,33.961095,90003,POINT (-118.278141 33.961095)
5338 Alhama Dr.,Woodland Hills,The Shop WH,the-loft-co-op,CA,dispensary,https://weedmaps.com/dispensaries/the-loft-co-op,-118.592936,34.166414,91364,POINT (-118.592936 34.166414)
7756 Burnet Ave.,Van Nuys,Green Earth Farmacie,van-nuys-91405,CA,dispensary,https://weedmaps.com/dispensaries/van-nuys-91405,-118.462523,34.212052,91405,POINT (-118.462523 34.212052)
1555 Newton St.,Los Angeles,Project Cannabis DTLA,project-cannabis,CA,dispensary,https://weedmaps.com/dispensaries/project-cannabis,-118.241626,34.025814,90021,POINT (-118.241626 34.025814)
1318 N. Wilmington Blvd.,Wilmington,Harbor High Meds,harbor-high-meds,CA,dispensary,https://weedmaps.com/dispensaries/harbor-high-meds,-118.274796,33.789165,90744,POINT (-118.274796 33.789165)
10842Â Magnolia blvd,North Hollywood,Project Cannabis NoHo,green-valley-collective-2,CA,dispensary,https://weedmaps.com/dispensaries/green-valley-collective-2,-118.367371,34.164791,91601,POINT (-118.367371 34.164791)
3024 Wabash Ave,Los Angeles,LA GAS HOUSE - Los Angeles,la-gas-house-los-angeles,,dispensary,https://weedmaps.com/dispensaries/la-gas-house-los-angeles,-118.195751,34.049193,90063,POINT (-118.195751 34.049193)
411 Rose Ave,Venice,Rose Collective Pre-ICO,rose-collective,CA,dispensary,https://weedmaps.com/dispensaries/rose-collective,-118.4745905,33.9979881,90291,POINT (-118.4745905 33.9979881)
12320 W Pico Blvd,Los Angeles,ERBA Markets,erba,CA,dispensary,https://weedmaps.com/dispensaries/erba,-118.452265,34.028134,90064,POINT (-118.452265 34.028134)
9021 Exposition Blvd,Los Angeles,New Amsterdam Naturals,nncc-nature-s-natural-collective-care,CA,dispensary,https://weedmaps.com/dispensaries/nncc-nature-s-natural-collective-care,-118.392697,34.028878,90034,POINT (-118.392697 34.028878)
5324 York Blvd,Los Angeles,Urbland Park,urbland-park,California,dispensary,https://weedmaps.com/dispensaries/urbland-park,-118.19947,34.119792,90042,POINT (-118.19947 34.119792)
4276 Beverly Blvd,Los Angeles,Beverly Club,beverly-club,CA,dispensary,https://weedmaps.com/dispensaries/beverly-club,-118.302251,34.076133,90004,POINT (-118.302251 34.076133)
9735 Glenoaks Blvd,Sun Valley,Sexy Buds,glenoaks-collective,CA,dispensary,https://weedmaps.com/dispensaries/glenoaks-collective,-118.384516,34.246593,91352,POINT (-118.384516 34.246593)
,Glendale,Puffy Delivery,organix-1,CA,delivery,https://weedmaps.com/deliveries/organix-1,-118.224866,34.142702,91207,POINT (-118.224866 34.142702)
,Van Nuys,Golden Leaf,golden-leaf-6,CA,delivery,https://weedmaps.com/deliveries/golden-leaf-6,-118.431204,34.18666,91405,POINT (-118.431204 34.18666)
,West Los Angeles,Green Tree Remedy - West Los Angeles,green-tree-remedy-west-los-angeles,CA,delivery,https://weedmaps.com/deliveries/green-tree-remedy-west-los-angeles,-118.442395,34.060924,90024,POINT (-118.442395 34.060924)
,San Pedro,Budskies,budskies-3,CA,delivery,https://weedmaps.com/deliveries/budskies-3,-118.30283,33.718847,90731,POINT (-118.30283 33.718847)
,Encino,Golden leaf,golden-leaf-8,CA,delivery,https://weedmaps.com/deliveries/golden-leaf-8,-118.492134,34.157552,91335,POINT (-118.492134 34.157552)
,Los Angeles,Green2Go,green-2-go-5,Ca,delivery,https://weedmaps.com/deliveries/green-2-go-5,-118.336303,34.094437,90020,POINT (-118.336303 34.094437)
,Culver City,Golden Leaf,golden-leaf-13,CA,delivery,https://weedmaps.com/deliveries/golden-leaf-13,-118.400594,34.0341,90017,POINT (-118.400594 34.0341)
,Northridge,The Gas Station - Delivery Service,the-gas-station-northridge,CA,delivery,https://weedmaps.com/deliveries/the-gas-station-northridge,-118.553632,34.235452,91325,POINT (-118.553632 34.235452)
,Los Angeles,STIIIZY DELIVERY,stiiizy,California,delivery,https://weedmaps.com/deliveries/stiiizy,-118.266859,34.041949,90015,POINT (-118.266859 34.041949)
,Los Angeles,The Pottery Delivery,soco-la,CA,delivery,https://weedmaps.com/deliveries/soco-la,-118.295443,34.06636,90004,POINT (-118.295443 34.06636)
,Sun Valley,Epik Movement,epik-movement-4,CA,delivery,https://weedmaps.com/deliveries/epik-movement-4,-118.393477,34.255359,91352,POINT (-118.393477 34.255359)
,North Hollywood,Epik Movement,epik-movement-3,CA,delivery,https://weedmaps.com/deliveries/epik-movement-3,-118.396871,34.16508,91607,POINT (-118.396871 34.16508)
,Woodland Hills,The Gas Station - Delivery Service,the-gas-station-delivery-service-7,California,delivery,https://weedmaps.com/deliveries/the-gas-station-delivery-service-7,-118.620941,34.156266,91307,POINT (-118.620941 34.156266)
,Mid Town,The Pottery Delivery,soco-la-3,CA,delivery,https://weedmaps.com/deliveries/soco-la-3,-118.356394,34.044329,90019,POINT (-118.356394 34.044329)
,Sherman Oaks,CanEx Delivery,canex-delivery-5,CA,delivery,https://weedmaps.com/deliveries/canex-delivery-5,-118.408327,34.143976,91423,POINT (-118.408327 34.143976)
1753 S Hill St #4,Los Angeles,Delta 9 Herbal Evaluations,delta-9-herbal-evaluations,CA,doctor,https://weedmaps.com/doctors/delta-9-herbal-evaluations,-118.265739,34.034087,90015,POINT (-118.265739 34.034087)
100% Online,Playa Del Rey,Weed Recs (100% Online),weedrecs-com-33,CA,doctor,https://weedmaps.com/doctors/weedrecs-com-33,-118.442796,33.956921,90293,POINT (-118.442796 33.956921)
9118 South Broadway,Los Angeles,Green Castle 25 Cap,the-greenhouse-2-4,CA,dispensary,https://weedmaps.com/dispensaries/the-greenhouse-2-4,-118.277926,33.953219,90003,POINT (-118.277926 33.953219)
4507 West Pico Blvd,Los Angles,High City Collective,pico-collective,CA,dispensary,https://weedmaps.com/dispensaries/pico-collective,-118.333968,34.048697,90019,POINT (-118.333968 34.048697)
25916 S Western Ave,Lomita,HAPPY LIFE,happy-life-la,CA,dispensary,https://weedmaps.com/dispensaries/happy-life-la,-118.307338,33.787723,90710,POINT (-118.307338 33.787723)
12814 Riverside Drive,North Hollywood,Planet Noho,planet-noho,California,dispensary,https://weedmaps.com/dispensaries/planet-noho,-118.412031,34.15732,91601,POINT (-118.412031 34.15732)
4569 Melrose Ave,Hollywood,The Green Rose,the-green-rose,CA,dispensary,https://weedmaps.com/dispensaries/the-green-rose,-118.3,34.083868,90029,POINT (-118.3 34.083868)
1500 Esperanza St,LOS ANGELES,Project Cannabis Boyle Heights,ggr,CA,dispensary,https://weedmaps.com/dispensaries/ggr,-118.20062,34.015485,90023,POINT (-118.20062 34.015485)
20751 Marilla St,Chatsworth,PureLife Alternative Wellness Center,purelife-alternative-wellness-center-2,CA,dispensary,https://weedmaps.com/dispensaries/purelife-alternative-wellness-center-2,-118.586159,34.248401,91311,POINT (-118.586159 34.248401)
419 S Los Angeles St,Los Angeles,LAFinestCollectives,lafinestcollectives,CA,dispensary,https://weedmaps.com/dispensaries/lafinestcollectives,-118.246888,34.046991,90013,POINT (-118.246888 34.046991)
8740 S. Sepulveda Blvd,Los Angeles,MedMen LAX Airport,medmen-3,CA,dispensary,https://weedmaps.com/dispensaries/medmen-3,-118.396137,33.957636,90045,POINT (-118.396137 33.957636)
12751 Foothill Blvd.,Sylmar,Dr. Greenthumb's - Sylmar,dr-greenthumbs-sylmar,CA,dispensary,https://weedmaps.com/dispensaries/dr-greenthumbs-sylmar,-118.412557,34.291486,91342,POINT (-118.412557 34.291486)
2000 Cotner Ave,Los Angeles,FireHaus,firehaus,CA,dispensary,https://weedmaps.com/dispensaries/firehaus,-118.4417437,34.0421216,90025,POINT (-118.4417437 34.0421216)
,Northridge,Puffy Delivery,organix-northridge,CA,delivery,https://weedmaps.com/deliveries/organix-northridge,-118.571247,34.242766,91330,POINT (-118.571247 34.242766)
,Los Angeles,Best Remedy,best-remedy-2,CA,delivery,https://weedmaps.com/deliveries/best-remedy-2,-118.30202,34.061375,90005,POINT (-118.30202 34.061375)
,Los Angeles,Top Shelf California,top-shelf-delivery-420-la,CA,delivery,https://weedmaps.com/deliveries/top-shelf-delivery-420-la,-118.368988,34.072544,90048,POINT (-118.368988 34.072544)
,Central LA,LA DANKTOWN - USC,la-danktown-usc,CA,delivery,https://weedmaps.com/deliveries/la-danktown-usc,-118.286537,34.022402,90089,POINT (-118.286537 34.022402)
,STUDIO CITY,DEALS ON WHEELS,deals-on-wheels-3,CA,delivery,https://weedmaps.com/deliveries/deals-on-wheels-3,-118.392144,34.150427,91604,POINT (-118.392144 34.150427)
,Venice,Golden Leaf,golden-leaf-venice,CA,delivery,https://weedmaps.com/deliveries/golden-leaf-venice,-118.466886,33.997448,90291,POINT (-118.466886 33.997448)
,Vany Nuys,KUSHANOVA,kushanova-collective,CA,delivery,https://weedmaps.com/deliveries/kushanova-collective,-118.466185,34.166181,91411,POINT (-118.466185 34.166181)
,North Hollywood,GRASSDOOR,grassdoor-12,CA,delivery,https://weedmaps.com/deliveries/grassdoor-12,-118.410471,34.165832,91607,POINT (-118.410471 34.165832)
,Los Angeles,The Pottery Delivery,soco-la-2,CA,delivery,https://weedmaps.com/deliveries/soco-la-2,-118.469993,34.05276,90025,POINT (-118.469993 34.05276)
,Highland Park,Speedy Meds,speedy-meds-2-4,CA,delivery,https://weedmaps.com/deliveries/speedy-meds-2-4,-118.206967,34.121455,90041,POINT (-118.206967 34.121455)
,Los Angeles,Kush Coast LA,kush-coast-la-2,CA,delivery,https://weedmaps.com/deliveries/kush-coast-la-2,-118.28039,34.02466,90007,POINT (-118.28039 34.02466)
,Woodland Hills,The Shop WH,the-loft-after-care,CA,delivery,https://weedmaps.com/deliveries/the-loft-after-care,-118.62336,34.193617,91367,POINT (-118.62336 34.193617)
,Los Angeles,Hyperwolf,hyperwolf-6,CA,delivery,https://weedmaps.com/deliveries/hyperwolf-6,-118.418788,33.977041,90094,POINT (-118.418788 33.977041)
,Los Angeles,BudHub Delivery,budhub-deliveries,California,delivery,https://weedmaps.com/deliveries/budhub-deliveries,-118.24687,34.05437,90012,POINT (-118.24687 34.05437)
,Encino,The Shop WH,the-loft-after-care-delivery,CA,delivery,https://weedmaps.com/deliveries/the-loft-after-care-delivery,-118.5098,34.160886,91436,POINT (-118.5098 34.160886)
,Hollywood,Bud Runners - Hollywood,bud-runners-hollywood,California,delivery,https://weedmaps.com/deliveries/bud-runners-hollywood,-118.305578,34.098139,90038,POINT (-118.305578 34.098139)
,Los Angeles,Ganja Girls,ganja-girls,California,delivery,https://weedmaps.com/deliveries/ganja-girls,-118.416667,34.031536,91601,POINT (-118.416667 34.031536)
Visit riseupmd.com,Venice,RiseUpMD.com (100% Online),riseupmd-com-100-online-4,CA,doctor,https://weedmaps.com/doctors/riseupmd-com-100-online-4,-118.4688776,33.9962144,90291,POINT (-118.4688776 33.9962144)
11318 S. Vermont Ave,Los Angeles,Scooters,skooters,CA,dispensary,https://weedmaps.com/dispensaries/skooters,-118.29127,33.931863,90044,POINT (-118.29127 33.931863)
930 South Alameda Street,Los Angeles,DTPG,downtown-patients-group-dtpg,CA,dispensary,https://weedmaps.com/dispensaries/downtown-patients-group-dtpg,-118.238727,34.026479,90021,POINT (-118.238727 34.026479)
22708 Ventura Boulevard,Woodland Hills,Green Awning Collective - GAC,one-bud-collective-obc,CA,dispensary,https://weedmaps.com/dispensaries/one-bud-collective-obc,-118.620961,34.166493,91364,POINT (-118.620961 34.166493)
5042 Venice Blvd,Los Angeles,The Pottery - Recreational,the-pottery,Ca,dispensary,https://weedmaps.com/dispensaries/the-pottery,-118.348584,34.04513,90019,POINT (-118.348584 34.04513)
2138 W Florence Ave,Los Angeles,The Plug 20 Cap Collective,plug-20-cap-collective,CA,dispensary,https://weedmaps.com/dispensaries/plug-20-cap-collective,-118.316794,33.974321,90047,POINT (-118.316794 33.974321)
5277 West Jefferson Blvd,Los Angeles,The High Note West,highnotewest,CA,dispensary,https://weedmaps.com/dispensaries/highnotewest,-118.360725,34.025836,90016,POINT (-118.360725 34.025836)
5419 W. Sunset Blvd,Hollywood,Hollywood Holistic,hollywood-holistic-3,,dispensary,https://weedmaps.com/dispensaries/hollywood-holistic-3,-118.307933,34.09857,90027,POINT (-118.307933 34.09857)
830 Sampson Ave,Wilmington,WOW 25 CAP,worshipofwilmington,CA,dispensary,https://weedmaps.com/dispensaries/worshipofwilmington,-118.233304,33.782501,90744,POINT (-118.233304 33.782501)
3305 W. 8th,Koreatown,Kush Town,kush-town,California,dispensary,https://weedmaps.com/dispensaries/kush-town,-118.300143,34.057883,90005,POINT (-118.300143 34.057883)
5522 Cahuenga Blvd,North Hollywood,Green Door,5222-collective,CA,dispensary,https://weedmaps.com/dispensaries/5222-collective,-118.361314,34.17072,91601,POINT (-118.361314 34.17072)
712 Lincoln Blvd,Venice,Harvest of Venice (Coming Soon),harvest-venice,CA,dispensary,https://weedmaps.com/dispensaries/harvest-venice,-118.463986,33.999778,90291,POINT (-118.463986 33.999778)
,Los Angeles,Budex,budex-downtown-la,,delivery,https://weedmaps.com/deliveries/budex-downtown-la,-118.257742,34.047966,90017,POINT (-118.257742 34.047966)
,Van Nuys,MIDNIGHT EXPRESS,hoover-wellness-center,California,delivery,https://weedmaps.com/deliveries/hoover-wellness-center,-118.444917,34.178964,91401,POINT (-118.444917 34.178964)
,Northridge,Golden leaf,golden-leaf-9,CA,delivery,https://weedmaps.com/deliveries/golden-leaf-9,-118.518943,34.221024,91325,POINT (-118.518943 34.221024)
,North Hollywood,Expo Delivery,vineland-ave-caregivers,CA,delivery,https://weedmaps.com/deliveries/vineland-ave-caregivers,-118.370332,34.167125,91601,POINT (-118.370332 34.167125)
,Hollywood,420 Open Late,420-open-late-422,CA,delivery,https://weedmaps.com/deliveries/420-open-late-422,-118.339044,34.103101,90027,POINT (-118.339044 34.103101)
,Playa Vista,Mr Nugget,mr-nugget-2-2,ca,delivery,https://weedmaps.com/deliveries/mr-nugget-2-2,-118.430204,33.971993,90094,POINT (-118.430204 33.971993)
,San Pedro,Higher Purpose Delivery - South Bay,higher-purpose-delivery-south-bay-4,CA,delivery,https://weedmaps.com/deliveries/higher-purpose-delivery-south-bay-4,-118.312068,33.728922,90732,POINT (-118.312068 33.728922)
,Los Angeles,Westside Botanicals,westside-botanicals-1,CA,delivery,https://weedmaps.com/deliveries/westside-botanicals-1,-118.412437,34.025741,90034,POINT (-118.412437 34.025741)
,Woodland Hills,ASAP BUDZ,asap-budz,CA,delivery,https://weedmaps.com/deliveries/asap-budz,-118.605794,34.171938,91367,POINT (-118.605794 34.171938)
,Central La,LYT Delivery,lyt-delivery-2,Ca,delivery,https://weedmaps.com/deliveries/lyt-delivery-2,-118.287252,34.025157,90089,POINT (-118.287252 34.025157)
,Encino,Ganja Girls,ganja-girls-3,,delivery,https://weedmaps.com/deliveries/ganja-girls-3,-118.52236,34.167879,91316,POINT (-118.52236 34.167879)
,Los Angeles,Los Angeles Kush Deliver,losangeleskushdeliver,California,delivery,https://weedmaps.com/deliveries/losangeleskushdeliver,-118.291418,34.025494,90019,POINT (-118.291418 34.025494)
13095 San Fernando Rd,Sylmar,SYLMAR CANNA CORNER,sylmar-wellness-grand-opening,CA,dispensary,https://weedmaps.com/dispensaries/sylmar-wellness-grand-opening,-118.471774,34.30799,91342,POINT (-118.471774 34.30799)
4901 Melrose Ave,Los Angeles,Mary Janes - Hollywood,mary-janes-collective,CA,dispensary,https://weedmaps.com/dispensaries/mary-janes-collective,-118.30708,34.083579,90029,POINT (-118.30708 34.083579)
7123 Sepulveda Blvd.,Van Nuys,HHC - Healthy Herbal Care,hhc-heavenly-herbal-collective,California,dispensary,https://weedmaps.com/dispensaries/hhc-heavenly-herbal-collective,-118.466586,34.200152,91405,POINT (-118.466586 34.200152)
8940 National Blvd UNIT B,Los Angeles,Westside Meds,westside-meds-2-3,CA,dispensary,https://weedmaps.com/dispensaries/westside-meds-2-3,-118.389652,34.03008,90034,POINT (-118.389652 34.03008)
6102 Vineland Ave.,North Hollywood,SKY HIGH HOLISTIC NOHO,sky-high-holistic-hollywood,CA,dispensary,https://weedmaps.com/dispensaries/sky-high-holistic-hollywood,-118.370136,34.181421,91606,POINT (-118.370136 34.181421)
11826 Sheldon Street,Sun Valley,"HCMA - NC Co-Op, Inc.",northridge-caregivers-co-op-inc,CA,dispensary,https://weedmaps.com/dispensaries/northridge-caregivers-co-op-inc,-118.390294,34.241126,91352,POINT (-118.390294 34.241126)
182 S Alvarado St.,Los Angeles,LA Kush - Los Angeles Kush - Echo Park,los-angeles-kush-echo-park,CA,dispensary,https://weedmaps.com/dispensaries/los-angeles-kush-echo-park,-118.271457,34.064294,90057,POINT (-118.271457 34.064294)
7143 Owensmouth Ave,Canoga Park,The Smoke Shop,the-smoke-shop-1,CA,dispensary,https://weedmaps.com/dispensaries/the-smoke-shop-1,-118.601775,34.200434,91303,POINT (-118.601775 34.200434)
735 S Broadway,Los Angeles,MedMen Downtown (DTLA),medmen-2,CA,dispensary,https://weedmaps.com/dispensaries/medmen-2,-118.254446,34.044597,90014,POINT (-118.254446 34.044597)
,LA,Green Tree Remedy,green-tree-remedy-3,CA,delivery,https://weedmaps.com/deliveries/green-tree-remedy-3,-118.279753,34.029902,90037,POINT (-118.279753 34.029902)
,Northridge,Nightime with Remedy,nightime-with-remedy,CA,delivery,https://weedmaps.com/deliveries/nightime-with-remedy,-118.54489,34.208439,91311,POINT (-118.54489 34.208439)
,Downtown LA,Kush Factory Delivery,thcex-3,CA,delivery,https://weedmaps.com/deliveries/thcex-3,-118.260158,34.047231,90014,POINT (-118.260158 34.047231)
,Los Angeles,Mr Smiley Guy,mr-smiley-guy,CA,delivery,https://weedmaps.com/deliveries/mr-smiley-guy,-118.344208,34.049946,90019,POINT (-118.344208 34.049946)
,Van Nuys,BudHut LA *OPEN LATE! - Valley Village,bud-hut,CA,delivery,https://weedmaps.com/deliveries/bud-hut,-118.483682,34.204879,91405,POINT (-118.483682 34.204879)
,Hollywood,AFFCO,affco,CA,delivery,https://weedmaps.com/deliveries/affco,-118.316949,34.108292,90028,POINT (-118.316949 34.108292)
,Venice,Westside Botanicals,westside-botanicals-3,California,delivery,https://weedmaps.com/deliveries/westside-botanicals-3,-118.452705,33.994033,90291,POINT (-118.452705 33.994033)
,Los Angeles,Kush Coast LA,kush-coast-la-5,CA,delivery,https://weedmaps.com/deliveries/kush-coast-la-5,-118.440428,34.068794,90095,POINT (-118.440428 34.068794)
,Los Angeles,MJ Rush Delivery,mj-rush-delivery,,delivery,https://weedmaps.com/deliveries/mj-rush-delivery,-118.579873,34.220107,91306,POINT (-118.579873 34.220107)
,sherman oaks,Green Panda Express,green-panda-express-2-2,CA,delivery,https://weedmaps.com/deliveries/green-panda-express-2-2,-118.431186,34.148137,91423,POINT (-118.431186 34.148137)
,Koreatown,OrangeLeaf,orangeleaf-7,Ca,delivery,https://weedmaps.com/deliveries/orangeleaf-7,-118.280008,34.063318,90057,POINT (-118.280008 34.063318)
1720 East 14th st SUITE #A,Los Angeles,LA Meds 4 less,la-med-s-4-less,CA,dispensary,https://weedmaps.com/dispensaries/la-med-s-4-less,-118.240412,34.0255439,90021,POINT (-118.240412 34.0255439)
2235 E 7th Street,Los Angeles,City Compassionate Caregivers CCC,citycompassionatecaregivers,CA,dispensary,https://weedmaps.com/dispensaries/citycompassionatecaregivers,-118.22343,34.034855,90023,POINT (-118.22343 34.034855)
621 W. Rosecrans Ave Suite #101,Gardena,Stone Age Farmacy LA - Recreational,the-stone-age-pharmacy,CA,dispensary,https://weedmaps.com/dispensaries/the-stone-age-pharmacy,-118.2856391,33.9028761,90248,POINT (-118.2856391 33.9028761)
9830 north San Fernando rd,Pacoima,CFC - SUGARBUDZ,healthy-life-pharmacy-hlp,CA,dispensary,https://weedmaps.com/dispensaries/healthy-life-pharmacy-hlp,-118.403018,34.249553,91331,POINT (-118.403018 34.249553)
14080 Ventura Blvd,Sherman Oaks,The Higher Path,the-higher-path-sherman-oaks,California,dispensary,https://weedmaps.com/dispensaries/the-higher-path-sherman-oaks,-118.4398272,34.1493088,91423,POINT (-118.4398272 34.1493088)
1037 E Pacific Coast Hwy,Wilmington,5 Leaves,5-leaves,CA,dispensary,https://weedmaps.com/dispensaries/5-leaves,-118.249628,33.791101,90744,POINT (-118.249628 33.791101)
2753 W Pico Blvd,Los Angeles,Pico Gardens,pico-gardens-2,California,dispensary,https://weedmaps.com/dispensaries/pico-gardens-2,-118.299046,34.047393,90006,POINT (-118.299046 34.047393)
9221 S Central Ave,Los Angeles,WEED CENTRAL - 10G for 45,weed-central,,dispensary,https://weedmaps.com/dispensaries/weed-central,-118.256068,33.952134,90002,POINT (-118.256068 33.952134)
432 S. San Vicente Blvd. Suite #100,Los Angeles,BARC - BEVERLY ALTERNATIVE RELIEF,barccollective,CA,dispensary,https://weedmaps.com/dispensaries/barccollective,-118.375675,34.070764,90048,POINT (-118.375675 34.070764)
18448 Oxnard Street,Reseda,Reseda Discount Caregivers,reseda-discount-caregivers-van-nuys,CA,dispensary,https://weedmaps.com/dispensaries/reseda-discount-caregivers-van-nuys,-118.535003,34.179629,91356,POINT (-118.535003 34.179629)
21146 Ventura Blvd Unit 5,Woodland Hills,Club 101,ventura-collective,CA,dispensary,https://weedmaps.com/dispensaries/ventura-collective,-118.59433,34.167019,91364,POINT (-118.59433 34.167019)
4720 Vineland Avenue,North Hollywood,MMD - North Hollywood,californiacompassionate,CA,dispensary,https://weedmaps.com/dispensaries/californiacompassionate,-118.3702321,34.1561445,91602,POINT (-118.3702321 34.1561445)
1040 North Western Ave.,Los Angeles,Smartweed,smartweed,CA,dispensary,https://weedmaps.com/dispensaries/smartweed,-118.308888,34.08956,90029,POINT (-118.308888 34.08956)
,Los Angeles,Top Shelf California,topshelf-delivery-service,CA,delivery,https://weedmaps.com/deliveries/topshelf-delivery-service,-118.39648,34.147004,90048,POINT (-118.39648 34.147004)
,Korea Town,Kush Coast LA,kush-coast-la,CA,delivery,https://weedmaps.com/deliveries/kush-coast-la,-118.298757,34.060518,90005,POINT (-118.298757 34.060518)
,Woodland Hills,Deluxe Caregivers,deluxe-caregivers,CA,delivery,https://weedmaps.com/deliveries/deluxe-caregivers,-118.597545,34.179267,91401,POINT (-118.597545 34.179267)
,Los Angeles,Moonlight LA,moonlight-la,CA,delivery,https://weedmaps.com/deliveries/moonlight-la,-118.25696,34.04523,90014,POINT (-118.25696 34.04523)
,Northridge,GRASSDOOR,grassdoor-10,CA,delivery,https://weedmaps.com/deliveries/grassdoor-10,-118.536005,34.257393,91325,POINT (-118.536005 34.257393)
,North Hollywood,Weedmates,weedmates-2,CA,delivery,https://weedmaps.com/deliveries/weedmates-2,-118.379858,34.176322,91606,POINT (-118.379858 34.176322)
,Van Nuys,Epik Movement,epik-movement-5,CA,delivery,https://weedmaps.com/deliveries/epik-movement-5,-118.483664,34.221401,91343,POINT (-118.483664 34.221401)
,Los Angeles,Mecca Natural Medicine - Delivery,mecca-natural-medicine-delivery,CA,delivery,https://weedmaps.com/deliveries/mecca-natural-medicine-delivery,-118.377226,34.038266,90016,POINT (-118.377226 34.038266)
,LA,KUSHAGRAM,kushagram-15,CA,delivery,https://weedmaps.com/deliveries/kushagram-15,-118.304929,34.104281,90027,POINT (-118.304929 34.104281)
253 West Jefferson Blvd,Los Angeles,University 20 CAP,jefferson-20-cap,CA,dispensary,https://weedmaps.com/dispensaries/jefferson-20-cap,-118.275478,34.020447,90007,POINT (-118.275478 34.020447)
350 W Martin Luther King Jr Blvd,Los Angeles,New Age Care Center,la-new-age-collective-center,CA,dispensary,https://weedmaps.com/dispensaries/la-new-age-collective-center,-118.279622,34.010792,90037,POINT (-118.279622 34.010792)
650 N. Broad Ave,Wilmington,Kush 25,kush-25,CA,dispensary,https://weedmaps.com/dispensaries/kush-25,-118.260574,33.778519,90744,POINT (-118.260574 33.778519)
9304 S. Broadway,Los Angeles,Broadway LA Pharmacy - 30 CAP,santa-ana-outrageousness,CA,dispensary,https://weedmaps.com/dispensaries/santa-ana-outrageousness,-118.277845,33.951708,90003,POINT (-118.277845 33.951708)
11410 S Central Ave,Los Angeles,One Stop Shop 20 Cap Collective,one-stop-shop-25-cap-collective,CA,dispensary,https://weedmaps.com/dispensaries/one-stop-shop-25-cap-collective,-118.253938,33.930619,90059,POINT (-118.253938 33.930619)
326 N Vermont Ave,Los Angeles,LAC,lac-la-collective,CA,dispensary,https://weedmaps.com/dispensaries/lac-la-collective,-118.291419,34.077185,90004,POINT (-118.291419 34.077185)
1511 Esperanza St,Los Angeles,The Bogo House,ela-space-buds,,dispensary,https://weedmaps.com/dispensaries/ela-space-buds,-118.201255,34.015549,90023,POINT (-118.201255 34.015549)
1944 N Cahuenga Blvd,Hollywood,"The Kind Center, Inc.",the-kind-center-inc,California,dispensary,https://weedmaps.com/dispensaries/the-kind-center-inc,-118.330486,34.10657,90068,POINT (-118.330486 34.10657)
21627 Devonshire st.,Chatsworth,Strain Balboa Caregivers - Adult Use,strain-30-cap-selective,CA,dispensary,https://weedmaps.com/dispensaries/strain-30-cap-selective,-118.6013195,34.2574809,91311,POINT (-118.6013195 34.2574809)
1716 MAIN ST.,Venice,Green Goddess Collective,greengoddess,CA,dispensary,https://weedmaps.com/dispensaries/greengoddess,-118.47047,33.987753,90291,POINT (-118.47047 33.987753)
8311 Beverly Blvd,Los Angeles,The Green Easy,tge,CA,dispensary,https://weedmaps.com/dispensaries/tge,-118.370479,34.076304,90048,POINT (-118.370479 34.076304)
23043 Ventura Blvd.,Woodland Hills,West Valley Patients Center (PRE-ICO),west-valley-patients-group-2-2,CA,dispensary,https://weedmaps.com/dispensaries/west-valley-patients-group-2-2,-118.6282757,34.1644899,91364,POINT (-118.6282757 34.1644899)
14626 Victory Blvd,Van Nuys,OG Roots,og-roots,CA,dispensary,https://weedmaps.com/dispensaries/og-roots,-118.451929,34.18651,91411,POINT (-118.451929 34.18651)
,Van Nuys,Puffy Delivery,organix-van-nuys,California,delivery,https://weedmaps.com/deliveries/organix-van-nuys,-118.431203,34.172165,91405,POINT (-118.431203 34.172165)
,Hollywood,The Private Reserve,top-shelf-delivery-4am,CA,delivery,https://weedmaps.com/deliveries/top-shelf-delivery-4am,-118.346994,34.128843,90068,POINT (-118.346994 34.128843)
,Culver City,GRASSDOOR,grassdoor-14,CA,delivery,https://weedmaps.com/deliveries/grassdoor-14,-118.427763,34.026314,90034,POINT (-118.427763 34.026314)
,Woodland Hills,Tasty Farms Delivery - Woodland Hills,tasty-farms-delivery-5,,delivery,https://weedmaps.com/deliveries/tasty-farms-delivery-5,-118.606024,34.197384,91364,POINT (-118.606024 34.197384)
,Sherman Oaks,GRASSDOOR,grassdoor-11,CA,delivery,https://weedmaps.com/deliveries/grassdoor-11,-118.433175,34.160496,91423,POINT (-118.433175 34.160496)
,Downtown LA,OrangeLeaf,orangeleaf-4,CA,delivery,https://weedmaps.com/deliveries/orangeleaf-4,-118.253377,34.045251,90014,POINT (-118.253377 34.045251)
,Mid Town,BudEx Delivery,budex-delivery-11,CA,delivery,https://weedmaps.com/deliveries/budex-delivery-11,-118.289395,34.034738,90007,POINT (-118.289395 34.034738)
,North Hollywood,CanEx Delivery,canex-delivery-6,CA,delivery,https://weedmaps.com/deliveries/canex-delivery-6,-118.370378,34.157646,91606,POINT (-118.370378 34.157646)
,Northridge,US Dank Delivery,us-dank-2,California,delivery,https://weedmaps.com/deliveries/us-dank-2,-118.527389,34.249554,91330,POINT (-118.527389 34.249554)
,Los Angeles,WeeDeals,weedeals-6,CA,delivery,https://weedmaps.com/deliveries/weedeals-6,-118.43939,34.078377,90024,POINT (-118.43939 34.078377)
,Los Angeles,Los Angeles Kush Deliver,los-angeles-kush-deliver,California,delivery,https://weedmaps.com/deliveries/los-angeles-kush-deliver,-118.270412,34.080597,90026,POINT (-118.270412 34.080597)
1658 West Carson St. Suite B,Torrance,Green Cross of Torrance,green-cross-of-torrance,CA,dispensary,https://weedmaps.com/dispensaries/green-cross-of-torrance,-118.3086093,33.831098,90501,POINT (-118.3086093 33.831098)
5359 Valley Blvd,Los Angeles,The High Note East,highnoteeast,CA,dispensary,https://weedmaps.com/dispensaries/highnoteeast,-118.166772,34.074718,90032,POINT (-118.166772 34.074718)
25915 Senator Avenue,Harbor City,Exclusive Care and Wellness,exclusive-care-and-wellness,CA,dispensary,https://weedmaps.com/dispensaries/exclusive-care-and-wellness,-118.302862,33.787915,90710,POINT (-118.302862 33.787915)
7132 Foothill Blvd.,Tujunga,FOOTHILL WELLNESS CENTER - Pre ICO,foothill-wellness-center-2,,dispensary,https://weedmaps.com/dispensaries/foothill-wellness-center-2,-118.287349,34.247969,91042,POINT (-118.287349 34.247969)
7503 Laurel Canyon Blvd,North Hollywood,Merica Cannabis Company,merica-cannabis-company,CA,dispensary,https://weedmaps.com/dispensaries/merica-cannabis-company,-118.396719,34.206955,91605,POINT (-118.396719 34.206955)
17815 Chatsworth St. Suite A,Granada Hills,Granada Gardens 20 Cap,granada-gardens-20-cap,CA,dispensary,https://weedmaps.com/dispensaries/granada-gardens-20-cap,-118.522024,34.265109,91344,POINT (-118.522024 34.265109)
15507 Cobalt Street #4,Sylmar,Greenlight Discount Pharmacy Pre-ICO,greenlight-discount-pharmacy,CA,dispensary,https://weedmaps.com/dispensaries/greenlight-discount-pharmacy,-118.470101,34.307005,91342,POINT (-118.470101 34.307005)
8053 Deering Ave.,Canoga Park,DC Collective,dc-collective,CA,dispensary,https://weedmaps.com/dispensaries/dc-collective,-118.595255,34.216779,91304,POINT (-118.595255 34.216779)
654 N Manhattan Pl,Los Angeles,California Cannabis Melrose,california-cannabis-melrose,CA,dispensary,https://weedmaps.com/dispensaries/california-cannabis-melrose,-118.309961,34.0832,90004,POINT (-118.309961 34.0832)
1310 Abbot Kinney Blvd.,Venice,MedMen Abbot Kinney,medmen-venice-beach-abbot-kinney,CA,dispensary,https://weedmaps.com/dispensaries/medmen-venice-beach-abbot-kinney,-118.467878,33.990829,90291,POINT (-118.467878 33.990829)
7051 B Santa Monica Blvd,Hollywood,Hollywood High Grade,hollywood-high-grade-hollywood-los-angeles,ca,dispensary,https://weedmaps.com/dispensaries/hollywood-high-grade-hollywood-los-angeles,-118.343381,34.090861,90038,POINT (-118.343381 34.090861)
25937 S Western Ave,Lomita,EVOLV Cannabis,evolv-cannabis,CA,dispensary,https://weedmaps.com/dispensaries/evolv-cannabis,-118.308087,33.787102,90717,POINT (-118.308087 33.787102)
,Downtown Los Angeles,Best Remedy,cultivate-collective,CA,delivery,https://weedmaps.com/deliveries/cultivate-collective,-118.264342,34.03887,91744,POINT (-118.264342 34.03887)
,Silver Lake,Top Shelf California,top-shelf-delivery-4am-2,CA,delivery,https://weedmaps.com/deliveries/top-shelf-delivery-4am-2,-118.258393,34.095625,90026,POINT (-118.258393 34.095625)
,Sherman Oaks,Bronto Delivery,bronto-delivery,CA,delivery,https://weedmaps.com/deliveries/bronto-delivery,-118.448725,34.16487,91403,POINT (-118.448725 34.16487)
,Hollywood,420 King Delivery,420-king-delivery,CA,delivery,https://weedmaps.com/deliveries/420-king-delivery,-118.317968,34.101736,90028,POINT (-118.317968 34.101736)
,Mid Town,LA DANKTOWN - MID CITY,la-danktown-mid-city,CA,delivery,https://weedmaps.com/deliveries/la-danktown-mid-city,-118.330614,34.047196,90019,POINT (-118.330614 34.047196)
,canoga park,Dank California Collective,dank-california-collective,California,delivery,https://weedmaps.com/deliveries/dank-california-collective,-118.588549,34.228026,91304,POINT (-118.588549 34.228026)
,Van Nuys,Cali K Delivery,cali-k-delivery-2,CA,delivery,https://weedmaps.com/deliveries/cali-k-delivery-2,-118.444359,34.186702,91411,POINT (-118.444359 34.186702)
,Northridge,Bronto Delivery,bronto-delivery-3,California,delivery,https://weedmaps.com/deliveries/bronto-delivery-3,-118.536074,34.201138,91335,POINT (-118.536074 34.201138)
,West LA,DR Kush Delivery ð¥,dr-kush-delivery-4,CA,delivery,https://weedmaps.com/deliveries/dr-kush-delivery-4,-118.446527,34.046987,90025,POINT (-118.446527 34.046987)
,Harbor City,Good Tree,good-tree-9,,delivery,https://weedmaps.com/deliveries/good-tree-9,-118.221212,33.782653,90710,POINT (-118.221212 33.782653)
,East LA,Cloud 8th DTLA,cloud-8th-dtla-2,CA,delivery,https://weedmaps.com/deliveries/cloud-8th-dtla-2,-118.215811,34.034369,90023,POINT (-118.215811 34.034369)
,Los Angeles,Kush Coast LA,kush-coast-la-2-1,California,delivery,https://weedmaps.com/deliveries/kush-coast-la-2-1,-118.370063,34.076567,90036,POINT (-118.370063 34.076567)
6916 S. Western Ave Unit - B,Los Angeles,LA Wellness,la-wellness,CA,dispensary,https://weedmaps.com/dispensaries/la-wellness,-118.308554,33.976471,90047,POINT (-118.308554 33.976471)
2418 N Broadway,Los Angeles,BMAC,bmac,CA,dispensary,https://weedmaps.com/dispensaries/bmac,-118.216231,34.0733,90031,POINT (-118.216231 34.0733)
1914 E Olympic Blvd,Los Angeles,Sexy Nuggs Collective,sexy-nuggs-collective,CA,dispensary,https://weedmaps.com/dispensaries/sexy-nuggs-collective,-118.237391,34.026861,90021,POINT (-118.237391 34.026861)
11376 Ventura Blvd,Studio City,Urban Treez - Adult Use,bhang-society-2-5,CA,dispensary,https://weedmaps.com/dispensaries/bhang-society-2-5,-118.378285,34.139913,91604,POINT (-118.378285 34.139913)
824 E. Anaheim St. Unit B,Wilmington,Delta 9 THC 21+,delta-9-thc,CA,dispensary,https://weedmaps.com/dispensaries/delta-9-thc,-118.252246,33.780288,90744,POINT (-118.252246 33.780288)
5632 Lankershim Blvd,North Hollywood,GSG - Gold State Greens,gsg-gold-state-greens,CA,dispensary,https://weedmaps.com/dispensaries/gsg-gold-state-greens,-118.37961,34.173795,91601,POINT (-118.37961 34.173795)
927 1/2 Western ave.,Los Angeles,Natural Remedies Caregivers,nrc,CA,dispensary,https://weedmaps.com/dispensaries/nrc,-118.3091782,34.0874643,90029,POINT (-118.3091782 34.0874643)
7127 Canoga Avenue,Canoga Park,COAST TO COAST COLLECTIVE,coast-to-coast-collective,CA,dispensary,https://weedmaps.com/dispensaries/coast-to-coast-collective,-118.5981,34.199973,91303,POINT (-118.5981 34.199973)
6853 Woodley Avenue,Van Nuys,25 Woodley,woodley-care-center,CA,dispensary,https://weedmaps.com/dispensaries/woodley-care-center,-118.484254,34.195415,91406,POINT (-118.484254 34.195415)
,Woodland Hills,Golden Leaf,golden-leaf-10,CA,delivery,https://weedmaps.com/deliveries/golden-leaf-10,-118.597497,34.193761,91403,POINT (-118.597497 34.193761)
,North Hollywood,BudExpress,budexpress-2,CA,delivery,https://weedmaps.com/deliveries/budexpress-2,-118.37745,34.160886,91601,POINT (-118.37745 34.160886)
,Van Nuys,The Gas Station - Delivery Service,the-gas-station-9,CA,delivery,https://weedmaps.com/deliveries/the-gas-station-9,-118.466522,34.193899,91401,POINT (-118.466522 34.193899)
,Studio City,Trap House Delivery,trap-house-delivery-2,CA,delivery,https://weedmaps.com/deliveries/trap-house-delivery-2,-118.395059,34.142873,1604,POINT (-118.395059 34.142873)
,Hollywood,GRASSDOOR,grassdoor-9,CA,delivery,https://weedmaps.com/deliveries/grassdoor-9,-118.338735,34.092566,90038,POINT (-118.338735 34.092566)
,Los Angeles,Metro Bloomin,metro-bloomin,CA,delivery,https://weedmaps.com/deliveries/metro-bloomin,-118.249215,34.060693,90012,POINT (-118.249215 34.060693)
,Mid Town,Best Remedy,best-remedy-14,CA,delivery,https://weedmaps.com/deliveries/best-remedy-14,-118.338135,34.039064,90016,POINT (-118.338135 34.039064)
,Northridge,KUSHANOVA,kushanova-5,CA,delivery,https://weedmaps.com/deliveries/kushanova-5,-118.525349,34.250916,91330,POINT (-118.525349 34.250916)
,Los Angeles,Weemoji,weemoji,CA,delivery,https://weedmaps.com/deliveries/weemoji,-118.455012,34.070359,90001,POINT (-118.455012 34.070359)
Visit our Website www.OnlineMedicalCard.com,Hollywood,OnlineMedicalCard.com (100% Online),online-medical-cards-37,CA,doctor,https://weedmaps.com/doctors/online-medical-cards-37,-118.387741,34.186672,91603,POINT (-118.387741 34.186672)
Visit our Website www.OnlineMedicalCard.com,Los Angeles,OnlineMedicalCard.com (100% Online),online-medical-cards-34,CA,doctor,https://weedmaps.com/doctors/online-medical-cards-34,-118.2439,34.0544,90017,POINT (-118.2439 34.0544)
4849 Van Nuys Blvd #204,Sherman Oaks,Dr. Sean Aldridge,aldridge-medical-inc-dr-shawn-aldridge,CA,doctor,https://weedmaps.com/doctors/aldridge-medical-inc-dr-shawn-aldridge,-118.449419,34.158871,91423,POINT (-118.449419 34.158871)
2111 Long Beach Ave,Los Angeles,Cloud 8th DTLA,canna-health-caregiver,CA,dispensary,https://weedmaps.com/dispensaries/canna-health-caregiver,-118.243825,34.017649,90058,POINT (-118.243825 34.017649)
10745 RIVERSIDE DR SUITE A,NORTH HOLLYWOOD,Smart Collective,smartcollective-2,CA,dispensary,https://weedmaps.com/dispensaries/smartcollective-2,-118.365146,34.152411,91602,POINT (-118.365146 34.152411)
22150 Ventura Blvd unit 102,Woodland Hills,Weedland Hills,weedland-hills-3,CA,dispensary,https://weedmaps.com/dispensaries/weedland-hills-3,-118.609931,34.168379,91364,POINT (-118.609931 34.168379)
726 e 8th street,Los angeles,Flower Shop DTLA,flower-shop-dtla,California,dispensary,https://weedmaps.com/dispensaries/flower-shop-dtla,-118.248623,34.037609,90021,POINT (-118.248623 34.037609)
9223 South Central Ave,Los Angeles,CC Central Caregivers Inc.,ccc-central-cannasseurs-collective,CA,dispensary,https://weedmaps.com/dispensaries/ccc-central-cannasseurs-collective,-118.255944,33.952078,90002,POINT (-118.255944 33.952078)
13187 San Fernando Rd,Sylmar,SCG,scg,California,dispensary,https://weedmaps.com/dispensaries/scg,-118.47414,34.310285,91342,POINT (-118.47414 34.310285)
,North Hollywood,RUSH,the-family-healers-tfh-2,CA,delivery,https://weedmaps.com/deliveries/the-family-healers-tfh-2,-118.370249,34.168634,91605,POINT (-118.370249 34.168634)
,Los Angeles,Hollywood Hitters,hollywood-hitters,,delivery,https://weedmaps.com/deliveries/hollywood-hitters,-118.309298,34.101707,90027,POINT (-118.309298 34.101707)
,LA,Green Tree Remedy,green-tree-remedy-6,CA,delivery,https://weedmaps.com/deliveries/green-tree-remedy-6,-118.249461,34.033721,90021,POINT (-118.249461 34.033721)
,Northridge,Deluxe Caregivers,deluxe-caregivers-northridge,CA,delivery,https://weedmaps.com/deliveries/deluxe-caregivers-northridge,-118.523282,34.235654,91326,POINT (-118.523282 34.235654)
,Woodland HIlls,HIGH HOPES LA,high-hopes-la,CA,delivery,https://weedmaps.com/deliveries/high-hopes-la,-118.630814,34.162693,91364,POINT (-118.630814 34.162693)
,West Hollywood,The Land of Kush,the-land-of-kush-2,CA,delivery,https://weedmaps.com/deliveries/the-land-of-kush-2,-118.361265,34.0717,90048,POINT (-118.361265 34.0717)
,West LA,LuvBrite Delivery - West LA,secretgarden-2-3,CA,delivery,https://weedmaps.com/deliveries/secretgarden-2-3,-118.429761,34.053666,90025,POINT (-118.429761 34.053666)
,Korea Town,LYT Delivery,lyt-delivery-6,Ca,delivery,https://weedmaps.com/deliveries/lyt-delivery-6,-118.309272,34.061743,90010,POINT (-118.309272 34.061743)
,Sherman Oaks,California Spirit,california-spirit,CA,delivery,https://weedmaps.com/deliveries/california-spirit,-118.420998,34.15408,91401,POINT (-118.420998 34.15408)
,Van Nuys,Mr Smoke,mr-smoke-2,Ca,delivery,https://weedmaps.com/deliveries/mr-smoke-2,-118.438138,34.179394,91405,POINT (-118.438138 34.179394)
8926 S. Western Ave,Los Angeles,People Collective 25 CAP,people-collective-25-cap,CA,dispensary,https://weedmaps.com/dispensaries/people-collective-25-cap,-118.308714,33.955482,90047,POINT (-118.308714 33.955482)
10401 S Avalon Blvd,Los Angeles,Trichome Research Group (TRG),trg,CA,dispensary,https://weedmaps.com/dispensaries/trg,-118.265507,33.941773,90003,POINT (-118.265507 33.941773)
18438 Saticoy Street,Reseda,Bud King - PRE-ICO/Prop. D,bud-king,CA,dispensary,https://weedmaps.com/dispensaries/bud-king,-118.535189,34.20824,91335,POINT (-118.535189 34.20824)
5024 VINELAND AVE,NORTH HOLLYWOOD,GTR NOHO,gtr-noho,CA,dispensary,https://weedmaps.com/dispensaries/gtr-noho,-118.370005,34.161932,91601,POINT (-118.370005 34.161932)
11101 Ventura Blvd,Studio City,CannaSutra Pre-ICO,cannasutra-420,California,dispensary,https://weedmaps.com/dispensaries/cannasutra-420,-118.3719835,34.1413928,91604,POINT (-118.3719835 34.1413928)
1035 Gayley Ave,Los Angeles,The Farmacy Westwood,sunnyside-care-collective,CA,dispensary,https://weedmaps.com/dispensaries/sunnyside-care-collective,-118.447467,34.061137,90024,POINT (-118.447467 34.061137)
12423 Gladstone Avenue,Sylmar,Herbal Remedies Caregivers,herbal-remedies-caregivers-2,CA,dispensary,https://weedmaps.com/dispensaries/herbal-remedies-caregivers-2,-118.412265,34.295557,91342,POINT (-118.412265 34.295557)
22831 Ventura Blvd,Woodland Hills,REMEDISTA CBD - Grand Opening 05/18!,remidista-cbd-coming-soon,California,dispensary,https://weedmaps.com/dispensaries/remidista-cbd-coming-soon,-118.624429,34.165918,91364,POINT (-118.624429 34.165918)
,Glendale,Just Smoke It Delivery,hp-med-collective,CA,delivery,https://weedmaps.com/deliveries/hp-med-collective,-118.251542,34.120438,90065,POINT (-118.251542 34.120438)
,Sylmar,Fire Bud Industries,fire-bud-industries,CA,delivery,https://weedmaps.com/deliveries/fire-bud-industries,-118.470148,34.312291,91342,POINT (-118.470148 34.312291)
,Hollywood,Kush Factory Delivery,kush-factory-delivery-hollywood,CA,delivery,https://weedmaps.com/deliveries/kush-factory-delivery-hollywood,-118.315795,34.098049,90028,POINT (-118.315795 34.098049)
,West Hollywood,TESTED WEED - West Hollywood - Open Late,weed-beverly-hills-open-late,CA,delivery,https://weedmaps.com/deliveries/weed-beverly-hills-open-late,-118.348979,34.098015,90069,POINT (-118.348979 34.098015)
,Woodland HIlls,California Spirit,california-spirit-2,CA,delivery,https://weedmaps.com/deliveries/california-spirit-2,-118.612443,34.162906,91364,POINT (-118.612443 34.162906)
,Silver Lake,Metro Bloomin,metro-bloomin-2,CA,delivery,https://weedmaps.com/deliveries/metro-bloomin-2,-118.268599,34.08931,90026,POINT (-118.268599 34.08931)
Visit our Website,Sherman Oaks,OnlineMedicalCard.com (100% Online),online-medical-cards-12,CA,doctor,https://weedmaps.com/doctors/online-medical-cards-12,-118.431194,34.157896,91423,POINT (-118.431194 34.157896)
3750 East Olympic Blvd.,Los Angeles,Olympic 25,olympic-25,CA,dispensary,https://weedmaps.com/dispensaries/olympic-25,-118.194604,34.018665,90023,POINT (-118.194604 34.018665)
5011 lankershim blvd,north hollywood,Hollywood House of Herbs 20 Cap,hollywood-house-of-bogo-collective,California,dispensary,https://weedmaps.com/dispensaries/hollywood-house-of-bogo-collective,-118.372832,34.161159,91601,POINT (-118.372832 34.161159)
7111 South Broadway,Los Angeles,110 Medical - 20 Cap,broadway-medical-center-2-2,CA,dispensary,https://weedmaps.com/dispensaries/broadway-medical-center-2-2,-118.278577,33.975231,90003,POINT (-118.278577 33.975231)
15460 Devonshire st.,Mission Hills,West Coast Holistic Center Pre-ICO,west-coast-holistic-center,CA,dispensary,https://weedmaps.com/dispensaries/west-coast-holistic-center,-118.469481,34.257104,91345,POINT (-118.469481 34.257104)
14901 Oxnard Street,Van Nuys,The Reefinery - Adult Use,sherman-oaks-health-center,CA,dispensary,https://weedmaps.com/dispensaries/sherman-oaks-health-center,-118.457681,34.179607,91411,POINT (-118.457681 34.179607)
15374 Dickens St.,Sherman Oaks,Apothecary,apothecary-sherman-oaks,CA,dispensary,https://weedmaps.com/dispensaries/apothecary-sherman-oaks,-118.468735,34.153227,91403,POINT (-118.468735 34.153227)
1122 East 14th Street,Los Angeles,Reefer Room,reefer-room,CA,dispensary,https://weedmaps.com/dispensaries/reefer-room,-118.248478,34.028887,90021,POINT (-118.248478 34.028887)
,Hollywood,Med City Delivery - Hollywood,420-city,CA,delivery,https://weedmaps.com/deliveries/420-city,-118.320763,34.103072,90028,POINT (-118.320763 34.103072)
,Los Angeles,Kush Klinic,kush-klinic,CA,delivery,https://weedmaps.com/deliveries/kush-klinic,-118.230037,34.03462,90021,POINT (-118.230037 34.03462)
,Los Angeles,GRASSDOOR,grassdoor-8,California,delivery,https://weedmaps.com/deliveries/grassdoor-8,-118.284376,34.067728,90020,POINT (-118.284376 34.067728)
,Sherman Oaks,RUSH,the-family-healers-tfh,CA,delivery,https://weedmaps.com/deliveries/the-family-healers-tfh,-118.413778,34.145092,91423,POINT (-118.413778 34.145092)
,Los Angeles,Mary Couture Delivery Service,mary-couture-delivery-service-4,CA,delivery,https://weedmaps.com/deliveries/mary-couture-delivery-service-4,-118.453527,34.075548,90024,POINT (-118.453527 34.075548)
,Panorama City,BudHut LA *OPEN LATE!* - Panorama City,bud-hut-2-8,CA,delivery,https://weedmaps.com/deliveries/bud-hut-2-8,-118.440429,34.235342,91402,POINT (-118.440429 34.235342)
,Los Angeles,Captain OG Delivery,green-life-10,California,delivery,https://weedmaps.com/deliveries/green-life-10,-118.368509,34.083922,90036,POINT (-118.368509 34.083922)
,North Hollywood,OrangeLeaf,orangeleaf,CA,delivery,https://weedmaps.com/deliveries/orangeleaf,-118.373828,34.177138,91601,POINT (-118.373828 34.177138)
,Glendale,AFFCO,affco-3,CA,delivery,https://weedmaps.com/deliveries/affco-3,-118.231737,34.12499,90065,POINT (-118.231737 34.12499)
8836 South Vermont,Los Angeles,OG Top Shop,vermont-gas,CA,dispensary,https://weedmaps.com/dispensaries/vermont-gas,-118.291209,33.957239,90044,POINT (-118.291209 33.957239)
11669 Vanowen St,North Hollywood,Compassion Union,compassion-union-2-6,CA,dispensary,https://weedmaps.com/dispensaries/compassion-union-2-6,-118.386923,34.193945,91605,POINT (-118.386923 34.193945)
1609 Lockness Place,Torrance,INFINITY MEDICAL ALLIANCE - Torrance,infinity-medical-alliance,CA,dispensary,https://weedmaps.com/dispensaries/infinity-medical-alliance,-118.305964,33.818082,90501,POINT (-118.305964 33.818082)
16901 Roscoe Blvd,Northridge,Circle Of Hope,circle-of-hope,Ca,dispensary,https://weedmaps.com/dispensaries/circle-of-hope,-118.501258,34.221652,91343,POINT (-118.501258 34.221652)
18013 Ventura Blvd unit A,Encino,THE HEALING TOUCH,tht,CA,dispensary,https://weedmaps.com/dispensaries/tht,-118.525072,34.16488,91316,POINT (-118.525072 34.16488)
14522 Victory Blvd,Van Nuys,Valley Herbal Center,vhc-van-nuys,CA,dispensary,https://weedmaps.com/dispensaries/vhc-van-nuys,-118.449643,34.186467,91405,POINT (-118.449643 34.186467)
10736 Sepulveda Blvd.,Mission Hills,Herbal Pain Relief Center,missionhillsorganic,CA,dispensary,https://weedmaps.com/dispensaries/missionhillsorganic,-118.4670804,34.2652813,91345,POINT (-118.4670804 34.2652813)
10655 West Pico Blvd,Los Angeles,Euphoric,euphoric-40-cap,CA,dispensary,https://weedmaps.com/dispensaries/euphoric-40-cap,-118.4237806,34.0427874,90064,POINT (-118.4237806 34.0427874)
8762 Pico Blvd,Los Angeles,Greens Good,greens-good,Ca,dispensary,https://weedmaps.com/dispensaries/greens-good,-118.383178,34.054705,90035,POINT (-118.383178 34.054705)
21608 Sherman Way,Canoga Park,Mary J's Cafe,mary-js-cafe,CA,dispensary,https://weedmaps.com/dispensaries/mary-js-cafe,-118.600547,34.200729,91303,POINT (-118.600547 34.200729)
750 east Jefferson Blvd.,Los Angeles,Breaking Bud 20 Cap,breaking-bud-20-cap,CA,dispensary,https://weedmaps.com/dispensaries/breaking-bud-20-cap,-118.263924,34.01453,90011,POINT (-118.263924 34.01453)
16418 S. Vermont Ave,Gardena,The 710 Club - OPEN 24 Hours!,the-710-club-south-bay,CA,dispensary,https://weedmaps.com/dispensaries/the-710-club-south-bay,-118.291129,33.881973,90247,POINT (-118.291129 33.881973)
5635 Melrose Ave. Unit A,Los Angeles,Melrose Place 25 Cap,melrose-place,CA,dispensary,https://weedmaps.com/dispensaries/melrose-place,-118.32348,34.083805,90038,POINT (-118.32348 34.083805)
420 E 11th Street,Los Angeles,Kush Mart 20 Cap Collective,kush-mart-20-cap-collective,CA,dispensary,https://weedmaps.com/dispensaries/kush-mart-20-cap-collective,-118.254535,34.036598,90015,POINT (-118.254535 34.036598)
,Korea Town,LA DANKTOWN,la-danktown,CA,delivery,https://weedmaps.com/deliveries/la-danktown,-118.296227,34.061824,90005,POINT (-118.296227 34.061824)
,Glendale,RUSH,the-family-healers-tfh-3,CA,delivery,https://weedmaps.com/deliveries/the-family-healers-tfh-3,-118.269032,34.133388,90039,POINT (-118.269032 34.133388)
,Los Angeles,Mood Delivery,mood-delivery,Ca,delivery,https://weedmaps.com/deliveries/mood-delivery,-118.264194,34.046758,90015,POINT (-118.264194 34.046758)
,Los Angeles,420 Degrees,420-degrees-10,CA,delivery,https://weedmaps.com/deliveries/420-degrees-10,-118.264784,33.960414,90001,POINT (-118.264784 33.960414)
,Sherman Oaks,Tasty Farms Delivery - Sherman Oaks,tasty-farms-delivery-6,,delivery,https://weedmaps.com/deliveries/tasty-farms-delivery-6,-118.461949,34.151882,91403,POINT (-118.461949 34.151882)
,West Los Angeles,GRASSDOOR,grassdoor-13,CA,delivery,https://weedmaps.com/deliveries/grassdoor-13,-118.438491,34.059695,90230,POINT (-118.438491 34.059695)
,Hollywood,Best Remedy,best-remedy-15,Ca,delivery,https://weedmaps.com/deliveries/best-remedy-15,-118.300372,34.088616,90029,POINT (-118.300372 34.088616)
5608 Willow Crest Avenue,North Hollywood,House of Savage,the-house-of-savage-2,CA,dispensary,https://weedmaps.com/dispensaries/the-house-of-savage-2,-118.362628,34.172195,91601,POINT (-118.362628 34.172195)
1115 West 190th St.,Gardena,BEACH Center - South Bay,beach-center,CA,dispensary,https://weedmaps.com/dispensaries/beach-center,-118.295374,33.858537,90248,POINT (-118.295374 33.858537)
3350 W. 8th Street,Los Angeles,Super Supreme,7solstice-collective,California,dispensary,https://weedmaps.com/dispensaries/7solstice-collective,-118.301898,34.057475,90005,POINT (-118.301898 34.057475)
3733 Whittier Blvd,Los Angeles,WWC 25 CAP,wwc-25-cap,CA,dispensary,https://weedmaps.com/dispensaries/wwc-25-cap,-118.192874,34.024388,90023,POINT (-118.192874 34.024388)
12581 venice blvd,Los Angeles,Venice Royals,venice-royals,California,dispensary,https://weedmaps.com/dispensaries/venice-royals,-118.436334,34.002694,90066,POINT (-118.436334 34.002694)
7826 Balboa Blvd,Van Nuys,Van Nuys Medical Alliance,van-nuys-medical-alliance,CA,dispensary,https://weedmaps.com/dispensaries/van-nuys-medical-alliance,-118.500787,34.212951,91406,POINT (-118.500787 34.212951)
5017 S. Broadway,Los Angeles,Infinite Wellness 20 Cap,infinite-wellness-1,CA,dispensary,https://weedmaps.com/dispensaries/infinite-wellness-1,-118.278516,33.996866,90037,POINT (-118.278516 33.996866)
2340 S Centinela Ave,Los Angeles,Grace Medical,grace-medical,CA,dispensary,https://weedmaps.com/dispensaries/grace-medical,-118.453677,34.028556,90064,POINT (-118.453677 34.028556)
778 North Virgil ave,Los Angeles,LA CBD,la-cbd,CA,dispensary,https://weedmaps.com/dispensaries/la-cbd,-118.286565,34.085475,90029,POINT (-118.286565 34.085475)
,San Pedro,FIVESTAR,stickyz-420,CA,delivery,https://weedmaps.com/deliveries/stickyz-420,-118.316519,33.736223,90732,POINT (-118.316519 33.736223)
,Northridge,Weedmates,weedmates,CA,delivery,https://weedmaps.com/deliveries/weedmates,-118.505411,34.233061,91325,POINT (-118.505411 34.233061)
,Los Angeles,LA Green Run - South LA / Watts,la-green-run-south-la-2,CA,delivery,https://weedmaps.com/deliveries/la-green-run-south-la-2,-118.265803,33.945624,90003,POINT (-118.265803 33.945624)
,North Hollywood,Level Up Delivery,level-up-delivery-7,CA,delivery,https://weedmaps.com/deliveries/level-up-delivery-7,-118.379324,34.172142,91606,POINT (-118.379324 34.172142)
,Los Angeles,RUSH,the-family-healers-tfh-10,CA,delivery,https://weedmaps.com/deliveries/the-family-healers-tfh-10,-118.263835,34.054912,90017,POINT (-118.263835 34.054912)
,Los Angeles,WeeDeals,weedeals-5,CA,delivery,https://weedmaps.com/deliveries/weedeals-5,-118.472444,33.994595,90046,POINT (-118.472444 33.994595)
,West Hollywood,Kush Lyft,kush-lyft-3,Ca,delivery,https://weedmaps.com/deliveries/kush-lyft-3,-118.356233,34.098039,99999,POINT (-118.356233 34.098039)
,Hollywood,SoCal Organics,so-cal-organics-delivery,CA,delivery,https://weedmaps.com/deliveries/so-cal-organics-delivery,-118.333391,34.107379,90027,POINT (-118.333391 34.107379)
4817 Normandie Ave,Los Angeles,Kushology 5 Grams,kushology-1,California,dispensary,https://weedmaps.com/dispensaries/kushology-1,-118.300433,33.999555,90037,POINT (-118.300433 33.999555)
4901 S. Western Ave,los angeles,Secret Gardens 20 Cap,secret-gardens-20-cap-1,ca,dispensary,https://weedmaps.com/dispensaries/secret-gardens-20-cap-1,-118.309167,33.998902,90062,POINT (-118.309167 33.998902)
16850 Sherman Way,Lake Balboa,California State,hemp-collective,CA,dispensary,https://weedmaps.com/dispensaries/hemp-collective,-118.500653,34.200744,91406,POINT (-118.500653 34.200744)
2500 W. 8th Street,Los Angeles,Angels Kush - Korea Town,angels-kush,,dispensary,https://weedmaps.com/dispensaries/angels-kush,-118.282585,34.056529,90057,POINT (-118.282585 34.056529)
844 W Gardena Blvd.,Gardena,Lights Out 20 Cap,lights-out-20-cap,CA,dispensary,https://weedmaps.com/dispensaries/lights-out-20-cap,-118.290633,33.881469,90247,POINT (-118.290633 33.881469)
5021 San Vicente Blvd. Unit A,Los Angeles,Dankilicious 15 Cap,dabilicious-15-cap,California,dispensary,https://weedmaps.com/dispensaries/dabilicious-15-cap,-118.345418,34.050911,90019,POINT (-118.345418 34.050911)
,West Los Angeles,HERB,herb,CA,delivery,https://weedmaps.com/deliveries/herb,-118.424421,34.079051,90024,POINT (-118.424421 34.079051)
,Downtown LA,LA DANKTOWN,la-danktown-2,CA,delivery,https://weedmaps.com/deliveries/la-danktown-2,-118.262356,34.048569,90017,POINT (-118.262356 34.048569)
,Winnetka,Green Panda Express,green-panda-express-3,CA,delivery,https://weedmaps.com/deliveries/green-panda-express-3,-118.574813,34.200915,91316,POINT (-118.574813 34.200915)
,Los Angeles,Hello Happy Delivery - Korea Town / Echo Park,hello-happy-delivery,CA,delivery,https://weedmaps.com/deliveries/hello-happy-delivery,-118.300965,34.05768,90004,POINT (-118.300965 34.05768)
,Hollywood,Level Up Delivery,level-up-delivery-5,CA,delivery,https://weedmaps.com/deliveries/level-up-delivery-5,-118.330842,34.108281,90028,POINT (-118.330842 34.108281)
,San Pedro,Good Tree,good-tree-11,,delivery,https://weedmaps.com/deliveries/good-tree-11,-118.291094,33.712322,90731,POINT (-118.291094 33.712322)
,Sherman Oaks,DR Kush Delivery ð¥,dr-kush-delivery-5,CA,delivery,https://weedmaps.com/deliveries/dr-kush-delivery-5,-118.468491,34.154259,91403,POINT (-118.468491 34.154259)
,Venice,Kushy Delivery - Venice,kushy-delivery,CA,delivery,https://weedmaps.com/deliveries/kushy-delivery,-118.437504,34.001666,90066,POINT (-118.437504 34.001666)
,Mid City,Oz n Bounce,oz-n-bounce-2,CA,delivery,https://weedmaps.com/deliveries/oz-n-bounce-2,-118.358706,34.049603,90019,POINT (-118.358706 34.049603)
,Culver City,WeeDeals,weedeals-4,CA,delivery,https://weedmaps.com/deliveries/weedeals-4,-118.419709,34.020602,90265,POINT (-118.419709 34.020602)
,North Hollywood,Gramms Remedy,gramms-remedy,Ca,delivery,https://weedmaps.com/deliveries/gramms-remedy,-118.364319,34.174007,91601,POINT (-118.364319 34.174007)
1804 S Main St,Los Angeles,Mr Green,mr-green-2,CA,dispensary,https://weedmaps.com/dispensaries/mr-green-2,-118.263564,34.031786,90015,POINT (-118.263564 34.031786)
5417 Huntington Dr N,Los Angeles,Alhambra Collective 25 Cap,alhambra-collective-25-cap,CA,dispensary,https://weedmaps.com/dispensaries/alhambra-collective-25-cap,-118.162434,34.092724,90032,POINT (-118.162434 34.092724)
6820 Crenshaw Blvd,Los Angeles,Mr. T's Collective PRE-ICO,mr-t-s-collective,CA,dispensary,https://weedmaps.com/dispensaries/mr-t-s-collective,-118.330521,33.976316,90043,POINT (-118.330521 33.976316)
7520 Foothill Blvd,Tujunga,TNT Green,tnt-green,CA,dispensary,https://weedmaps.com/dispensaries/tnt-green,-118.296504,34.253362,91042,POINT (-118.296504 34.253362)
12814 Bradley Ave,Sylmar,PAC House Of Top Shelf - 25 Cap,patients-alternative-caregiver-pac,CA,dispensary,https://weedmaps.com/dispensaries/patients-alternative-caregiver-pac,-118.45635,34.303359,91342,POINT (-118.45635 34.303359)
21729 devonshire st.,Chatsworth,Bloom Valley 25 Cap,bloom-valley,CA,dispensary,https://weedmaps.com/dispensaries/bloom-valley,-118.602615,34.257534,91311,POINT (-118.602615 34.257534)
1289 S. La Brea Ave.,Los Angeles,La Brea Gardens 25 Cap,la-brea-gardens-25-cap,California,dispensary,https://weedmaps.com/dispensaries/la-brea-gardens-25-cap,-118.34468,34.050989,90019,POINT (-118.34468 34.050989)
15050 Oxnard St.,Van Nuys,The 15 Spot,the-15-spot,California,dispensary,https://weedmaps.com/dispensaries/the-15-spot,-118.461304,34.179086,91411,POINT (-118.461304 34.179086)
,Los Angeles,HERB,herb-213,California,delivery,https://weedmaps.com/deliveries/herb-213,-118.248047,34.051,90014,POINT (-118.248047 34.051)
,Hollywood,RUSH,the-family-healers-tfh-5,CA,delivery,https://weedmaps.com/deliveries/the-family-healers-tfh-5,-118.330052,34.101624,90068,POINT (-118.330052 34.101624)
,Encino,Green Kingdom - Encino,green-kingdom-north-hollywood,CA,delivery,https://weedmaps.com/deliveries/green-kingdom-north-hollywood,-118.514212,34.16153,91316,POINT (-118.514212 34.16153)
,North Hollywood,Cloud Nine Delivery,cloud-nine-delivery-5,CA,delivery,https://weedmaps.com/deliveries/cloud-nine-delivery-5,-118.391196,34.179392,91606,POINT (-118.391196 34.179392)
,Studio City,Level Up Delivery,level-up-delivery-6,CA,delivery,https://weedmaps.com/deliveries/level-up-delivery-6,-118.378969,34.139928,91604,POINT (-118.378969 34.139928)
,Van Nuys,Weedmates,weedmates-3,CA,delivery,https://weedmaps.com/deliveries/weedmates-3,-118.443709,34.189434,91401,POINT (-118.443709 34.189434)
,Woodland Hills,Deals on Greens - DOG,deals-on-greens-2,CA,delivery,https://weedmaps.com/deliveries/deals-on-greens-2,-118.614584,34.179246,91367,POINT (-118.614584 34.179246)
,Los Angeles,Green monkey,green-monkey,California,delivery,https://weedmaps.com/deliveries/green-monkey,-118.265286,33.974724,90003,POINT (-118.265286 33.974724)
,Los Angeles,Greenland Saviour,greenland-saviour,California,delivery,https://weedmaps.com/deliveries/greenland-saviour,-118.278274,34.101823,90028,POINT (-118.278274 34.101823)
,West Hollywood,SoCal Organics,socal-organics-6,CA,delivery,https://weedmaps.com/deliveries/socal-organics-6,-118.344609,34.0829,90036,POINT (-118.344609 34.0829)
,Northridge,Kush Lyft,kush-lyft-4,CA,delivery,https://weedmaps.com/deliveries/kush-lyft-4,-118.51989,34.250373,99999,POINT (-118.51989 34.250373)
,Los Angeles,Da Green Corner 120oz,da-green-corner-120oz-6,CA,delivery,https://weedmaps.com/deliveries/da-green-corner-120oz-6,-118.336997,34.047137,90001,POINT (-118.336997 34.047137)
,Los Angeles,Cannabis Station Delivery,cannabis-station-2,CA,delivery,https://weedmaps.com/deliveries/cannabis-station-2,-118.453979,34.044686,90025,POINT (-118.453979 34.044686)
7301 Sepulveda Blvd,Van Nuys,25CAP - Van Nuys Solutions,organica,Ca,dispensary,https://weedmaps.com/dispensaries/organica,-118.466631,34.203437,91405,POINT (-118.466631 34.203437)
5555 Alhambra Ave,Alhambra,Alhambra Green Stop 25 CAP,alhambra-green-stop,CA,dispensary,https://weedmaps.com/dispensaries/alhambra-green-stop,-118.16354,34.079177,90032,POINT (-118.16354 34.079177)
21500 Sherman Way,Canoga,Supa Nova Canoga,supa-nova-canoga,CA,dispensary,https://weedmaps.com/dispensaries/supa-nova-canoga,-118.59917,34.200792,91303,POINT (-118.59917 34.200792)
6141 Vineland Ave.,North Hollywood,Patients and Caregivers,patients-and-caregivers,CA,dispensary,https://weedmaps.com/dispensaries/patients-and-caregivers,-118.370629,34.1823539,91606,POINT (-118.370629 34.1823539)
8242 Louise Ave,Northridge,US Dank,us-dank,,dispensary,https://weedmaps.com/dispensaries/us-dank,-118.509639,34.220396,91325,POINT (-118.509639 34.220396)
728 E. Florence Ave,Los Angeles,Trapacanna Collective,trapacanna-collective-2,California,dispensary,https://weedmaps.com/dispensaries/trapacanna-collective-2,-118.262235,33.974401,90001,POINT (-118.262235 33.974401)
"119 West Anaheim Street, Unit 6",Wilmington,Straight Gas 20 Cap,straight-gas-20-cap,California,dispensary,https://weedmaps.com/dispensaries/straight-gas-20-cap,-118.263408,33.78016,90744,POINT (-118.263408 33.78016)
4306 Crenshaw Blvd Suite 107,Los Angeles,Crenshaw Daily Deals - REAL 25 CAP,tlpc-collective-grand-opening,CA,dispensary,https://weedmaps.com/dispensaries/tlpc-collective-grand-opening,-118.333294,34.005215,90008,POINT (-118.333294 34.005215)
,Los Angeles,Flora's Remedy,flora-s-remedy,CA,delivery,https://weedmaps.com/deliveries/flora-s-remedy,-118.445592,34.05533,90024,POINT (-118.445592 34.05533)
,Los Angeles,High Inventory,high-inventory-4,CA,delivery,https://weedmaps.com/deliveries/high-inventory-4,-118.391462,33.959893,90045,POINT (-118.391462 33.959893)
,Los Angeles,Mood Delivery,mood-delivery-3,CA,delivery,https://weedmaps.com/deliveries/mood-delivery-3,-118.266088,34.086212,90026,POINT (-118.266088 34.086212)
,Northridge,Medi-Drnz Powered by Pure Bros,medi-drnz-powered-by-pure-bros,CA,delivery,https://weedmaps.com/deliveries/medi-drnz-powered-by-pure-bros,-118.555904,34.2718,91326,POINT (-118.555904 34.2718)
,West Hollywood,GRASSDOOR,grassdoor-6,California,delivery,https://weedmaps.com/deliveries/grassdoor-6,-118.365874,34.077332,90048,POINT (-118.365874 34.077332)
,North Hollywood,Hash Dash,hash-dash,CA,delivery,https://weedmaps.com/deliveries/hash-dash,-118.382302,34.171291,91601,POINT (-118.382302 34.171291)
,Glendale,Green Ways Delivery,green-wayz-delivery,CA,delivery,https://weedmaps.com/deliveries/green-wayz-delivery,-118.218473,34.117845,90065,POINT (-118.218473 34.117845)
,Los Angeles,PHYER-DOWNTOWN LA,phyer-downtown-la,CA,delivery,https://weedmaps.com/deliveries/phyer-downtown-la,-118.246312,34.062948,90012,POINT (-118.246312 34.062948)
,Van Nuys,PHYER-VAN NUYS,phyer-van-nuys,ca,delivery,https://weedmaps.com/deliveries/phyer-van-nuys,-118.439944,34.165189,91423,POINT (-118.439944 34.165189)
,Woodland Hills,Weedmates,weedmates-4,CA,delivery,https://weedmaps.com/deliveries/weedmates-4,-118.588819,34.201371,91364,POINT (-118.588819 34.201371)
,Studio City,Cloud Nine Delivery,cloud-nine-delivery-4,CA,delivery,https://weedmaps.com/deliveries/cloud-nine-delivery-4,-118.370311,34.140497,91604,POINT (-118.370311 34.140497)
,Hollywood,DR Kush Delivery ð¥,dr-kush-delivery-7,CA,delivery,https://weedmaps.com/deliveries/dr-kush-delivery-7,-118.34401,34.094339,90028,POINT (-118.34401 34.094339)
,Venice,Sunny Buds,sunny-buds-2,CA,delivery,https://weedmaps.com/deliveries/sunny-buds-2,-118.470528,33.997613,90291,POINT (-118.470528 33.997613)
,Hollywood,Native Sons,native-sons,California,delivery,https://weedmaps.com/deliveries/native-sons,-118.361188,34.056903,91335,POINT (-118.361188 34.056903)
,Los Angeles,Green Supply,green-supply-2,CA,delivery,https://weedmaps.com/deliveries/green-supply-2,-118.179289,34.066671,90023,POINT (-118.179289 34.066671)
,Los Angeles,Da Green Corner 120oz,da-green-corner-120oz,CA,delivery,https://weedmaps.com/deliveries/da-green-corner-120oz,-118.291654,34.018218,90007,POINT (-118.291654 34.018218)
1339 South Hill Street,Los Angeles,SHIVAS DTLA PRE-ICO,shivas-dtla,CA,dispensary,https://weedmaps.com/dispensaries/shivas-dtla,-118.263011,34.036765,90015,POINT (-118.263011 34.036765)
4942 Vineland Ave,North Hollywood,Noho Wellness Center,noho-wellness-center,CA,dispensary,https://weedmaps.com/dispensaries/noho-wellness-center,-118.369982,34.160602,91601,POINT (-118.369982 34.160602)
735 Broad Ave,Wilmington,25 Cap HNH Holistic Natural Healing,holistic-natural-healing,CA,dispensary,https://weedmaps.com/dispensaries/holistic-natural-healing,-118.261479,33.779593,90744,POINT (-118.261479 33.779593)
3760 Cahuenga Blvd.,Studio City,WHTC - Adult Use,woodland-hills-treatment-center,CA,dispensary,https://weedmaps.com/dispensaries/woodland-hills-treatment-center,-118.362129,34.136431,91604,POINT (-118.362129 34.136431)
2000 Marengo Street Unit G,Los Angeles,High Society Wellness Center,high-society-wellness-center,CA,dispensary,https://weedmaps.com/dispensaries/high-society-wellness-center,-118.208297,34.056549,90033,POINT (-118.208297 34.056549)
7401 Foothill Blvd,Tujunga,4sure20 - GRAND OPENING!,4sure20,CA,dispensary,https://weedmaps.com/dispensaries/4sure20,-118.293335,34.251685,91042,POINT (-118.293335 34.251685)
10125 Sepulveda Boulevard,Mission Hills,Cannasseurs Club,cannasseurs-club,CA,dispensary,https://weedmaps.com/dispensaries/cannasseurs-club,-118.467826,34.254479,91345,POINT (-118.467826 34.254479)
5879 Crenshaw Blvd,Los Angeles,Crenshaw Church of Herbs,crenshaw-church-of-herbs,CA,dispensary,https://weedmaps.com/dispensaries/crenshaw-church-of-herbs,-118.331197,33.98737,90043,POINT (-118.331197 33.98737)
9408 S Avalon Blvd,Los Angeles,Avalon Daily Deals - REAL 25 CAP,avalon-daily-deals,California,dispensary,https://weedmaps.com/dispensaries/avalon-daily-deals,-118.265,33.950767,90003,POINT (-118.265 33.950767)
1645 Slauson Ave,Los Angeles,Slauson Medical Collective,slauson-medical-collective,California,dispensary,https://weedmaps.com/dispensaries/slauson-medical-collective,-118.244036,33.989807,90011,POINT (-118.244036 33.989807)
5067 West Washington Blvd.,Los Angeles,Royal Greens,royal-greens,CA,dispensary,https://weedmaps.com/dispensaries/royal-greens,-118.35028,34.041136,90016,POINT (-118.35028 34.041136)
,Van Nuys,Hash Dash,hash-dash-delivery,CA,delivery,https://weedmaps.com/deliveries/hash-dash-delivery,-118.451024,34.182741,91411,POINT (-118.451024 34.182741)
,Hollywood,Cloud Nine Delivery - Hollywood,cloud-9-delivery-2,CA,delivery,https://weedmaps.com/deliveries/cloud-9-delivery-2,-118.327409,34.105164,90028,POINT (-118.327409 34.105164)
,Los Angeles,Green Mile Patients Association,green-mile-patient-association-2,CA,delivery,https://weedmaps.com/deliveries/green-mile-patient-association-2,-118.260445,34.083718,90089,POINT (-118.260445 34.083718)
,Los angeles,Dope Girls LA,dope-girls,CA,delivery,https://weedmaps.com/deliveries/dope-girls,-118.252502,34.051146,90071,POINT (-118.252502 34.051146)
,Sherman Oaks,TESTED WEED - Sherman Oaks - Open Late,weed-delivery-studio-city-open-late,CA,delivery,https://weedmaps.com/deliveries/weed-delivery-studio-city-open-late,-118.396531,34.15764,91604,POINT (-118.396531 34.15764)
,West Hollywood,RUSH,tfh,CA,delivery,https://weedmaps.com/deliveries/tfh,-118.365915,34.080177,90038,POINT (-118.365915 34.080177)
,Los Angeles,Silicon Beach Greens,silicon-beach-greens,CA,delivery,https://weedmaps.com/deliveries/silicon-beach-greens,-118.462534,33.98937,90066,POINT (-118.462534 33.98937)
,Los Angeles,LA Green Run - Central LA,la-green-run-1,CA,delivery,https://weedmaps.com/deliveries/la-green-run-1,-118.273953,33.989775,900037,POINT (-118.273953 33.989775)
,Los Angeles,KushingLA,kushingla,,delivery,https://weedmaps.com/deliveries/kushingla,-118.396092,33.959837,90301,POINT (-118.396092 33.959837)
,Northridge,Tasty Farms Delivery - Northridge,tasty-farms-delivery-4,,delivery,https://weedmaps.com/deliveries/tasty-farms-delivery-4,-118.562867,34.242791,91325,POINT (-118.562867 34.242791)
,Woodland Hills,Mr Smoke,mr-smoke-3,Ca,delivery,https://weedmaps.com/deliveries/mr-smoke-3,-118.618679,34.167383,91367,POINT (-118.618679 34.167383)
,North Hollywood,SoCal Organics,socal-organics-4,CA,delivery,https://weedmaps.com/deliveries/socal-organics-4,-118.373211,34.182294,91606,POINT (-118.373211 34.182294)
,Sunland,Sunland AHC,sunland-cbd,CA,delivery,https://weedmaps.com/deliveries/sunland-cbd,-118.311531,34.259851,91214,POINT (-118.311531 34.259851)
5977 S Broadway,Los Angeles,MedMart 30 CAP,gasbankla,CA,dispensary,https://weedmaps.com/dispensaries/gasbankla,-118.27848,33.985327,90003,POINT (-118.27848 33.985327)
8407 S Western Ave,Los Angeles,Og Western 20 Cap,pacific-city-collective,CA,dispensary,https://weedmaps.com/dispensaries/pacific-city-collective,-118.309406,33.962526,90047,POINT (-118.309406 33.962526)
2604 South Hill St,Los Angeles,Green State University 20 Cap,superior-herbal-health-25-cap,CA,dispensary,https://weedmaps.com/dispensaries/superior-herbal-health-25-cap,-118.270856,34.025523,90007,POINT (-118.270856 34.025523)
1206 W. Anaheim St.,Wilmington,Positive Energy Associated,willmingtons-finest,CA,dispensary,https://weedmaps.com/dispensaries/willmingtons-finest,-118.277173,33.778943,90744,POINT (-118.277173 33.778943)
8085 Webb Ave,North Hollywood,NOHO CC : Pre-ICO,nohocc-van-nuys-oasis,CA,dispensary,https://weedmaps.com/dispensaries/nohocc-van-nuys-oasis,-118.389845,34.217639,91605,POINT (-118.389845 34.217639)
1100 East 14th Place,Los Angeles,STR8 UP Collective,whittier-20-cap-collective,CA,dispensary,https://weedmaps.com/dispensaries/whittier-20-cap-collective,-118.249581,34.028352,90021,POINT (-118.249581 34.028352)
2815 W Sunset Blvd #201,Los Angeles,CCA California Caregivers Alliance,california-caregivers-alliance,CA,dispensary,https://weedmaps.com/dispensaries/california-caregivers-alliance,-118.272079,34.0822348,90026,POINT (-118.272079 34.0822348)
3625 CAHUENGA BLVD W,LOS ANGELES,Universal Collective - Adult Use,studio-city-caregivers-studio-city,CA,dispensary,https://weedmaps.com/dispensaries/studio-city-caregivers-studio-city,-118.360261,34.1343953,90068,POINT (-118.360261 34.1343953)
11739 VOSE ST,NORTH HOLLYWOOD,NoHo's Finest (PRE - ICO),noho-s-finest,CA,dispensary,https://weedmaps.com/dispensaries/noho-s-finest,-118.389203,34.198729,91605,POINT (-118.389203 34.198729)
8018 Avalon Blvd,Los Angeles,OMG Avalon 20 Cap Collective,535-collective,CA,dispensary,https://weedmaps.com/dispensaries/535-collective,-118.264877,33.965903,90003,POINT (-118.264877 33.965903)
4821 S Normandie Ave,Los Angeles,NORMANDIE MEDICAL CENTER,normandie-medical-center,CA,dispensary,https://weedmaps.com/dispensaries/normandie-medical-center,-118.300359,33.999466,90037,POINT (-118.300359 33.999466)
157-159 East Florence,Los Angeles,Loud 20 Cap,loud-30-cap-collective,CA,dispensary,https://weedmaps.com/dispensaries/loud-30-cap-collective,-118.272003,33.974956,90003,POINT (-118.272003 33.974956)
8225 South Broadway,Los Angeles,Rose Garden Collective,rose-garden-collective,CA,dispensary,https://weedmaps.com/dispensaries/rose-garden-collective,-118.278606,33.964668,90003,POINT (-118.278606 33.964668)
7402 S Western Ave,Los Angeles,Green Ghost 2,gas-kingz,CA,dispensary,https://weedmaps.com/dispensaries/gas-kingz,-118.308973,33.972579,90047,POINT (-118.308973 33.972579)
357 East Florence Ave,Los Angeles,FCC - Florence Canna Clinic,skyline,CA,dispensary,https://weedmaps.com/dispensaries/skyline,-118.267547,33.974975,90003,POINT (-118.267547 33.974975)
2038 Sacramento Street,Los Angeles,Buddha Company,buddha-company-2,CA,dispensary,https://weedmaps.com/dispensaries/buddha-company-2,-118.230673,34.030303,90021,POINT (-118.230673 34.030303)
12737 Glenoaks Blvd. UNIT #15,Sylmar,MMC,mmc-3,CA,dispensary,https://weedmaps.com/dispensaries/mmc-3,-118.44293,34.301736,91342,POINT (-118.44293 34.301736)
19709 Ventura Blvd Unit 103,Woodland Hills,Nature's Therapy,high-spot,CA,dispensary,https://weedmaps.com/dispensaries/high-spot,-118.562821,34.172819,91364,POINT (-118.562821 34.172819)
4874 S Huntington Dr,East Los Angeles,East LA Collective 25 CAP,east-la-collective-2,CA,dispensary,https://weedmaps.com/dispensaries/east-la-collective-2,-118.17746,34.086089,90032,POINT (-118.17746 34.086089)
8459 S Broadway,South Los Angeles,KUSHLAND,kush-land,CA,dispensary,https://weedmaps.com/dispensaries/kush-land,-118.27863,33.961571,90003,POINT (-118.27863 33.961571)
13567 Glenoaks Blvd.,Sylmar,OMG GROUP,omg-group,CA,dispensary,https://weedmaps.com/dispensaries/omg-group,-118.4637737,34.3184215,91342,POINT (-118.4637737 34.3184215)
6214 Santa Monica Blvd,Hollywood,Dope Girls LA,dope-girls-la,CA,dispensary,https://weedmaps.com/dispensaries/dope-girls-la,-118.324896,34.09063,90038,POINT (-118.324896 34.09063)
7031 Foothill Blvd.,Tujunga,WeedWay,st-andrews-green-tujunga,CA,dispensary,https://weedmaps.com/dispensaries/st-andrews-green-tujunga,-118.284412,34.248169,91042,POINT (-118.284412 34.248169)
138 N San Fernando Rd,Los Angeles,TREETOP LA,treetop-la,CA,dispensary,https://weedmaps.com/dispensaries/treetop-la,-118.221583,34.075423,90031,POINT (-118.221583 34.075423)
3205 W. Florence Ave,Los Angeles,Giving Back Collective,giving-back-collectives,CA,dispensary,https://weedmaps.com/dispensaries/giving-back-collectives,-118.328213,33.974711,90043,POINT (-118.328213 33.974711)
1901 S. Alameda St. #112,Los Angeles,HHC Plus,hhc-plus,CA,dispensary,https://weedmaps.com/dispensaries/hhc-plus,-118.239628,34.020211,90058,POINT (-118.239628 34.020211)
847 W Florence Ave,Los Angeles,Dr. GT LA,dr-greenthumb-la,CA,dispensary,https://weedmaps.com/dispensaries/dr-greenthumb-la,-118.288895,33.974853,90044,POINT (-118.288895 33.974853)
5658 W. Pico Blvd,"Los Angeles, Midtown",CHC Canna Health Caregivers,cannahealthcaregivers,CA,dispensary,https://weedmaps.com/dispensaries/cannahealthcaregivers,-118.362149,34.050333,90019,POINT (-118.362149 34.050333)
10718 Riverside Drive,North Hollywood,The Fav,the-fav,CA,dispensary,https://weedmaps.com/dispensaries/the-fav,-118.364387,34.152041,91602,POINT (-118.364387 34.152041)
2309 W Pico,Los Angeles,Kush Kings Caregivers,kush-factory,CA,dispensary,https://weedmaps.com/dispensaries/kush-factory,-118.287013,34.047511,90006,POINT (-118.287013 34.047511)
1226 San Pedro Street,Los Angeles,After Hours 20 Cap Collective,cpt-flight-club,CA,dispensary,https://weedmaps.com/dispensaries/cpt-flight-club,-118.253656,34.032966,90015,POINT (-118.253656 34.032966)
5119 Long Beach Avenue,Los Angeles,OG 20 CAP,og-30-cap-collective,CA,dispensary,https://weedmaps.com/dispensaries/og-30-cap-collective,-118.243594,33.99589,90011,POINT (-118.243594 33.99589)
8950 S. Western Ave,Los Angeles,King Kush Collective of LOS ANGELES,broadway-medical-collectivve,CA,dispensary,https://weedmaps.com/dispensaries/broadway-medical-collectivve,-118.30879,33.954821,90047,POINT (-118.30879 33.954821)
18441 Vanowen St,Reseda,Platinum Club,platinum-club-la,CA,dispensary,https://weedmaps.com/dispensaries/platinum-club-la,-118.534803,34.193901,91335,POINT (-118.534803 34.193901)
6801 South Hoover Street,Los Angeles,Hoover Street Caregivers,hsc-la,CA,dispensary,https://weedmaps.com/dispensaries/hsc-la,-118.287225,33.9781,90044,POINT (-118.287225 33.9781)
1649 W Florence Ave,Los Angeles,OG Florence 25 Cap,top-shelf-25-cap,CA,dispensary,https://weedmaps.com/dispensaries/top-shelf-25-cap,-118.306316,33.974786,90047,POINT (-118.306316 33.974786)
5422 Normandie Avenue,Los Angeles,West Coast Collective,cpt-flight-club-collective,CA,dispensary,https://weedmaps.com/dispensaries/cpt-flight-club-collective,-118.300032,33.992731,90037,POINT (-118.300032 33.992731)
5501 S Broadway,Los Angeles,True 20,stoners-heaven-25-cap,CA,dispensary,https://weedmaps.com/dispensaries/stoners-heaven-25-cap,-118.278609,33.99226,90037,POINT (-118.278609 33.99226)
150 Venice Blvd.,Los Angeles,LA Wonderland Marijuana Dispensary Recreational,la-wonderland-caregivers,CA,dispensary,https://weedmaps.com/dispensaries/la-wonderland-caregivers,-118.2640434,34.0344313,90015,POINT (-118.2640434 34.0344313)
7236 Varna Ave,North Hollywood,GREEN DRAGON,green-dragon-caregivers-inc,CA,dispensary,https://weedmaps.com/dispensaries/green-dragon-caregivers-inc,-118.42468,34.202202,91605,POINT (-118.42468 34.202202)
547 Seaton Street,Los Angeles,Cannabal City Collective - Los Angeles,cannabal-city,CA,dispensary,https://weedmaps.com/dispensaries/cannabal-city,-118.237489,34.04015,90013,POINT (-118.237489 34.04015)
1851 W FLORENCE AVE,LOS ANGELES,25 King,fw-king,CA,dispensary,https://weedmaps.com/dispensaries/fw-king,-118.310801,33.974778,90047,POINT (-118.310801 33.974778)
4207 S Broadway,Los Angeles,GOLD 20 Cap Collective,green-heaven-collective-2,CA,dispensary,https://weedmaps.com/dispensaries/green-heaven-collective-2,-118.278372,34.007076,90037,POINT (-118.278372 34.007076)
7022 Valjean Ave,Van Nuys,Westside Station,westside-caregivers-club-inc,CA,dispensary,https://weedmaps.com/dispensaries/westside-caregivers-club-inc,-118.485506,34.198235,91406,POINT (-118.485506 34.198235)
8113 S Western Ave,Los Angeles,VIP Collective,vip-collective,CA,dispensary,https://weedmaps.com/dispensaries/vip-collective,-118.309159,33.965219,90047,POINT (-118.309159 33.965219)
5818 West Pico Blvd.,Midtown,The Relief Collective,the-relief-collective,CA,dispensary,https://weedmaps.com/dispensaries/the-relief-collective,-118.365329,34.051079,90019,POINT (-118.365329 34.051079)
6200 S Wilton Place,Los Angeles,EXCLUSIVE 25 CAP PRE-ICO,exclusive-caregivers-of-california-2-2,Ca,dispensary,https://weedmaps.com/dispensaries/exclusive-caregivers-of-california-2-2,-118.314571,33.983001,90047,POINT (-118.314571 33.983001)
6900 S Western Ave,Los Angeles,Western Top Shop 20 CAP,western-top-shop-20-cap,California,dispensary,https://weedmaps.com/dispensaries/western-top-shop-20-cap,-118.308427,33.976954,90047,POINT (-118.308427 33.976954)
8111 S Western,Los Angeles,THE PRESIDENTIAL COLLECTIVE,anaheim-healing-30-cap,CA,dispensary,https://weedmaps.com/dispensaries/anaheim-healing-30-cap,-118.309234,33.96511,90047,POINT (-118.309234 33.96511)
12527 San Fernando Road,Sylmar,SFVPC,san-fernando-valley-patients-group,CA,dispensary,https://weedmaps.com/dispensaries/san-fernando-valley-patients-group,-118.457868,34.297559,91342,POINT (-118.457868 34.297559)
2505 E Caesar Chavez Suite A&B,Los Angeles,Loud Pack 20 Cap Collective,dank-city-3-2,CA,dispensary,https://weedmaps.com/dispensaries/dank-city-3-2,-118.205412,34.046041,90033,POINT (-118.205412 34.046041)
3650 E. Olympic Blvd (4th Floor),Los Angeles,TLC,tlc-2-2,CA,dispensary,https://weedmaps.com/dispensaries/tlc-2-2,-118.198549,34.018206,90023,POINT (-118.198549 34.018206)
1605 Pacific Coast Highway Suite #107,Harbor City,PCH Herbarium,pch-herbarium,CA,dispensary,https://weedmaps.com/dispensaries/pch-herbarium,-118.304773,33.789798,90710,POINT (-118.304773 33.789798)
1616 S. Los Angeles St,Downtown LA,Metro Green Meds - Downtown LA,metro-green-meds-downtown-la,CA,dispensary,https://weedmaps.com/dispensaries/metro-green-meds-downtown-la,-118.262105,34.032338,90015,POINT (-118.262105 34.032338)
5057 W. Pico Blvd,Los Angeles,La Brea Collective - LBC,la-brea-collective-2-2,CA,dispensary,https://weedmaps.com/dispensaries/la-brea-collective-2-2,-118.347761,34.048176,90019,POINT (-118.347761 34.048176)
7246 Eton Ave,Canoga Park,Divine Wellness Center,divinewc,CA,dispensary,https://weedmaps.com/dispensaries/divinewc,-118.595155,34.202437,91303,POINT (-118.595155 34.202437)
7231 Hinds Ave,North Hollywood,Fountain of Wellbeing - FWB,fountain-of-wellbeing,CA,dispensary,https://weedmaps.com/dispensaries/fountain-of-wellbeing,-118.39138,34.202133,91605,POINT (-118.39138 34.202133)
1600 S Main St,Los Angeles,Via Verde Collective,mk-wellness,Ca,dispensary,https://weedmaps.com/dispensaries/mk-wellness,-118.262368,34.033284,90015,POINT (-118.262368 34.033284)
5470 Valley Blvd,Los Angeles,LA Kush - Los Angeles Kush,los-angeles-kush-east-la,California,dispensary,https://weedmaps.com/dispensaries/los-angeles-kush-east-la,-118.163739,34.073396,90032,POINT (-118.163739 34.073396)
10612 Chiquita St.,North Hollywood,Canto Diem,canto-diem-2,California,dispensary,https://weedmaps.com/dispensaries/canto-diem-2,-118.3624613,34.1439691,91602,POINT (-118.3624613 34.1439691)
1420 S Los Angeles Street Unit B,Los Angeles,FourTwentyLA,fourtwentyla,CA,dispensary,https://weedmaps.com/dispensaries/fourtwentyla,-118.260365,34.034387,90015,POINT (-118.260365 34.034387)
1039 North Mission Rd.,Los Angeles,Medical Caregivers Company,medical-caregivers-co-op-2,CA,dispensary,https://weedmaps.com/dispensaries/medical-caregivers-co-op-2,-118.2157238,34.0595878,90033,POINT (-118.2157238 34.0595878)
3525 Emery St.,Los Angeles,Fire Factory 15 Cap,fire-factory-15-cap,California,dispensary,https://weedmaps.com/dispensaries/fire-factory-15-cap,-118.202084,34.014402,90023,POINT (-118.202084 34.014402)
1216 West Florence Ave,Los Angeles,LA Treehouse,la-treehouse,California,dispensary,https://weedmaps.com/dispensaries/la-treehouse,-118.29693,33.974322,90044,POINT (-118.29693 33.974322)
7561 Lankershim Blvd Unit 104,North Hollywood,GW Inc,grassware-inc,CA,dispensary,https://weedmaps.com/dispensaries/grassware-inc,-118.388284,34.208088,91605,POINT (-118.388284 34.208088)
440.5 N. La Cienega Blvd,West Hollywood,Bodhi Sattva,buddhabar,CA,dispensary,https://weedmaps.com/dispensaries/buddhabar,-118.3763794,34.0793075,90048,POINT (-118.3763794 34.0793075)
8416 Lankershim Bl. #107,Sun Valley,Unified Patient Alliance,unified-patient-alliance,CA,dispensary,https://weedmaps.com/dispensaries/unified-patient-alliance,-118.387437,34.223115,91352,POINT (-118.387437 34.223115)
11503 Burbank Blvd,North Hollywood,SUNSET HERBAL,sunset-herbal-corner-2-2,CA,dispensary,https://weedmaps.com/dispensaries/sunset-herbal-corner-2-2,-118.38277,34.172486,91601,POINT (-118.38277 34.172486)
4200 Lincoln Blvd,Marina Del Rey,Green Dot Medicinal Cannabis Patient's Group,californiahealinggardens,CA,dispensary,https://weedmaps.com/dispensaries/californiahealinggardens,-118.444227,33.986927,90292,POINT (-118.444227 33.986927)
5248 Alhambra Ave. Unit B,Los Angeles,Disabled Veterans Collective,better-daze,CA,dispensary,https://weedmaps.com/dispensaries/better-daze,-118.170927,34.074523,90032,POINT (-118.170927 34.074523)
7555 Woodley Avenue,Van Nuys,Kushism Van Nuys,kushism,CA,dispensary,https://weedmaps.com/dispensaries/kushism,-118.483965,34.208235,91406,POINT (-118.483965 34.208235)
900 S Westmoreland ave. Ste 102,Los Angeles,Pot Spot Collective,pot-spot-collective,CA,dispensary,https://weedmaps.com/dispensaries/pot-spot-collective,-118.288771,34.055666,90006,POINT (-118.288771 34.055666)
753 East Jefferson Blvd,Los Angeles,Green Ghost,green-ghost-2,CA,dispensary,https://weedmaps.com/dispensaries/green-ghost-2,-118.263499,34.014802,90011,POINT (-118.263499 34.014802)
3438 West 8th Street,Korea Town,Medgo,select-supply-2,CA,dispensary,https://weedmaps.com/dispensaries/select-supply-2,-118.304726,34.05722,90005,POINT (-118.304726 34.05722)
1140 S. Santee,Los Angeles,LA Zone,la-zone,CA,dispensary,https://weedmaps.com/dispensaries/la-zone,-118.25688,34.036771,90015,POINT (-118.25688 34.036771)
221 W 4th St,Los Angeles,UVC - Downtown LA,uvc-2,CA,dispensary,https://weedmaps.com/dispensaries/uvc-2,-118.248907,34.049344,90013,POINT (-118.248907 34.049344)
6127 S Hoover St,Los Angeles,HOOVER GREENS,hoover-greens,,dispensary,https://weedmaps.com/dispensaries/hoover-greens,-118.287196,33.983884,90044,POINT (-118.287196 33.983884)
2435 Military Ave.,Los Angeles,Cannary West,cannary-west,CA,dispensary,https://weedmaps.com/dispensaries/cannary-west,-118.432724,34.03732,90064,POINT (-118.432724 34.03732)
6061 S Vermont Ave,Los Angeles,SO CAL PRIVATE RESERVE,so-cal-private-reserve,CA,dispensary,https://weedmaps.com/dispensaries/so-cal-private-reserve,-118.291631,33.984571,90044,POINT (-118.291631 33.984571)
8405 San Pedro St,Los Angeles,420 Mart,420-mart,CA,dispensary,https://weedmaps.com/dispensaries/420-mart,-118.269641,33.962534,90003,POINT (-118.269641 33.962534)
3520 West Slauson Avenue,Los Angeles,Crenshaw Caregivers,crenshaw-caregivers-2,CA,dispensary,https://weedmaps.com/dispensaries/crenshaw-caregivers-2,-118.333845,33.988792,90043,POINT (-118.333845 33.988792)
824 E 17th St,Los Angeles,Los Angeles Farmers - (AHPS),los-angeles-farmers,CA,dispensary,https://weedmaps.com/dispensaries/los-angeles-farmers,-118.253208,34.027245,90021,POINT (-118.253208 34.027245)
610 New High Street,Los Angeles,Downtown Care,downtown-care-ftp-5-gram-8ths,CA,dispensary,https://weedmaps.com/dispensaries/downtown-care-ftp-5-gram-8ths,-118.239293,34.058508,90012,POINT (-118.239293 34.058508)
7809 South Western Ave.,Los Angeles,525 Collective,clear-choice-collective-2-2,CA,dispensary,https://weedmaps.com/dispensaries/clear-choice-collective-2-2,-118.309266,33.968736,90047,POINT (-118.309266 33.968736)
4001 West Sunset BLVD,Los Angeles,MOTA (Medicine Of The Angels),soho-sherman-oaks-holistic-oasis,CA,dispensary,https://weedmaps.com/dispensaries/soho-sherman-oaks-holistic-oasis,-118.280382,34.092881,90029,POINT (-118.280382 34.092881)
14350 Oxnard St,Van Nuys,Red Moon,redmoon-holistic-wellness-center,CA,dispensary,https://weedmaps.com/dispensaries/redmoon-holistic-wellness-center,-118.44618,34.179103,91401,POINT (-118.44618 34.179103)
11414 S Vermont Ave.,Los Angeles,Green Garden Collective,green-garden-collective-3,CA,dispensary,https://weedmaps.com/dispensaries/green-garden-collective-3,-118.291258,33.930478,90044,POINT (-118.291258 33.930478)
12433 Ventura Blvd,Studio City,Stash Studio City,420-for-the-people,California,dispensary,https://weedmaps.com/dispensaries/420-for-the-people,-118.404153,34.143057,91604,POINT (-118.404153 34.143057)
5740 Lankershim Blvd,Los Angeles,SOCC PRE-ICO,sherman-oaks-collective-care-2,California,dispensary,https://weedmaps.com/dispensaries/sherman-oaks-collective-care-2,-118.380492,34.175075,91601,POINT (-118.380492 34.175075)
22817 Ventura Blvd,Woodland Hills,Mother Nature Remedy Caregivers,mnrcoop,CA,dispensary,https://weedmaps.com/dispensaries/mnrcoop,-118.624032,34.166071,91364,POINT (-118.624032 34.166071)
5042 Venice Blvd,Los Angeles,The Pottery - Medical,the-pottery-2,CA,dispensary,https://weedmaps.com/dispensaries/the-pottery-2,-118.348584,34.04513,90019,POINT (-118.348584 34.04513)
6132 Wilshire Blvd,Los Angeles,LAVC,los-angeles-valley-caregivers,CA,dispensary,https://weedmaps.com/dispensaries/los-angeles-valley-caregivers,-118.363085,34.063139,90048,POINT (-118.363085 34.063139)
410 Lincoln Blvd,Venice,MedMen Lincoln Blvd.,medmen-venice,CA,dispensary,https://weedmaps.com/dispensaries/medmen-venice,-118.466121,34.00079,90291,POINT (-118.466121 34.00079)
1101 North Western ave,Los Angeles,Mother Mary Janes Church of Cannabis,mother-mary-janes-church-of-cannabis-2,CA,dispensary,https://weedmaps.com/dispensaries/mother-mary-janes-church-of-cannabis-2,-118.309363,34.091135,90029,POINT (-118.309363 34.091135)
22748 Ventura Blvd,Woodland Hills,Green Angel Pre-Ico,green-angel,CA,dispensary,https://weedmaps.com/dispensaries/green-angel,-118.621991,34.166073,91364,POINT (-118.621991 34.166073)
2133 W Manchester Ave,Los Angeles,Manchester Remedy,manchester-remedy,Ca,dispensary,https://weedmaps.com/dispensaries/manchester-remedy,-118.316834,33.96022,90047,POINT (-118.316834 33.96022)
22865 Lockness Ave.,Torrance,SCF,south-bay-collective,CA,dispensary,https://weedmaps.com/dispensaries/south-bay-collective,-118.307436,33.81734,90501,POINT (-118.307436 33.81734)
6006 Vantage Avenue,North Hollywood,SafeWay Trees - North Hollywood,safeway-trees,CA,dispensary,https://weedmaps.com/dispensaries/safeway-trees,-118.397505,34.17973,91606,POINT (-118.397505 34.17973)
3609 E Olympic BLVD,Los Angeles,Olympic Best 20,only-20-cap,CA,dispensary,https://weedmaps.com/dispensaries/only-20-cap,-118.200565,34.01934,90023,POINT (-118.200565 34.01934)
4716 Melrose Avenue,Los Angeles,Nurple Purps,deluxe-collective,CA,dispensary,https://weedmaps.com/dispensaries/deluxe-collective,-118.302988,34.083268,90029,POINT (-118.302988 34.083268)
7040 Owensmouth Ave,Canoga Park,Green Zone Collective,green-zone-collective,CA,dispensary,https://weedmaps.com/dispensaries/green-zone-collective,-118.601416,34.198693,91303,POINT (-118.601416 34.198693)
6329 Van Nuys Blvd,Van Nuys,The 20 Spot,the-20-spot,Ca,dispensary,https://weedmaps.com/dispensaries/the-20-spot,-118.449011,34.185616,91401,POINT (-118.449011 34.185616)
7011 Canoga Ave,Canoga Park,CaÃ±a Farms,west-valley-caregivers,,dispensary,https://weedmaps.com/dispensaries/west-valley-caregivers,-118.597964,34.197807,91303,POINT (-118.597964 34.197807)
8110 S Broadway,Los Angeles,GreenBuds Collective,greenbuds-collective,Ca,dispensary,https://weedmaps.com/dispensaries/greenbuds-collective,-118.277716,33.965565,90003,POINT (-118.277716 33.965565)
7382 Melrose Ave,Los Angeles,KoreaTown Collective / Ktown Collective on Melrose,koreatown-collective-sc-labs-full-menu-testing,CA,dispensary,https://weedmaps.com/dispensaries/koreatown-collective-sc-labs-full-menu-testing,-118.350991,34.083421,90046,POINT (-118.350991 34.083421)
7234 Sepulveda Blvd,Van Nuys,Sepulveda Caregivers,sepulveda-caregivers,,dispensary,https://weedmaps.com/dispensaries/sepulveda-caregivers,-118.466003,34.202351,91405,POINT (-118.466003 34.202351)
11422 Moorpark St,Studio City,Cloneville (CCSC),cloneville-ccsc,CA,dispensary,https://weedmaps.com/dispensaries/cloneville-ccsc,-118.379918,34.15008,91604,POINT (-118.379918 34.15008)
110 S. Robertson Blvd,Los Angeles,MedMen Beverly Hills,medmen-beverly-hills,CA,dispensary,https://weedmaps.com/dispensaries/medmen-beverly-hills,-118.38352,34.074921,90048,POINT (-118.38352 34.074921)
5710 West Manchester Avenue,Los Angeles,Rollin Smoke,urban-medicinals-inc-2,CA,dispensary,https://weedmaps.com/dispensaries/urban-medicinals-inc-2,-118.381047,33.959772,90045,POINT (-118.381047 33.959772)
653 West Florence,Los Angeles,House of Kush,house-of-kush-4,CA,dispensary,https://weedmaps.com/dispensaries/house-of-kush-4,-118.28527,33.974834,90044,POINT (-118.28527 33.974834)
11224 Burbank Boulevard,North Hollywood,The Herb Shack,the-herb-shack,CA,dispensary,https://weedmaps.com/dispensaries/the-herb-shack,-118.376225,34.172136,91601,POINT (-118.376225 34.172136)
5859 South Broadway Suite B,Los Angeles,Oceanside Collective,oceans-la,CA,dispensary,https://weedmaps.com/dispensaries/oceans-la,-118.278325,33.987945,90003,POINT (-118.278325 33.987945)
8927 South Western Ave,Los Angeles,Buds R Us 20 Cap,buds-r-us-20-cap,CA,dispensary,https://weedmaps.com/dispensaries/buds-r-us-20-cap,-118.309197,33.955582,90047,POINT (-118.309197 33.955582)
11705 Ventura Blvd.,Studio City,Sweet Flower - Studio City,perennial-holistic,CA,dispensary,https://weedmaps.com/dispensaries/perennial-holistic,-118.3878578,34.1413384,91604,POINT (-118.3878578 34.1413384)
416 W 8th St,Downtown Los Angeles,Oz n Bounce Drive-Thru,oz-n-bounce,CA,dispensary,https://weedmaps.com/dispensaries/oz-n-bounce,-118.244262,34.067299,90014,POINT (-118.244262 34.067299)
907 West Anaheim Street,Wilmington,Church of Higher Healing,churcch-of-higher-healing,CA,dispensary,https://weedmaps.com/dispensaries/churcch-of-higher-healing,-118.273242,33.779535,90744,POINT (-118.273242 33.779535)
5224 Hollywood Blvd.,Hollywood,"Greenhouse Herbal Center, LLC",greenhouse-herbal-center,CA,dispensary,https://weedmaps.com/dispensaries/greenhouse-herbal-center,-118.3041071,34.1016334,90027,POINT (-118.3041071 34.1016334)
1787 Westwood,Los Angeles,Field Of Dreams,field-of-dreams,Ca,dispensary,https://weedmaps.com/dispensaries/field-of-dreams,-118.437645,34.050216,90024,POINT (-118.437645 34.050216)
6500 Stanford Ave,Los Angeles,The Originals Factory & Weed Shop,the-originals-factory-weed-shop,CA,dispensary,https://weedmaps.com/dispensaries/the-originals-factory-weed-shop,-118.262644,33.981015,90001,POINT (-118.262644 33.981015)
7415 Crenshaw,Los Angeles,California Cannabis Crenshaw,california-cannabis-crenshaw,CA,dispensary,https://weedmaps.com/dispensaries/california-cannabis-crenshaw,-118.331099,33.972214,90043,POINT (-118.331099 33.972214)
1506 West Manchester Ave,LOS ANGELES,OG HIGH LIFE,og-high-life,CA,dispensary,https://weedmaps.com/dispensaries/og-high-life,-118.302802,33.959786,90047,POINT (-118.302802 33.959786)
1323 South Flower Street,LA,Lit Co,lit-co,CA,dispensary,https://weedmaps.com/dispensaries/lit-co,-118.267763,34.039396,90015,POINT (-118.267763 34.039396)
1460 Vine St.,Los Angeles,Oz N Bounce Drive-Thru,oz-n-bounce-drive-thru,,dispensary,https://weedmaps.com/dispensaries/oz-n-bounce-drive-thru,-118.326369,34.097363,90028,POINT (-118.326369 34.097363)
12800 Wentworth St,Arleta,Cannabis Local,cannabislocal,CA,dispensary,https://weedmaps.com/dispensaries/cannabislocal,-118.411643,34.236191,91331,POINT (-118.411643 34.236191)
7040 Hayvenhurst Ave,Van Nuys,Daddy's Dispensary,daddy-s-dispensary,CA,dispensary,https://weedmaps.com/dispensaries/daddy-s-dispensary,-118.491917,34.198594,91406,POINT (-118.491917 34.198594)
8405 Pershing dr. suite 100,Playa Del Ray,Green City Collective,green-city-collective-la,CA,dispensary,https://weedmaps.com/dispensaries/green-city-collective-la,-118.443269,33.957087,90293,POINT (-118.443269 33.957087)
1418 W Florence Ave,Los Angeles,Royal Greens,royal-greens-3,Ca,dispensary,https://weedmaps.com/dispensaries/royal-greens-3,-118.301102,33.974454,90047,POINT (-118.301102 33.974454)
5530 Corbin Avenue,Tarzana,Dank of California,dank-of-california,CA,dispensary,https://weedmaps.com/dispensaries/dank-of-california,-118.561866,34.171792,91356,POINT (-118.561866 34.171792)
14901 Oxnard Street,Van Nuys,The Reefinery - Medical,the-reefinery,CA,dispensary,https://weedmaps.com/dispensaries/the-reefinery,-118.457681,34.179607,91411,POINT (-118.457681 34.179607)
1601 S Soto St.,Los Angeles,California Cannabis Soto,california-cannabis-soto,,dispensary,https://weedmaps.com/dispensaries/california-cannabis-soto,-118.22059,34.020821,90023,POINT (-118.22059 34.020821)
3783 East Olympic Blvd,Los Angeles,24/7 Recording,24-7-recording,California,dispensary,https://weedmaps.com/dispensaries/24-7-recording,-118.193928,34.01904,90023,POINT (-118.193928 34.01904)
9021 Exposition Blvd,Los Angeles,New Amsterdam Naturals,new-amsterdam-naturals,CA,dispensary,https://weedmaps.com/dispensaries/new-amsterdam-naturals,-118.392697,34.028878,90034,POINT (-118.392697 34.028878)
2622 S. Robertson Blvd,Los Angeles,Jayne's World,jayne-s-world,CA,dispensary,https://weedmaps.com/dispensaries/jayne-s-world,-118.388331,34.037683,90034,POINT (-118.388331 34.037683)
7500 S. Main St.,Los Angeles,Weed 4 Less 15 Cap,weed-4-less-15-cap,California,dispensary,https://weedmaps.com/dispensaries/weed-4-less-15-cap,-118.273791,33.972033,90003,POINT (-118.273791 33.972033)
9800 S San Pedro St,Los Angeles,Kush Kings,lit-korner,CA,dispensary,https://weedmaps.com/dispensaries/lit-korner,-118.26939,33.947145,90003,POINT (-118.26939 33.947145)
8163 Melrose Avenue,Los Angeles,Sweet Flower - Melrose,sweet-flower-melrose,California,dispensary,https://weedmaps.com/dispensaries/sweet-flower-melrose,-118.367402,34.083988,90046,POINT (-118.367402 34.083988)
1135 Venice Blvd,Los Angeles,Downtown Fantastic 20 Cap,downtown-fantastic-20-cap,California,dispensary,https://weedmaps.com/dispensaries/downtown-fantastic-20-cap,-118.280001,34.042105,90015,POINT (-118.280001 34.042105)
122 Lincoln Blvd Suite 204,Los Angeles,CAC Venice,cac-venice-3,CA,dispensary,https://weedmaps.com/dispensaries/cac-venice-3,-118.469196,34.002255,90291,POINT (-118.469196 34.002255)
1236 Compton Ave,Los Angeles,ERB Supply,erb-supply,California,dispensary,https://weedmaps.com/dispensaries/erb-supply,-118.241746,34.026621,90021,POINT (-118.241746 34.026621)
"10649 Burbank Blvd,",North Hollywood,La Fumee - CBD ONLY,la-fumee,Ca,dispensary,https://weedmaps.com/dispensaries/la-fumee,-118.363256,34.172384,91601,POINT (-118.363256 34.172384)
,North Hollywood,Green Love Delivery,green-kiss-noho,CA,delivery,https://weedmaps.com/deliveries/green-kiss-noho,-118.377379,34.154294,91606,POINT (-118.377379 34.154294)
,Santa Monica,Sunny Buds,sunny-buds-west-los-angeles,CA,delivery,https://weedmaps.com/deliveries/sunny-buds-west-los-angeles,-118.475908,34.060486,90049,POINT (-118.475908 34.060486)
,Glendale,GreenClouds,greenclouds,CA,delivery,https://weedmaps.com/deliveries/greenclouds,-118.223473,34.090962,91205,POINT (-118.223473 34.090962)
,Venice,Xaler Delivery,xaler-west-la-2,CA,delivery,https://weedmaps.com/deliveries/xaler-west-la-2,-118.43885,34.010569,90291,POINT (-118.43885 34.010569)
,Van Nuys,Post Meds,citidank-2,CA,delivery,https://weedmaps.com/deliveries/citidank-2,-118.463605,34.201266,91405,POINT (-118.463605 34.201266)
,Sylmar,35Cap Delivery,35cap-delivery,Ca,delivery,https://weedmaps.com/deliveries/35cap-delivery,-118.460139,34.322299,91342,POINT (-118.460139 34.322299)
,Hollywood,$99nOZ,99noz,CA,delivery,https://weedmaps.com/deliveries/99noz,-118.291916,34.098177,90038,POINT (-118.291916 34.098177)
,Culver City,Xaler Delivery,xaler,CA,delivery,https://weedmaps.com/deliveries/xaler,-118.405697,34.022751,90232,POINT (-118.405697 34.022751)
,West Los Angeles,Xaler Delivery,xaler-west-la,CA,delivery,https://weedmaps.com/deliveries/xaler-west-la,-118.425845,34.036845,90025,POINT (-118.425845 34.036845)
,LA,Green Tree Remedy,green-tree-remedy-5,CA,delivery,https://weedmaps.com/deliveries/green-tree-remedy-5,-118.303923,34.052821,90006,POINT (-118.303923 34.052821)
,North Hollywood,Med City Delivery - North Hollywood,medcitydelivery-los-angeles,CA,delivery,https://weedmaps.com/deliveries/medcitydelivery-los-angeles,-118.37038,34.186656,91606,POINT (-118.37038 34.186656)
,Woodland Hills,The Highlife Cannabis Express,the-highlife-cannabis-express-3,CA,delivery,https://weedmaps.com/deliveries/the-highlife-cannabis-express-3,-118.571916,34.171087,91316,POINT (-118.571916 34.171087)
,Hollywood,Top Shelf Only,top-shelf-delivery-services,CA,delivery,https://weedmaps.com/deliveries/top-shelf-delivery-services,-118.335459,34.101288,90028,POINT (-118.335459 34.101288)
,Glendale,Fly Delivery - Glendale,fly-delivery-4-9,CA,delivery,https://weedmaps.com/deliveries/fly-delivery-4-9,-118.2117257,34.1322469,90041,POINT (-118.2117257 34.1322469)
,Hollywood,MedEx LA,medexla-4,CA,delivery,https://weedmaps.com/deliveries/medexla-4,-118.353271,34.076082,90046,POINT (-118.353271 34.076082)
,Los Angeles,Fly Delivery - Silver Lake / Atwater,fly-delivery-2,CA,delivery,https://weedmaps.com/deliveries/fly-delivery-2,-118.266543,34.096054,90039,POINT (-118.266543 34.096054)
,Northridge,The Highlife Cannabis Express,the-highlife-cannabis-express,CA,delivery,https://weedmaps.com/deliveries/the-highlife-cannabis-express,-118.513253,34.201244,91335,POINT (-118.513253 34.201244)
,GRANADA HILLS,Cali Green Express,cali-green-express,CA,delivery,https://weedmaps.com/deliveries/cali-green-express,-118.515142,34.292624,91344,POINT (-118.515142 34.292624)
,Van Nuys,Green Kingdom,green-kingdom-1,CA,delivery,https://weedmaps.com/deliveries/green-kingdom-1,-118.43129,34.201213,91405,POINT (-118.43129 34.201213)
,SilverLake,Kush Factory Delivery,thcex,CA,delivery,https://weedmaps.com/deliveries/thcex,-118.287057,34.061889,90005,POINT (-118.287057 34.061889)
,Panorama City,Iconic KGB,iconic-kgb,California,delivery,https://weedmaps.com/deliveries/iconic-kgb,-118.422649,34.244725,91331,POINT (-118.422649 34.244725)
,Granada Hills,Fire Bud Industries,ogbykush,California,delivery,https://weedmaps.com/deliveries/ogbykush,-118.473539,34.235577,91344,POINT (-118.473539 34.235577)
,Glendale,Delivery Service,planet-express-deliveries,CA,delivery,https://weedmaps.com/deliveries/planet-express-deliveries,-118.22808,34.144803,91202,POINT (-118.22808 34.144803)
,Downtown LA,Discreet Medical Cannabis,discreet-medical-cannabis-3,California,delivery,https://weedmaps.com/deliveries/discreet-medical-cannabis-3,-118.249613,34.047392,90015,POINT (-118.249613 34.047392)
,CHATSWORTH,Cali Green Express,cali-green-express-2,CA,delivery,https://weedmaps.com/deliveries/cali-green-express-2,-118.553524,34.25768,91324,POINT (-118.553524 34.25768)
,Hollywood,Golden Leaf,golden-leaf-5,CA,delivery,https://weedmaps.com/deliveries/golden-leaf-5,-118.310981,34.094935,90028,POINT (-118.310981 34.094935)
,Downtown LA,The Private Reserve,top-shelf-delivery-services-2,CA,delivery,https://weedmaps.com/deliveries/top-shelf-delivery-services-2,-118.257215,34.052283,90071,POINT (-118.257215 34.052283)
,los Angeles,Golden Leaf,golden-leaf-14,CA,delivery,https://weedmaps.com/deliveries/golden-leaf-14,-118.445138,34.06688,900232,POINT (-118.445138 34.06688)
,North Hollywood,Post Meds,citi-dank-delivery,CA,delivery,https://weedmaps.com/deliveries/citi-dank-delivery,-118.358367,34.164923,91601,POINT (-118.358367 34.164923)
,Hollywood,Greenline Express - Hollywood,greenline-express-5,CA,delivery,https://weedmaps.com/deliveries/greenline-express-5,-118.331145,34.086051,90038,POINT (-118.331145 34.086051)
,North Hollywood,Pronto Puff,pronto-puff-24,CA,delivery,https://weedmaps.com/deliveries/pronto-puff-24,-118.372816,34.161856,91601,POINT (-118.372816 34.161856)
,North Hollywood,UBER WEED - North Hollywood,cali-budz-delivery,CA,delivery,https://weedmaps.com/deliveries/cali-budz-delivery,-118.390417,34.186691,91606,POINT (-118.390417 34.186691)
,Sunland,Golden leaf,golden-leaf-sunland,CA,delivery,https://weedmaps.com/deliveries/golden-leaf-sunland,-118.362433,34.215024,91040,POINT (-118.362433 34.215024)
,Hollywood,Fly Delivery - Hollywood,fly-delivery-4-11,CA,delivery,https://weedmaps.com/deliveries/fly-delivery-4-11,-118.291862,34.111414,90068,POINT (-118.291862 34.111414)
,KoreaTown,The Honor Roll Collective,the-honor-roll-collective-2-3,California,delivery,https://weedmaps.com/deliveries/the-honor-roll-collective-2-3,-118.289961,34.065214,90005,POINT (-118.289961 34.065214)
,Silver Lake,Cannajuana Releaf,cannajuana-releaf,California,delivery,https://weedmaps.com/deliveries/cannajuana-releaf,-118.261128,34.102021,90026,POINT (-118.261128 34.102021)
,West Hollywood,The Private Reserve,top-shelf-delivery-4am-2-3,CA,delivery,https://weedmaps.com/deliveries/top-shelf-delivery-4am-2-3,-118.36493,34.08878,90046,POINT (-118.36493 34.08878)
,Venice,Metro Green Meds - Venice,metro-green-meds-north-long-beach,CA,delivery,https://weedmaps.com/deliveries/metro-green-meds-north-long-beach,-118.459201,33.997197,90291,POINT (-118.459201 33.997197)
,Los angeles,Golden Leaf,golden-leaf-12,CA,delivery,https://weedmaps.com/deliveries/golden-leaf-12,-118.241306,34.036778,90021,POINT (-118.241306 34.036778)
,Hollywood,Best Buds LAX,best-buds-2,CA,delivery,https://weedmaps.com/deliveries/best-buds-2,-118.419324,33.960174,90038,POINT (-118.419324 33.960174)
,West Hollywood,Angels City - 25 Cap - West Hollywood,angels-city-1,CA,delivery,https://weedmaps.com/deliveries/angels-city-1,-118.349854,34.083528,90046,POINT (-118.349854 34.083528)
,East LA,The Green Coma,the-green-coma-7,CA,delivery,https://weedmaps.com/deliveries/the-green-coma-7,-118.213295,34.049279,90033,POINT (-118.213295 34.049279)
,Los Angeles,Hello Happy Delivery - Downtown LA,hello-happy-deliveries,CA,delivery,https://weedmaps.com/deliveries/hello-happy-deliveries,-118.253649,34.043065,90014,POINT (-118.253649 34.043065)
,Glendale,Greenline Express - Glendale,greenline-express-2,CA,delivery,https://weedmaps.com/deliveries/greenline-express-2,-118.20799,34.113177,90042,POINT (-118.20799 34.113177)
,Los Angeles,Flight Facility,flight-facility,CA,delivery,https://weedmaps.com/deliveries/flight-facility,-118.28682,34.019019,90007,POINT (-118.28682 34.019019)
,Korea Town,Fat Sacks,fat-sacks-la,CA,delivery,https://weedmaps.com/deliveries/fat-sacks-la,-118.31126,34.061662,90005,POINT (-118.31126 34.061662)
,Malibu,Dank California Collective,dank-california-collective-2,CA,delivery,https://weedmaps.com/deliveries/dank-california-collective-2,-118.518328,34.041319,90265,POINT (-118.518328 34.041319)
,Panorama City,BudExpress,budexpress-3,CA,delivery,https://weedmaps.com/deliveries/budexpress-3,-118.430893,34.215336,91402,POINT (-118.430893 34.215336)
,North Hollywood,Golden leaf,golden-leaf-7,CA,delivery,https://weedmaps.com/deliveries/golden-leaf-7,-118.396428,34.186668,91604,POINT (-118.396428 34.186668)
,Los Angeles,The Green Coma,the-green-coma-6,CA,delivery,https://weedmaps.com/deliveries/the-green-coma-6,-118.184374,34.115506,90042,POINT (-118.184374 34.115506)
,North Hollywood,The Private Reserve,top-shelf-california,CA,delivery,https://weedmaps.com/deliveries/top-shelf-california,-118.385542,34.179409,91606,POINT (-118.385542 34.179409)
,Los Angeles,Green Bakery,green-bakery,California,delivery,https://weedmaps.com/deliveries/green-bakery,-118.260334,34.118638,90039,POINT (-118.260334 34.118638)
,Los Angeles,Dope Girls LA,dopegirls-la-2,ca,delivery,https://weedmaps.com/deliveries/dopegirls-la-2,-118.33614,34.104337,90029,POINT (-118.33614 34.104337)
,West Los Angeles,Xaler Delivery,xaler-delivery,CA,delivery,https://weedmaps.com/deliveries/xaler-delivery,-118.438263,34.070964,90024,POINT (-118.438263 34.070964)
,Northridge,Gas On Go,gas-on-go-1,CA,delivery,https://weedmaps.com/deliveries/gas-on-go-1,-118.542146,34.226204,91330,POINT (-118.542146 34.226204)
,Hollywood,Hello Happy Delivery - Hollywood,hello-happy-delivery-2,CA,delivery,https://weedmaps.com/deliveries/hello-happy-delivery-2,-118.313599,34.098134,90029,POINT (-118.313599 34.098134)
,Korea Town,Dope Girls LA,dope-girls-2,CA,delivery,https://weedmaps.com/deliveries/dope-girls-2,-118.309148,34.068925,90020,POINT (-118.309148 34.068925)
,Silver Lake,Golden leaf,golden-leaf-silver-lake,CA,delivery,https://weedmaps.com/deliveries/golden-leaf-silver-lake,-118.259545,34.089066,90026,POINT (-118.259545 34.089066)
,East LA,The Green Coma,the-green-coma-8,California,delivery,https://weedmaps.com/deliveries/the-green-coma-8,-118.164395,34.090872,90032,POINT (-118.164395 34.090872)
,Los Angeles,AFFCO,american-favorite-flowers-collective,CA,delivery,https://weedmaps.com/deliveries/american-favorite-flowers-collective,-118.272358,34.106726,90027,POINT (-118.272358 34.106726)
,Los Angeles,Always Sunny Delivery,always-sunny-delivery,CA,delivery,https://weedmaps.com/deliveries/always-sunny-delivery,-118.282832,34.016348,90037,POINT (-118.282832 34.016348)
,Los Angeles,The Golden Drop,the-golden-drop,California,delivery,https://weedmaps.com/deliveries/the-golden-drop,-118.268466,34.043874,90015,POINT (-118.268466 34.043874)
,North Hollywood,Dope Girls LA,dopegirlsla,California,delivery,https://weedmaps.com/deliveries/dopegirlsla,-118.387587,34.164934,91601,POINT (-118.387587 34.164934)
,North Hollywood,Green Panda Express,green-panda-express,CA,delivery,https://weedmaps.com/deliveries/green-panda-express,-118.373883,34.172175,91605,POINT (-118.373883 34.172175)
,Van Nuys,Green Panda Express,green-panda-express-2,CA,delivery,https://weedmaps.com/deliveries/green-panda-express-2,-118.448768,34.201534,91405,POINT (-118.448768 34.201534)
,Porter Ranch,Pineapple Express,pineapple-express-9,CA,delivery,https://weedmaps.com/deliveries/pineapple-express-9,-118.5506158,34.2822134,91326,POINT (-118.5506158 34.2822134)
,Glendale,Delivery Service,planet-express-deliveries-2-2,CA,delivery,https://weedmaps.com/deliveries/planet-express-deliveries-2-2,-118.25959,34.113109,91202,POINT (-118.25959 34.113109)
,los angeles,Berlin Delivery,berlindelivery,CA,delivery,https://weedmaps.com/deliveries/berlindelivery,-118.313687,34.105355,90028,POINT (-118.313687 34.105355)
,Los Angeles,BudHut LA *OPEN LATE! - Central LA,bud-hut-2-5,CA,delivery,https://weedmaps.com/deliveries/bud-hut-2-5,-118.444269,34.059767,90089,POINT (-118.444269 34.059767)
,Los Angeles,The Golden Drop,the-golden-drop-2,CA,delivery,https://weedmaps.com/deliveries/the-golden-drop-2,-118.300213,34.017172,90062,POINT (-118.300213 34.017172)
,North Hollywood,Iconic KGB,iconic-kgb-2,,delivery,https://weedmaps.com/deliveries/iconic-kgb-2,-118.414405,34.215892,91605,POINT (-118.414405 34.215892)
,Los Angeles,The Original 24/7 Top Shelf Deliveries,24-7-top-shelf-deliveries-25,CA,delivery,https://weedmaps.com/deliveries/24-7-top-shelf-deliveries-25,-118.300037,34.052618,90006,POINT (-118.300037 34.052618)
,Korea Town,The House Of Ounces,the-house-of-ounces-2,CA,delivery,https://weedmaps.com/deliveries/the-house-of-ounces-2,-118.307884,34.063555,90005,POINT (-118.307884 34.063555)
,Sun Valley,Budexpress,budexpress-1,CA,delivery,https://weedmaps.com/deliveries/budexpress-1,-118.387789,34.193937,91605,POINT (-118.387789 34.193937)
,Los Angeles,The Honor Roll Collective,the-honor-roll-collective-san-marino,,delivery,https://weedmaps.com/deliveries/the-honor-roll-collective-san-marino,-118.257374,34.046414,90012,POINT (-118.257374 34.046414)
,Eagle Rock / Glendale,OrangeLeaf,orangeleaf-5,CA,delivery,https://weedmaps.com/deliveries/orangeleaf-5,-118.209164,34.136008,90041,POINT (-118.209164 34.136008)
,Studio City,Studio City Flower Delivery,studio-city-flower-delivery,California,delivery,https://weedmaps.com/deliveries/studio-city-flower-delivery,-118.398823,34.143504,91604,POINT (-118.398823 34.143504)
,Venice,Xaler Delivery,xaler-3,CA,delivery,https://weedmaps.com/deliveries/xaler-3,-118.455691,33.988279,90291,POINT (-118.455691 33.988279)
,Los Angeles,Green2Go,green-2-go-4,,delivery,https://weedmaps.com/deliveries/green-2-go-4,-118.353978,34.103493,90046,POINT (-118.353978 34.103493)
,Glendale,Delivery Service,planet-express-deliveries-2,CA,delivery,https://weedmaps.com/deliveries/planet-express-deliveries-2,-118.193756,34.118938,90042,POINT (-118.193756 34.118938)
,Northridge,BudHut LA - Northridge - North HIlls - Reseda,bud-hut-2-2,CA,delivery,https://weedmaps.com/deliveries/bud-hut-2-2,-118.523442,34.2565,91324,POINT (-118.523442 34.2565)
,North Hollywood,Loud Pack Delivery - North Hollywood,house-of-flight-2-3,CA,delivery,https://weedmaps.com/deliveries/house-of-flight-2-3,-118.38335,34.179409,91606,POINT (-118.38335 34.179409)
,Hollywood,Top Shelf Collective,top-shelf-collective,CA,delivery,https://weedmaps.com/deliveries/top-shelf-collective,-118.338578,34.083514,90038,POINT (-118.338578 34.083514)
,Los Angeles,Level Up Delivery,level-up-delivery-2,CA,delivery,https://weedmaps.com/deliveries/level-up-delivery-2,-118.252579,34.090488,90010,POINT (-118.252579 34.090488)
,Hollywood,We The Best Delivery - Hollywood,flight-club-la-2-4,CA,delivery,https://weedmaps.com/deliveries/flight-club-la-2-4,-118.341439,34.096124,90028,POINT (-118.341439 34.096124)
,Los Angeles,Green2Go,green-2-go-6,Ca,delivery,https://weedmaps.com/deliveries/green-2-go-6,-118.319928,34.051269,90019,POINT (-118.319928 34.051269)
,Los Angeles,Uplift,uplyft-la,,delivery,https://weedmaps.com/deliveries/uplyft-la,-118.474679,34.048933,90025,POINT (-118.474679 34.048933)
,Studio City,BudExpress,budexpress,CA,delivery,https://weedmaps.com/deliveries/budexpress,-118.419934,34.146218,91604,POINT (-118.419934 34.146218)
,Hollywood,Green Ways Delivery,green-wayz-2,CA,delivery,https://weedmaps.com/deliveries/green-wayz-2,-118.333689,34.097037,90028,POINT (-118.333689 34.097037)
,Sherman Oaks,Green Guest,greengest-2,California,delivery,https://weedmaps.com/deliveries/greengest-2,-118.445444,34.153449,91423,POINT (-118.445444 34.153449)
,Van Nuys,BudExpress,budexpress-6,CA,delivery,https://weedmaps.com/deliveries/budexpress-6,-118.413844,34.168607,91401,POINT (-118.413844 34.168607)
,Venice,Loud Pack Delivery - Venice / Marina Del Rey,loud-pack-delivery-venice-marina-del-rey,CA,delivery,https://weedmaps.com/deliveries/loud-pack-delivery-venice-marina-del-rey,-118.45676,33.992062,90291,POINT (-118.45676 33.992062)
,Eagle Rock,Med City Delivery - Eagle Rock,420-delivery-421-421,CA,delivery,https://weedmaps.com/deliveries/420-delivery-421-421,-118.217944,34.123628,90041,POINT (-118.217944 34.123628)
,Chatsworth,Chronic Releaf,prc-north,CA,delivery,https://weedmaps.com/deliveries/prc-north,-118.606061,34.257188,91311,POINT (-118.606061 34.257188)
,Sunland,The Spot Delivery - Sun Valley,the-spot-delivery-2,CA,delivery,https://weedmaps.com/deliveries/the-spot-delivery-2,-118.379057,34.201232,91352,POINT (-118.379057 34.201232)
,Northridge,LA Rush - Northridge,la-rush-northridge,Ca,delivery,https://weedmaps.com/deliveries/la-rush-northridge,-118.522993,34.242638,91325,POINT (-118.522993 34.242638)
,Los Angeles,VIP LA,vipla,CA,delivery,https://weedmaps.com/deliveries/vipla,-118.424096,34.057576,90025,POINT (-118.424096 34.057576)
,Los Angeles,Lux Premium Flower & CBD,lux-flower-and-cbd-2,CA,delivery,https://weedmaps.com/deliveries/lux-flower-and-cbd-2,-118.400417,33.959909,90045,POINT (-118.400417 33.959909)
,West Hollywood,Level Up Delivery,level-up-delivery,CA,delivery,https://weedmaps.com/deliveries/level-up-delivery,-118.344041,34.073728,90210,POINT (-118.344041 34.073728)
,Los Angeles,The Pottery Delivery,soco-la-culver-city-2,CA,delivery,https://weedmaps.com/deliveries/soco-la-culver-city-2,-118.275854,34.087565,90039,POINT (-118.275854 34.087565)
,Ventura,Dank California Collective,dank-california-collective-9,CA,delivery,https://weedmaps.com/deliveries/dank-california-collective-9,-118.438421,34.264722,91402,POINT (-118.438421 34.264722)
,Venice,LuvBrite Delivery,secretgarden-2,CA,delivery,https://weedmaps.com/deliveries/secretgarden-2,-118.463051,33.99904,90066,POINT (-118.463051 33.99904)
,Sylmar,Double R,double-r-3,CA,delivery,https://weedmaps.com/deliveries/double-r-3,-118.44724,34.304115,91342,POINT (-118.44724 34.304115)
,Los Angeles,Metro Green Meds - USC,metro-green-meds-2,CA,delivery,https://weedmaps.com/deliveries/metro-green-meds-2,-118.28964,34.021161,90089,POINT (-118.28964 34.021161)
,Sun Valley,Dank California Collective,dank-california-collective-3,CA,delivery,https://weedmaps.com/deliveries/dank-california-collective-3,-118.370375,34.201263,91316,POINT (-118.370375 34.201263)
,North Hollywood,iWeed,iweed-9,CA,delivery,https://weedmaps.com/deliveries/iweed-9,-118.405302,34.193969,91605,POINT (-118.405302 34.193969)
,Hollywood,Nocturnal Haze,nocturnal-haze,Ca,delivery,https://weedmaps.com/deliveries/nocturnal-haze,-118.28749,34.111878,90027,POINT (-118.28749 34.111878)
,Eagle Rock,BGM,bgm,CA,delivery,https://weedmaps.com/deliveries/bgm,-118.221158,34.122513,90042,POINT (-118.221158 34.122513)
,West Hills,BLK Deliveries,phoenix-deliveries,CA,delivery,https://weedmaps.com/deliveries/phoenix-deliveries,-118.613897,34.207769,91303,POINT (-118.613897 34.207769)
,Van Nuys,Supreme Leaf *OPEN LATE!,supreme-leaf-5,CA,delivery,https://weedmaps.com/deliveries/supreme-leaf-5,-118.441145,34.198761,91401,POINT (-118.441145 34.198761)
,Los Angeles,Flight Facility,flight-facility-4,CA,delivery,https://weedmaps.com/deliveries/flight-facility-4,-118.30905,34.055153,90006,POINT (-118.30905 34.055153)
,Korea Town,Dank California Collective,dank-california-collective-e0fa5b70-1099-42ef-8a82-f19214bfbaa7,CA,delivery,https://weedmaps.com/deliveries/dank-california-collective-e0fa5b70-1099-42ef-8a82-f19214bfbaa7,-118.302941,34.068959,90010,POINT (-118.302941 34.068959)
,Hollywood,OrgangeLeaf,organgeleaf-2,CA,delivery,https://weedmaps.com/deliveries/organgeleaf-2,-118.325678,34.091676,90061,POINT (-118.325678 34.091676)
,Los Angeles,Flight Farms,flight-farms-2,CA,delivery,https://weedmaps.com/deliveries/flight-farms-2,-118.544816,34.242772,91324,POINT (-118.544816 34.242772)
,Northridge,Green Panda Express,green-panda-express-4,CA,delivery,https://weedmaps.com/deliveries/green-panda-express-4,-118.553633,34.220501,91324,POINT (-118.553633 34.220501)
,Sherman Oaks,DR Kush Delivery,dr-kush-delivery-3,CA,delivery,https://weedmaps.com/deliveries/dr-kush-delivery-3,-118.413838,34.149307,91406,POINT (-118.413838 34.149307)
,Venice Beach,DR Kush Delivery,dr-kush-delivery-venice,Ca,delivery,https://weedmaps.com/deliveries/dr-kush-delivery-venice,-118.467036,33.990123,90291,POINT (-118.467036 33.990123)
,Los Angeles,Soulgoods,soulgoods,,delivery,https://weedmaps.com/deliveries/soulgoods,-118.383336,34.059206,90035,POINT (-118.383336 34.059206)
,North Hollywood,Kushfly,kushfly,CA,delivery,https://weedmaps.com/deliveries/kushfly,-118.352752,34.155945,91601,POINT (-118.352752 34.155945)
,Los Angeles,Metro Green Meds - Korea Town,metro-green-meds,CA,delivery,https://weedmaps.com/deliveries/metro-green-meds,-118.276458,34.069458,90005,POINT (-118.276458 34.069458)
,Granada Hills,SpeedWeedLA,speedweedla,CA,delivery,https://weedmaps.com/deliveries/speedweedla,-118.48492,34.257411,91311,POINT (-118.48492 34.257411)
,Los Angeles,The Spot Delivery - Los Angeles,the-spot-delivery-los-angeles,CA,delivery,https://weedmaps.com/deliveries/the-spot-delivery-los-angeles,-118.272319,34.101467,90027,POINT (-118.272319 34.101467)
,Koreatown,Starleaf,starleaf-3,CA,delivery,https://weedmaps.com/deliveries/starleaf-3,-118.295837,34.055316,90006,POINT (-118.295837 34.055316)
,Los Angeles,420 Ganja Delivery,420-ganja-delivery,CA,delivery,https://weedmaps.com/deliveries/420-ganja-delivery,-118.291641,34.061782,90010,POINT (-118.291641 34.061782)
,Hollywood,Pure Decision,pure-decision,CA,delivery,https://weedmaps.com/deliveries/pure-decision,-118.344155,34.097942,90038,POINT (-118.344155 34.097942)
,West Hollywood,We The Best Delivery - West Hollywood,we-the-best-delivery-west-hollywood,CA,delivery,https://weedmaps.com/deliveries/we-the-best-delivery-west-hollywood,-118.350446,34.067009,90069,POINT (-118.350446 34.067009)
,West LA,Loud Pack Delivery - West LA,loud-pack-delivery-west-la,CA,delivery,https://weedmaps.com/deliveries/loud-pack-delivery-west-la,-118.449089,34.073681,90025,POINT (-118.449089 34.073681)
,Van Nuys,iWeed,iweed-10,CA,delivery,https://weedmaps.com/deliveries/iweed-10,-118.439994,34.193933,91405,POINT (-118.439994 34.193933)
,Los Angeles,Lords of the Trees,herc-buds,California,delivery,https://weedmaps.com/deliveries/herc-buds,-118.343343,34.101477,90046,POINT (-118.343343 34.101477)
,Los Angeles,420 Degrees,420-degrees-4,ca,delivery,https://weedmaps.com/deliveries/420-degrees-4,-118.396011,33.931169,90045,POINT (-118.396011 33.931169)
,Silverlake,We The Best Delivery - Silverlake,flight-club-la-2-5,CA,delivery,https://weedmaps.com/deliveries/flight-club-la-2-5,-118.292024,34.076325,90004,POINT (-118.292024 34.076325)
,San Pedro,The Higher Ups,the-higher-ups,California,delivery,https://weedmaps.com/deliveries/the-higher-ups,-118.29238,33.729698,90731,POINT (-118.29238 33.729698)
,Hollywood,Loud Pack Delivery - Hollywood,budz-your-way-2-2,CA,delivery,https://weedmaps.com/deliveries/budz-your-way-2-2,-118.326637,34.097057,90028,POINT (-118.326637 34.097057)
,Studio City,Daily Dose Delivery,daily-dose-delivery-2,CA,delivery,https://weedmaps.com/deliveries/daily-dose-delivery-2,-118.422456,34.157593,91423,POINT (-118.422456 34.157593)
,Studio City,Deluxe Caregivers,deluxe-caregivers-sherman-oaks,CA,delivery,https://weedmaps.com/deliveries/deluxe-caregivers-sherman-oaks,-118.396681,34.150365,91604,POINT (-118.396681 34.150365)
,Sherman Oaks,5 Star Meds Delivery - Sherman Oaks,5-star-meds-so,CA,delivery,https://weedmaps.com/deliveries/5-star-meds-so,-118.368682,34.135754,91604,POINT (-118.368682 34.135754)
,Northridge,Pronto Puff,pronto-puff-3,CA,delivery,https://weedmaps.com/deliveries/pronto-puff-3,-118.515553,34.252193,91324,POINT (-118.515553 34.252193)
,West Los Angeles,Jamie's Weed Delivery,jamie-s-weed-delivery,California,delivery,https://weedmaps.com/deliveries/jamie-s-weed-delivery,-118.451926,34.033943,90025,POINT (-118.451926 34.033943)
,Eagle Rock,Speedy Meds,speedy-meds-2-2,ca,delivery,https://weedmaps.com/deliveries/speedy-meds-2-2,-118.201403,34.139444,90041,POINT (-118.201403 34.139444)
,Korea Town,Pure Decision,pure-decision-4,Ca,delivery,https://weedmaps.com/deliveries/pure-decision-4,-118.274936,34.085393,90005,POINT (-118.274936 34.085393)
,Venice,VIP LA,vip-la,CA,delivery,https://weedmaps.com/deliveries/vip-la,-118.447299,33.990714,90292,POINT (-118.447299 33.990714)
,West Los Angeles,Green monkey,green-monkey-2,CA,delivery,https://weedmaps.com/deliveries/green-monkey-2,-118.439369,34.056649,90024,POINT (-118.439369 34.056649)
,Hollywood,BudHut LA *OPEN LATE! - Hollywood,bud-hut-2-9,CA,delivery,https://weedmaps.com/deliveries/bud-hut-2-9,-118.413849,34.179421,91606,POINT (-118.413849 34.179421)
,Los Angeles,VIP LA,vip-la-2-4,CA,delivery,https://weedmaps.com/deliveries/vip-la-2-4,-118.396667,34.029528,90034,POINT (-118.396667 34.029528)
,Glendale,The House Of Ounces,the-house-of-ounces-8,CA,delivery,https://weedmaps.com/deliveries/the-house-of-ounces-8,-118.21712,34.129131,91205,POINT (-118.21712 34.129131)
,Van Nuys,Oz n Bounce,oz-n-bounce,CA,delivery,https://weedmaps.com/deliveries/oz-n-bounce,-118.437859,34.18567,91401,POINT (-118.437859 34.18567)
,North Hollywood,BudHut LA - North Hollywood,bud-hut-2-4,CA,delivery,https://weedmaps.com/deliveries/bud-hut-2-4,-118.36853,34.154768,91602,POINT (-118.36853 34.154768)
,San Pedro,ALMIGHTY MEDS,almighty-meds-san-pedro,CA,delivery,https://weedmaps.com/deliveries/almighty-meds-san-pedro,-118.298965,33.736094,90731,POINT (-118.298965 33.736094)
,Studio City,Med City Delivery - Studio City / Sherman Oaks,med-city-delivery-studio-city-sherman-oaks,California,delivery,https://weedmaps.com/deliveries/med-city-delivery-studio-city-sherman-oaks,-118.409525,34.150435,91604,POINT (-118.409525 34.150435)
,Northridge,Trap House Delivery,trap-house-delivery-3,CA,delivery,https://weedmaps.com/deliveries/trap-house-delivery-3,-118.537244,34.23549,91325,POINT (-118.537244 34.23549)
,Van Nuys,Level Up Delivery,level-up-delivery-9,CA,delivery,https://weedmaps.com/deliveries/level-up-delivery-9,-118.431249,34.179378,91405,POINT (-118.431249 34.179378)
,Winnetka,ASAP BUDZ,asap-budz-3,CA,delivery,https://weedmaps.com/deliveries/asap-budz-3,-118.571083,34.231783,91311,POINT (-118.571083 34.231783)
,Northridge,Weed Locker,weed-locker-2,Ca,delivery,https://weedmaps.com/deliveries/weed-locker-2,-118.502255,34.257688,91344,POINT (-118.502255 34.257688)
,West Hollywood,LA's Finest,la-s-finest-4,CA,delivery,https://weedmaps.com/deliveries/la-s-finest-4,-118.361467,34.078208,90069,POINT (-118.361467 34.078208)
,Hollywood,Get Weed LA,get-weed-la-6,,delivery,https://weedmaps.com/deliveries/get-weed-la-6,-118.323833,34.102451,90028,POINT (-118.323833 34.102451)
,Van Nuys,Flight Farms,flight-farms-3,CA,delivery,https://weedmaps.com/deliveries/flight-farms-3,-118.473475,34.201197,91406,POINT (-118.473475 34.201197)
,Silver Lake,Med City Delivery - LA / Silver Lake,420-delivery-421-422,CA,delivery,https://weedmaps.com/deliveries/420-delivery-421-422,-118.272819,34.082555,90026,POINT (-118.272819 34.082555)
,Hollywood,DHC Delivery,dhc-delivery,California,delivery,https://weedmaps.com/deliveries/dhc-delivery,-118.326586,34.099734,91325,POINT (-118.326586 34.099734)
,Encino,Tasty Farms Delivery - Encino,tasty-farms-delivery-7,,delivery,https://weedmaps.com/deliveries/tasty-farms-delivery-7,-118.518621,34.160196,91436,POINT (-118.518621 34.160196)
,Los Angeles,RUSH,the-family-healers-tfh-8,CA,delivery,https://weedmaps.com/deliveries/the-family-healers-tfh-8,-118.244669,34.0546,90012,POINT (-118.244669 34.0546)
,Hollywood,BudHut LA *OPEN LATE! - Hollywood,budhut-la-2,CA,delivery,https://weedmaps.com/deliveries/budhut-la-2,-118.321299,34.105229,90028,POINT (-118.321299 34.105229)
,Northridge,Supreme Leaf *OPEN LATE!,supreme-leaf-7,CA,delivery,https://weedmaps.com/deliveries/supreme-leaf-7,-118.529522,34.228701,91325,POINT (-118.529522 34.228701)
,Los Angeles,Green Ways Delivery,green-ways-delivery,CA,delivery,https://weedmaps.com/deliveries/green-ways-delivery,-118.279132,34.078389,90026,POINT (-118.279132 34.078389)
,West Hollywood,ASAP BUDZ,asap-budz-4,CA,delivery,https://weedmaps.com/deliveries/asap-budz-4,-118.41196,34.058478,90046,POINT (-118.41196 34.058478)
,Los Angeles,OrangeLeaf,orangeleaf-8,Ca,delivery,https://weedmaps.com/deliveries/orangeleaf-8,-118.435361,34.062146,90024,POINT (-118.435361 34.062146)
,Hollywood,LA's Finest,la-s-finest-3,CA,delivery,https://weedmaps.com/deliveries/la-s-finest-3,-118.338071,34.096152,90038,POINT (-118.338071 34.096152)
,Woodland Hills,Supreme Leaf *OPEN LATE!,supreme-leaf-8,CA,delivery,https://weedmaps.com/deliveries/supreme-leaf-8,-118.571034,34.19377,91367,POINT (-118.571034 34.19377)
,Gardena,The 710 Club - Open 24 Hours,the-710-club-2,CA,delivery,https://weedmaps.com/deliveries/the-710-club-2,-118.291129,33.881973,90247,POINT (-118.291129 33.881973)
,Encino,BudHut LA - ENCINO,budhut-la,CA,delivery,https://weedmaps.com/deliveries/budhut-la,-118.509875,34.172278,91316,POINT (-118.509875 34.172278)
,West La,Starleaf,starleaf-4,CA,delivery,https://weedmaps.com/deliveries/starleaf-4,-118.430677,34.056619,90024,POINT (-118.430677 34.056619)
,Downtown LA,Starleaf,starleaf-5,Ca,delivery,https://weedmaps.com/deliveries/starleaf-5,-118.256149,34.042382,90015,POINT (-118.256149 34.042382)
,Van Nuys,The House Of Ounces,the-house-of-ounces-14,CA,delivery,https://weedmaps.com/deliveries/the-house-of-ounces-14,-118.446563,34.193918,91405,POINT (-118.446563 34.193918)
,Tarzana,BudHut LA - Woodland HIlls - Calabasas - Tarzana,bud-hut-2-6,CA,delivery,https://weedmaps.com/deliveries/bud-hut-2-6,-118.614597,34.171979,91367,POINT (-118.614597 34.171979)
,Hollywood,Flight Club LA,the-gas-delivery-4,CA,delivery,https://weedmaps.com/deliveries/the-gas-delivery-4,-118.341462,34.101515,90028,POINT (-118.341462 34.101515)
,Beverly Hills,Get Weed LA,get-weed-la-7,,delivery,https://weedmaps.com/deliveries/get-weed-la-7,-118.405821,34.127263,90210,POINT (-118.405821 34.127263)
,Studio City,Nugmen Cannabis Delivery,nugmen-cannabis-delivery-3,CA,delivery,https://weedmaps.com/deliveries/nugmen-cannabis-delivery-3,-118.407337,34.148562,91604,POINT (-118.407337 34.148562)
,Los Angeles,Green Oasis Delivery,green-oasis-3,CA,delivery,https://weedmaps.com/deliveries/green-oasis-3,-118.271069,34.035822,90015,POINT (-118.271069 34.035822)
,Sherman Oaks,BudHut LA *OPEN LATE!,budhut-la-open-late,CA,delivery,https://weedmaps.com/deliveries/budhut-la-open-late,-118.456445,34.152238,91403,POINT (-118.456445 34.152238)
,Los Angeles,Flight Facility,flight-facility-2,CA,delivery,https://weedmaps.com/deliveries/flight-facility-2,-118.25035,34.037326,90021,POINT (-118.25035 34.037326)
,Central La,Pure Decision,pure-decision-5,Ca,delivery,https://weedmaps.com/deliveries/pure-decision-5,-118.280005,34.021936,90007,POINT (-118.280005 34.021936)
,Los Angeles,420Ganja,420ganja,CA,delivery,https://weedmaps.com/deliveries/420ganja,-118.2545,34.048231,90014,POINT (-118.2545 34.048231)
,West Los Angeles,KUSHAGRAM,kushagram-7,CA,delivery,https://weedmaps.com/deliveries/kushagram-7,-118.438309,34.065614,90024,POINT (-118.438309 34.065614)
,Hollywood,Oz n Bounce,oz-n-bounce-3,CA,delivery,https://weedmaps.com/deliveries/oz-n-bounce-3,-118.33338,34.103213,90028,POINT (-118.33338 34.103213)
,Los Angeles,"Clones, Ready To Flower",ready-to-flower,CA,delivery,https://weedmaps.com/deliveries/ready-to-flower,-118.309267,34.098103,90043,POINT (-118.309267 34.098103)
,Hollywood,Mary Couture Delivery Service,mary-couture-delivery-service-5,CA,delivery,https://weedmaps.com/deliveries/mary-couture-delivery-service-5,-118.326986,34.101639,90028,POINT (-118.326986 34.101639)
,Venice,Westside Organic Delivery,westside-organic-delivery-venice,CA,delivery,https://weedmaps.com/deliveries/westside-organic-delivery-venice,-118.469243,33.983913,90291,POINT (-118.469243 33.983913)
,Hollywood,Nugg HUT,nugg-hut,CA,delivery,https://weedmaps.com/deliveries/nugg-hut,-118.319176,34.099751,90038,POINT (-118.319176 34.099751)
,Sherman Oaks,LA's Finest,la-s-finest-2,CA,delivery,https://weedmaps.com/deliveries/la-s-finest-2,-118.422529,34.168516,91403,POINT (-118.422529 34.168516)
,Venice,ASAP BUDZ,asap-budz-5,CA,delivery,https://weedmaps.com/deliveries/asap-budz-5,-118.441168,33.999815,91504,POINT (-118.441168 33.999815)
,Venice,KUSHAGRAM - Venice,kushagram-venice-boardwalk,CA,delivery,https://weedmaps.com/deliveries/kushagram-venice-boardwalk,-118.458859,33.988332,90291,POINT (-118.458859 33.988332)
,Winetka,iWeed,iweed-5,CA,delivery,https://weedmaps.com/deliveries/iweed-5,-118.562852,34.220339,91306,POINT (-118.562852 34.220339)
,Encino,iWeed,iweed-8,Ca,delivery,https://weedmaps.com/deliveries/iweed-8,-118.48796,34.157014,91436,POINT (-118.48796 34.157014)
,Wilmington,Weedrive2U,weedrive2u-9,CA,delivery,https://weedmaps.com/deliveries/weedrive2u-9,-118.27731,33.790447,90744,POINT (-118.27731 33.790447)
,Woodland Hills,Silicon Beach Greens,silicon-beach-greens-6,CA,delivery,https://weedmaps.com/deliveries/silicon-beach-greens-6,-118.572831,34.179833,91367,POINT (-118.572831 34.179833)
,Culver City,KUSHAGRAM,kushagram-culver-city,CA,delivery,https://weedmaps.com/deliveries/kushagram-culver-city,-118.403498,33.999096,90035,POINT (-118.403498 33.999096)
,Glendale,Pure Decision,pure-decision-3,CA,delivery,https://weedmaps.com/deliveries/pure-decision-3,-118.216011,34.132463,91202,POINT (-118.216011 34.132463)
,Hollywood,The Spot Delivery,the-spot-delivery-3,CA,delivery,https://weedmaps.com/deliveries/the-spot-delivery-3,-118.325248,34.101582,90028,POINT (-118.325248 34.101582)
,Los Angeles,420 Degrees,420-degrees-8,CA,delivery,https://weedmaps.com/deliveries/420-degrees-8,-118.397099,33.954637,90045,POINT (-118.397099 33.954637)
,Encino,HIGH HOPES LA,high-hopes-la-3,CA,delivery,https://weedmaps.com/deliveries/high-hopes-la-3,-118.509803,34.156471,91316,POINT (-118.509803 34.156471)
,Van Nuys,Loud Pack Delivery - Van Nuys,loud-pack-delivery-sun-valley-sunland,CA,delivery,https://weedmaps.com/deliveries/loud-pack-delivery-sun-valley-sunland,-118.418202,34.193919,91405,POINT (-118.418202 34.193919)
,Los Angeles,LA's Finest,la-s-finest-5,CA,delivery,https://weedmaps.com/deliveries/la-s-finest-5,-118.461317,34.038865,90049,POINT (-118.461317 34.038865)
,Los Angeles,Buddha Company - DTLA,buddha-company-1,CA,delivery,https://weedmaps.com/deliveries/buddha-company-1,-118.26095,34.040841,90015,POINT (-118.26095 34.040841)
,Los Angeles,Dank California Collective,dank-california-collective-10,California,delivery,https://weedmaps.com/deliveries/dank-california-collective-10,-118.192502,34.031308,90022,POINT (-118.192502 34.031308)
,North Hollywood,We The Best Delivery - North Hollywood,we-da-best-delivery-2,CA,delivery,https://weedmaps.com/deliveries/we-da-best-delivery-2,-118.385808,34.186763,91606,POINT (-118.385808 34.186763)
,Studio City,Loud Pack Delivery - Studio City / Sherman Oaks,loud-pack-delivery-northridge-reseda,CA,delivery,https://weedmaps.com/deliveries/loud-pack-delivery-northridge-reseda,-118.418895,34.149629,91604,POINT (-118.418895 34.149629)
,Wilmington,Rocket Buds,rocket-buds,CA,delivery,https://weedmaps.com/deliveries/rocket-buds,-118.271455,33.783362,90744,POINT (-118.271455 33.783362)
,Northridge,DR Kush Delivery,dr-kush-delivery-northridge,Ca,delivery,https://weedmaps.com/deliveries/dr-kush-delivery-northridge,-118.560113,34.257231,91325,POINT (-118.560113 34.257231)
,Van Nuys,House of Zips,house-of-zips,CA,delivery,https://weedmaps.com/deliveries/house-of-zips,-118.440014,34.20485,91403,POINT (-118.440014 34.20485)
,Hollywood,Med City Delivery - Los Angeles,420-delivery-421-424,CA,delivery,https://weedmaps.com/deliveries/420-delivery-421-424,-118.337497,34.107329,90068,POINT (-118.337497 34.107329)
,Encino,We The Best Delivery - Encino,we-the-best-delivery-3,CA,delivery,https://weedmaps.com/deliveries/we-the-best-delivery-3,-118.520491,34.163005,91316,POINT (-118.520491 34.163005)
,Playa Del Rey,GreenLit 13,greenlit-13,CA,delivery,https://weedmaps.com/deliveries/greenlit-13,-118.378426,33.94541,90045,POINT (-118.378426 33.94541)
,Northridge,We The Best Delivery - Northridge,we-the-best,CA,delivery,https://weedmaps.com/deliveries/we-the-best,-118.544879,34.257276,91324,POINT (-118.544879 34.257276)
,West Los Angeles,KUSHAGRAM,kushagram-12,CA,delivery,https://weedmaps.com/deliveries/kushagram-12,-118.448429,34.061701,90024,POINT (-118.448429 34.061701)
,Sherman Oaks,Laughing Grass Delivery,laughing-grass-delivery-9,CA,delivery,https://weedmaps.com/deliveries/laughing-grass-delivery-9,-118.439981,34.149535,91423,POINT (-118.439981 34.149535)
,Van Nuys,Budway,budway-2,California,delivery,https://weedmaps.com/deliveries/budway-2,-118.483652,34.213996,91406,POINT (-118.483652 34.213996)
,North Hollywood,Get Weed LA,get-weed-la-2,CA,delivery,https://weedmaps.com/deliveries/get-weed-la-2,-118.378742,34.186548,91606,POINT (-118.378742 34.186548)
,Venice,High inventory,high-inventory-2,CA,delivery,https://weedmaps.com/deliveries/high-inventory-2,-118.449826,33.989469,90291,POINT (-118.449826 33.989469)
,Los Angeles,Flight Facility,flight-facility-3,CA,delivery,https://weedmaps.com/deliveries/flight-facility-3,-118.320141,34.098014,90028,POINT (-118.320141 34.098014)
,Los Angeles,Buddha Company - DTLA,buddha-company-4,CA,delivery,https://weedmaps.com/deliveries/buddha-company-4,-118.232654,34.045986,90012,POINT (-118.232654 34.045986)
,Van Nuys,Whisper Weed,whisper-weed-9,CA,delivery,https://weedmaps.com/deliveries/whisper-weed-9,-118.442935,34.180481,91401,POINT (-118.442935 34.180481)
,North Hollywood,Oz n Bounce,oz-n-bounce-4,CA,delivery,https://weedmaps.com/deliveries/oz-n-bounce-4,-118.36644,34.161723,91605,POINT (-118.36644 34.161723)
,Glendale,Crystal Cannabis,crystal-cannabis-4,Ca,delivery,https://weedmaps.com/deliveries/crystal-cannabis-4,-118.203342,34.111026,90042,POINT (-118.203342 34.111026)
,Los Angeles,POTNT INC,potnt-inc,California,delivery,https://weedmaps.com/deliveries/potnt-inc,-118.238326,34.034968,90012,POINT (-118.238326 34.034968)
,Studio City,Whisper Weed,whisper-weed-10,CA,delivery,https://weedmaps.com/deliveries/whisper-weed-10,-118.387734,34.148578,91604,POINT (-118.387734 34.148578)
,Los Angeles,Always Sunny Delivery,always-sunny-delivery-2,CA,delivery,https://weedmaps.com/deliveries/always-sunny-delivery-2,-118.166597,34.063939,90032,POINT (-118.166597 34.063939)
,Van Nuys,Magna Med,magna-med-6,ca,delivery,https://weedmaps.com/deliveries/magna-med-6,-118.439948,34.186958,91401,POINT (-118.439948 34.186958)
,Van Nuys,US Dank Delivery,us-dank-3,California,delivery,https://weedmaps.com/deliveries/us-dank-3,-118.453139,34.186598,91411,POINT (-118.453139 34.186598)
,Los Angeles,iWeed,iweed-6,Ca,delivery,https://weedmaps.com/deliveries/iweed-6,-118.322701,34.098174,90028,POINT (-118.322701 34.098174)
,Lincoln Heights,KUSHAGRAM,kushagram-19,CA,delivery,https://weedmaps.com/deliveries/kushagram-19,-118.20117,34.057362,90033,POINT (-118.20117 34.057362)
,Hollywood,StarBuds,starbuds-6,CA,delivery,https://weedmaps.com/deliveries/starbuds-6,-118.33859,34.090754,90038,POINT (-118.33859 34.090754)
,West Los Angeles,Laughing Grass Delivery,laughing-grass-delivery-4,CA,delivery,https://weedmaps.com/deliveries/laughing-grass-delivery-4,-118.435969,34.043346,90024,POINT (-118.435969 34.043346)
,Hollywood,Green Ways Delivery,green-ways-delivery-2,CA,delivery,https://weedmaps.com/deliveries/green-ways-delivery-2,-118.300504,34.100374,90027,POINT (-118.300504 34.100374)
,Glendale,KUSHAGRAM,kushagram-glendale-la,CA,delivery,https://weedmaps.com/deliveries/kushagram-glendale-la,-118.273213,34.141661,92103,POINT (-118.273213 34.141661)
,Beverly Hills,Flight Club LA,the-gas-delivery-2,CA,delivery,https://weedmaps.com/deliveries/the-gas-delivery-2,-118.376667,34.076085,90210,POINT (-118.376667 34.076085)
,San Fernando,Oz n Bounce,oz-n-bounce-5,Ca,delivery,https://weedmaps.com/deliveries/oz-n-bounce-5,-118.421281,34.284512,91340,POINT (-118.421281 34.284512)
,Sherman Oaks,Supreme Leaf *OPEN LATE!,supreme-leaf-6,CA,delivery,https://weedmaps.com/deliveries/supreme-leaf-6,-118.39288,34.143633,91604,POINT (-118.39288 34.143633)
,Sun Valley,Nugmen Cannabis Delivery,nugmen-cannabis-delivery-2,CA,delivery,https://weedmaps.com/deliveries/nugmen-cannabis-delivery-2,-118.291046,34.249671,91325,POINT (-118.291046 34.249671)
,Korea Town,KUSHAGRAM KTOWN,kushagram-ktown,CA,delivery,https://weedmaps.com/deliveries/kushagram-ktown,-118.29117,34.053897,90006,POINT (-118.29117 34.053897)
,Los Angeles,Westside Botanicals,westside-botanicals-5,CA,delivery,https://weedmaps.com/deliveries/westside-botanicals-5,-118.422892,33.964101,90045,POINT (-118.422892 33.964101)
,Los Angeles,Cannabees,cannabees-2,CA,delivery,https://weedmaps.com/deliveries/cannabees-2,-118.413757,33.959931,90045,POINT (-118.413757 33.959931)
,Hollywood,Jungle Tree,jungle-tree,,delivery,https://weedmaps.com/deliveries/jungle-tree,-118.36143,34.083733,90046,POINT (-118.36143 34.083733)
,Los Angeles,Magna Med,magna-med-3,California,delivery,https://weedmaps.com/deliveries/magna-med-3,-118.328883,34.094673,90038,POINT (-118.328883 34.094673)
,Studio City,Exhalence,exhalence-3,CA,delivery,https://weedmaps.com/deliveries/exhalence-3,-118.39556,34.148609,91614,POINT (-118.39556 34.148609)
,Los Angeles,The Buddha Company - DTLA,buddha-company-3,,delivery,https://weedmaps.com/deliveries/buddha-company-3,-118.248745,34.053902,90014,POINT (-118.248745 34.053902)
,Los Angeles,Da Green Corner 120oz,20cap-da-green-corner-2,CA,delivery,https://weedmaps.com/deliveries/20cap-da-green-corner-2,-118.284285,34.055031,90005,POINT (-118.284285 34.055031)
,Echo Park,KUSHAGRAM,kushagram-6,CA,delivery,https://weedmaps.com/deliveries/kushagram-6,-118.253063,34.069868,90026,POINT (-118.253063 34.069868)
,West Los Angeles,Oz n Bounce,oz-n-bounce-6,CA,delivery,https://weedmaps.com/deliveries/oz-n-bounce-6,-118.422996,34.061184,90025,POINT (-118.422996 34.061184)
,North Hollywood,Whisper Weed,whisper-weed-6,CA,delivery,https://weedmaps.com/deliveries/whisper-weed-6,-118.365397,34.164984,91601,POINT (-118.365397 34.164984)
,Sunland,iWeed,iweed-7,Ca,delivery,https://weedmaps.com/deliveries/iweed-7,-118.370406,34.212051,91352,POINT (-118.370406 34.212051)
,Los Angeles,KUSHAGRAM,kushagram-10,CA,delivery,https://weedmaps.com/deliveries/kushagram-10,-118.244598,34.048452,90013,POINT (-118.244598 34.048452)
,Sherman Oaks,MCC,mcc-6,,delivery,https://weedmaps.com/deliveries/mcc-6,-118.445837,34.150455,91311,POINT (-118.445837 34.150455)
,Los Angeles,Green Supply,green-supply-3,CA,delivery,https://weedmaps.com/deliveries/green-supply-3,-118.237529,34.064001,90012,POINT (-118.237529 34.064001)
,Van Nuys,GRASSDOOR,grassdoor-16,CA,delivery,https://weedmaps.com/deliveries/grassdoor-16,-118.458992,34.186587,91411,POINT (-118.458992 34.186587)
,Hollywood,Limited Edition 420,limited-edition-420,California,delivery,https://weedmaps.com/deliveries/limited-edition-420,-118.338713,34.101716,90028,POINT (-118.338713 34.101716)
,Woodland Hills,Budway,budway-8,California,delivery,https://weedmaps.com/deliveries/budway-8,-118.605971,34.186934,91367,POINT (-118.605971 34.186934)
,Los Angeles,Cannabees,cannabees-4,CA,delivery,https://weedmaps.com/deliveries/cannabees-4,-118.451731,33.996506,90045,POINT (-118.451731 33.996506)
,Los Angeles,Cloud Nine Delivery,cloud-nine-delivery-los-angeles,California,delivery,https://weedmaps.com/deliveries/cloud-nine-delivery-los-angeles,-118.265921,34.075005,90026,POINT (-118.265921 34.075005)
,South Bay,Green Bay,green-bay-redondo-beach,CA,delivery,https://weedmaps.com/deliveries/green-bay-redondo-beach,-118.305282,33.865498,90248,POINT (-118.305282 33.865498)
,West LA,Budee,budee-e42a5de5-2e28-4f11-a36e-b0067bbcf31e,CA,delivery,https://weedmaps.com/deliveries/budee-e42a5de5-2e28-4f11-a36e-b0067bbcf31e,-118.461224,34.049163,90049,POINT (-118.461224 34.049163)
,Sherman Oaks/ Studio City,ASAP BUDZ,asap-budz-6,CA,delivery,https://weedmaps.com/deliveries/asap-budz-6,-118.424876,34.146982,91604,POINT (-118.424876 34.146982)
,Sylmar,Dro Dash,dro-dash-5,CA,delivery,https://weedmaps.com/deliveries/dro-dash-5,-118.455783,34.296258,91342,POINT (-118.455783 34.296258)
,West Hollywood,Mr Smoke,mr-smoke-7,Ca,delivery,https://weedmaps.com/deliveries/mr-smoke-7,-118.362404,34.085841,90046,POINT (-118.362404 34.085841)
,Los Angeles,KUSHAGRAM,kushagram-campus,CA,delivery,https://weedmaps.com/deliveries/kushagram-campus,-118.363972,34.042993,90007,POINT (-118.363972 34.042993)
,Van Nuys,We The Best Delivery,we-the-best-delivery,CA,delivery,https://weedmaps.com/deliveries/we-the-best-delivery,-118.422572,34.179517,91401,POINT (-118.422572 34.179517)
,We Ho,KUSHAGRAM,kushagram-18,CA,delivery,https://weedmaps.com/deliveries/kushagram-18,-118.370232,34.080234,90036,POINT (-118.370232 34.080234)
,Hollywood,KUSHAGRAM - Hollywood,kushagram-hollywood,CA,delivery,https://weedmaps.com/deliveries/kushagram-hollywood,-118.326736,34.106797,90028,POINT (-118.326736 34.106797)
,Santa Monica,Cannabis Station Delivery,cannabis-station-5,CA,delivery,https://weedmaps.com/deliveries/cannabis-station-5,-118.446175,34.00629,90403,POINT (-118.446175 34.00629)
,Encino,Supreme Leaf,supreme-leaf-00,CA,delivery,https://weedmaps.com/deliveries/supreme-leaf-00,-118.5016,34.1591,91316,POINT (-118.5016 34.1591)
,Los Angeles,Gassed Up,gassed-up-2,CA,delivery,https://weedmaps.com/deliveries/gassed-up-2,-118.209733,34.122243,90042,POINT (-118.209733 34.122243)
,North,Tasty Farms Delivery - North Hollywood,tasty-farms-delivery-north-hollywood,,delivery,https://weedmaps.com/deliveries/tasty-farms-delivery-north-hollywood,-118.387803,34.168709,91601,POINT (-118.387803 34.168709)
,Los Angeles,KUSHAGRAM - USC,kushagram-usc,CA,delivery,https://weedmaps.com/deliveries/kushagram-usc,-118.291624,34.029653,90007,POINT (-118.291624 34.029653)
,Los angeles,Blvckglove,blvckglove,California,delivery,https://weedmaps.com/deliveries/blvckglove,-118.239157,34.063173,90015,POINT (-118.239157 34.063173)
,Mid Town,Weed On Wheels LA,weed-on-wheels-la-2,California,delivery,https://weedmaps.com/deliveries/weed-on-wheels-la-2,-118.309023,34.039972,90006,POINT (-118.309023 34.039972)
,Los Angeles,Five Star Loud,five-star-tree,,delivery,https://weedmaps.com/deliveries/five-star-tree,-118.373167,34.167115,91601,POINT (-118.373167 34.167115)
,Studio City,The Spot Delivery,the-spot-delivery-4,California,delivery,https://weedmaps.com/deliveries/the-spot-delivery-4,-118.363242,34.137178,91604,POINT (-118.363242 34.137178)
,Santa Monica,Deluxe Caregivers,deluxe-caregivers-6,CA,delivery,https://weedmaps.com/deliveries/deluxe-caregivers-6,-118.535984,34.177523,90291,POINT (-118.535984 34.177523)
,Hollywood,Trap House Delivery,trap-house-delivery-5,CA,delivery,https://weedmaps.com/deliveries/trap-house-delivery-5,-118.365431,34.101773,90028,POINT (-118.365431 34.101773)
,Los Angeles,Cannabees,cannabees-5,CA,delivery,https://weedmaps.com/deliveries/cannabees-5,-118.402105,34.024826,90034,POINT (-118.402105 34.024826)
,Los Angeles,Loud Pack Delivery - Northridge,loud-pack-delivery-northridge,CA,delivery,https://weedmaps.com/deliveries/loud-pack-delivery-northridge,-118.536115,34.24094,91324,POINT (-118.536115 34.24094)
,Receda,GRASSDOOR,grassdoor-15,CA,delivery,https://weedmaps.com/deliveries/grassdoor-15,-118.52007,34.230254,91325,POINT (-118.52007 34.230254)
,Downtown Los Angeles,GRASSDOOR,grassdoor-18,CA,delivery,https://weedmaps.com/deliveries/grassdoor-18,-118.258895,34.044869,90015,POINT (-118.258895 34.044869)
,Los Angeles,Starleaf - North Hollywood,starleaf-north-hollywood,CA,delivery,https://weedmaps.com/deliveries/starleaf-north-hollywood,-118.385587,34.183068,91606,POINT (-118.385587 34.183068)
,Van Nuys,Starleaf - Van Nuys,starleaf-van-nuys,CA,delivery,https://weedmaps.com/deliveries/starleaf-van-nuys,-118.453111,34.190705,91405,POINT (-118.453111 34.190705)
,Studio City,Starleaf - Studio City,starleaf-studio-city,California,delivery,https://weedmaps.com/deliveries/starleaf-studio-city,-118.403048,34.15037,91604,POINT (-118.403048 34.15037)
,Sherman Oaks,Starleaf - Sherman Oaks,starleaf-sherman-oaks,CA,delivery,https://weedmaps.com/deliveries/starleaf-sherman-oaks,-118.45093,34.151272,91607,POINT (-118.45093 34.151272)
,Culver City,Weed On Wheels LA,weed-on-wheels-la-3,California,delivery,https://weedmaps.com/deliveries/weed-on-wheels-la-3,-118.41244,34.015652,90230,POINT (-118.41244 34.015652)
,Calabasas,Budee,budee-6,CA,delivery,https://weedmaps.com/deliveries/budee-6,-118.63471,34.156364,91302,POINT (-118.63471 34.156364)
,Los Angeles,Daily Dose Delivery,daily-dose-delivery-5,California,delivery,https://weedmaps.com/deliveries/daily-dose-delivery-5,-118.203601,34.125377,90042,POINT (-118.203601 34.125377)
,LA,Budee,budee-21843582-e8ed-4632-9c53-e8f38be27dff,CA,delivery,https://weedmaps.com/deliveries/budee-21843582-e8ed-4632-9c53-e8f38be27dff,-118.44107,34.064036,90024,POINT (-118.44107 34.064036)
,Hollywood,KUSHAGRAM,kushagram-hollyweed,CA,delivery,https://weedmaps.com/deliveries/kushagram-hollyweed,-118.345565,34.108204,90048,POINT (-118.345565 34.108204)
,Los Angeles,Cannabis Station Delivery,cannabis-station-3,CA,delivery,https://weedmaps.com/deliveries/cannabis-station-3,-118.387708,34.161317,91601,POINT (-118.387708 34.161317)
,Northridge,Cannabis Station Delivery,cannabis-station-4,CA,delivery,https://weedmaps.com/deliveries/cannabis-station-4,-118.553607,34.228227,91324,POINT (-118.553607 34.228227)
,Los Angeles,Buddha Company - Korea Town,buddha-company-6,CA,delivery,https://weedmaps.com/deliveries/buddha-company-6,-118.29162,34.069049,90020,POINT (-118.29162 34.069049)
,Encino,Deluxe Caregivers,deluxe-caregivers-7,CA,delivery,https://weedmaps.com/deliveries/deluxe-caregivers-7,-118.476422,34.143617,91316,POINT (-118.476422 34.143617)
,Los Angeles,Cannabis Station Delivery,cannabis-station-6,CA,delivery,https://weedmaps.com/deliveries/cannabis-station-6,-118.440036,34.157544,91423,POINT (-118.440036 34.157544)
,Northridge,Dro Dash,dro-dash,California,delivery,https://weedmaps.com/deliveries/dro-dash,-118.515292,34.246957,91325,POINT (-118.515292 34.246957)
,Los Angeles,Loud Pack Delivery - Korea Town,loud-pack-delivery-korea-town,CA,delivery,https://weedmaps.com/deliveries/loud-pack-delivery-korea-town,-118.299224,34.065391,90020,POINT (-118.299224 34.065391)
,Northridge,Stone Zone Delivery - Northridge,stone-zone-delivery-1,California,delivery,https://weedmaps.com/deliveries/stone-zone-delivery-1,-118.545358,34.249944,91324,POINT (-118.545358 34.249944)
,Northridge,Dro Dash,dro-dash-2,CA,delivery,https://weedmaps.com/deliveries/dro-dash-2,-118.510101,34.221703,91325,POINT (-118.510101 34.221703)
,North Hollywood,Magna Med,magna-med-5,California,delivery,https://weedmaps.com/deliveries/magna-med-5,-118.381306,34.187009,91606,POINT (-118.381306 34.187009)
,Los Angeles,Good Tree,good-tree-36,California,delivery,https://weedmaps.com/deliveries/good-tree-36,-118.26509,34.102151,90001,POINT (-118.26509 34.102151)
,Sylmar,ASAP BUDZ,asap-budz-7,California,delivery,https://weedmaps.com/deliveries/asap-budz-7,-118.432764,34.222985,91342,POINT (-118.432764 34.222985)
,Mid Town,GRASSDOOR,grassdoor-17,Ca,delivery,https://weedmaps.com/deliveries/grassdoor-17,-118.340869,34.049062,90019,POINT (-118.340869 34.049062)
,Chinatown,Buddha Company,buddha-company-c339f2da-79bf-43be-96d6-bb2d377ab5f6,CA,delivery,https://weedmaps.com/deliveries/buddha-company-c339f2da-79bf-43be-96d6-bb2d377ab5f6,-118.24084,34.063204,90012,POINT (-118.24084 34.063204)
,Glendale,Cannajuana Releaf,cannajuana-releaf-8,CA,delivery,https://weedmaps.com/deliveries/cannajuana-releaf-8,-118.184973,34.122827,90041,POINT (-118.184973 34.122827)
,Sherman Oaks,Kush Lyft,kush-lyft-5,CA,delivery,https://weedmaps.com/deliveries/kush-lyft-5,-118.436604,34.153032,99999,POINT (-118.436604 34.153032)
,Northridge,Budway,budway-3,California,delivery,https://weedmaps.com/deliveries/budway-3,-118.544843,34.235468,91324,POINT (-118.544843 34.235468)
,Los Angeles,Metro Green Meds - DTLA,metro-green-meds-dtla,,delivery,https://weedmaps.com/deliveries/metro-green-meds-dtla,-118.263061,34.032855,90015,POINT (-118.263061 34.032855)
,Hollywood,ganjarunner,ganjarunner-4,CA,delivery,https://weedmaps.com/deliveries/ganjarunner-4,-118.332133,34.105236,90028,POINT (-118.332133 34.105236)
,Los Angeles,Hyperwolf,hyperwolf-4,CA,delivery,https://weedmaps.com/deliveries/hyperwolf-4,-118.429766,33.994331,90066,POINT (-118.429766 33.994331)
,Los Angeles,5 Star Meds Delivery - Hollywood,5-star-meds-delivery-hollywood,,delivery,https://weedmaps.com/deliveries/5-star-meds-delivery-hollywood,-118.328874,34.090797,90038,POINT (-118.328874 34.090797)
,Los Angeles,Green2Go,green2go-11,CA,delivery,https://weedmaps.com/deliveries/green2go-11,-118.296873,34.052643,90006,POINT (-118.296873 34.052643)
,Studio City,Green2Go,green2go-12,CA,delivery,https://weedmaps.com/deliveries/green2go-12,-118.387749,34.145531,91604,POINT (-118.387749 34.145531)
,Toluca Lake,Whisper Weed,whisper-weed-11,CA,delivery,https://weedmaps.com/deliveries/whisper-weed-11,-118.361493,34.150411,91602,POINT (-118.361493 34.150411)
,los angeles,Green Lion Delivery - Mid Town,green-lion-delivery-1,California,delivery,https://weedmaps.com/deliveries/green-lion-delivery-1,-118.341239,34.042253,90019,POINT (-118.341239 34.042253)
,Los Angeles,Budway,budway-5,California,delivery,https://weedmaps.com/deliveries/budway-5,-118.454326,34.257134,91345,POINT (-118.454326 34.257134)
,Holywood,Smartweed Delivery,smartweed,,delivery,https://weedmaps.com/deliveries/smartweed,-118.31365,34.101721,90029,POINT (-118.31365 34.101721)
,Los Angeles,Buddha Company - Hollywood,buddha-company-5,CA,delivery,https://weedmaps.com/deliveries/buddha-company-5,-118.286895,34.090852,90029,POINT (-118.286895 34.090852)
,North Hollywood,Dro Dash,dro-dash-4,CA,delivery,https://weedmaps.com/deliveries/dro-dash-4,-118.389679,34.184708,91606,POINT (-118.389679 34.184708)
,Van Nuys,The Green Dot,the-green-dot-1,California,delivery,https://weedmaps.com/deliveries/the-green-dot-1,-118.466098,34.201788,91405,POINT (-118.466098 34.201788)
,Los Angeles,Kaiju Organics,kaiju-organics,,delivery,https://weedmaps.com/deliveries/kaiju-organics,-118.30792,34.069316,90004,POINT (-118.30792 34.069316)
,Los Angeles,5 Star Meds Delivery - West Hollywood,5-star-meds-delivery-13,,delivery,https://weedmaps.com/deliveries/5-star-meds-delivery-13,-118.357401,34.080212,90046,POINT (-118.357401 34.080212)
,Los Angeles,QualityExpress,qualityexpress,California,delivery,https://weedmaps.com/deliveries/qualityexpress,-118.336,34.076505,90004,POINT (-118.336 34.076505)
,Los Feliz,ganjarunner,ganjarunner-3,CA,delivery,https://weedmaps.com/deliveries/ganjarunner-3,-118.296178,34.098149,90027,POINT (-118.296178 34.098149)
,Los Angeles,Hyperwolf,hyperwolf-5,CA,delivery,https://weedmaps.com/deliveries/hyperwolf-5,-118.488218,34.056551,90064,POINT (-118.488218 34.056551)
,Studio City,SoCal Organics,socal-organics-5,CA,delivery,https://weedmaps.com/deliveries/socal-organics-5,-118.372872,34.147359,91604,POINT (-118.372872 34.147359)
,North Hollywood,Get Weed LA,get-weed-la-18,California,delivery,https://weedmaps.com/deliveries/get-weed-la-18,-118.387394,34.222144,91605,POINT (-118.387394 34.222144)
,Los Angeles,Get Weed LA,get-weed-la-22,California,delivery,https://weedmaps.com/deliveries/get-weed-la-22,-118.470637,34.065529,90049,POINT (-118.470637 34.065529)
,Canoga Park,DC Delivers,dc-delivers,California,delivery,https://weedmaps.com/deliveries/dc-delivers,-118.58847,34.195597,91304,POINT (-118.58847 34.195597)
,Northridge,DC Delivers,dc-delivers-4,California,delivery,https://weedmaps.com/deliveries/dc-delivers-4,-118.515648,34.235855,91325,POINT (-118.515648 34.235855)
,Encino,DC Delivers,dc-delivers-5,California,delivery,https://weedmaps.com/deliveries/dc-delivers-5,-118.505697,34.160306,91316,POINT (-118.505697 34.160306)
,Hollywood,Greenhouse Herbal Center - Delivery,greenhouse-herbal-center-delivery,CA,delivery,https://weedmaps.com/deliveries/greenhouse-herbal-center-delivery,-118.305752,34.1018,90027,POINT (-118.305752 34.1018)
,Los Angeles,Green2Go,green2go-13,CA,delivery,https://weedmaps.com/deliveries/green2go-13,-118.310754,34.10536,90028,POINT (-118.310754 34.10536)
,Los Angeles,STONED,stone-cold-og,California,delivery,https://weedmaps.com/deliveries/stone-cold-og,-118.370277,34.142327,91604,POINT (-118.370277 34.142327)
,Woodland Hills,Down To Earth Organics,down-to-earth-organics-1,California,delivery,https://weedmaps.com/deliveries/down-to-earth-organics-1,-118.60233,34.185188,91367,POINT (-118.60233 34.185188)
,Studio City,Magna Med,magna-med,California,delivery,https://weedmaps.com/deliveries/magna-med,-118.422513,34.15068,91423,POINT (-118.422513 34.15068)
,Los Angeles,MOTA (Medicine Of The Angels),mota-medicine-of-the-angels-3,CA,delivery,https://weedmaps.com/deliveries/mota-medicine-of-the-angels-3,-118.28096,34.028745,90007,POINT (-118.28096 34.028745)
,Los Angeles,Green Earth Delivery,green-earth-delivery,Ca,delivery,https://weedmaps.com/deliveries/green-earth-delivery,-118.211752,34.121806,90042,POINT (-118.211752 34.121806)
,Highland Park,KUSHAGRAM - Highland Park,kushagram-glendale,CA,delivery,https://weedmaps.com/deliveries/kushagram-glendale,-118.1991,34.113202,90042,POINT (-118.1991 34.113202)
,Los Angeles,KUSHAGRAM,kushagram-14,CA,delivery,https://weedmaps.com/deliveries/kushagram-14,-118.297043,34.084757,90029,POINT (-118.297043 34.084757)
,Los Angeles,Budee,budee-46a165ee-7ccf-40df-80f3-deb45b1b76a9,CA,delivery,https://weedmaps.com/deliveries/budee-46a165ee-7ccf-40df-80f3-deb45b1b76a9,-118.433297,34.067414,90024,POINT (-118.433297 34.067414)
,Valley Glen,Dro Dash,dro-dash-3,CA,delivery,https://weedmaps.com/deliveries/dro-dash-3,-118.41381,34.179391,91401,POINT (-118.41381 34.179391)
,Hollywood,Green Love Delivery,green-love-delivery,,delivery,https://weedmaps.com/deliveries/green-love-delivery,-118.320132,34.094402,90028,POINT (-118.320132 34.094402)
,Northridge,Divine Wellness Center,divine-wellness-center-4,California,delivery,https://weedmaps.com/deliveries/divine-wellness-center-4,-118.536118,34.220721,91325,POINT (-118.536118 34.220721)
,Los Angeles,KUSHAGRAM,kushagram-17,CA,delivery,https://weedmaps.com/deliveries/kushagram-17,-118.351467,34.062225,90036,POINT (-118.351467 34.062225)
,Hollywood,Budee,budee-43019ce0-816a-4811-a2a2-cac9937d2a7f,CA,delivery,https://weedmaps.com/deliveries/budee-43019ce0-816a-4811-a2a2-cac9937d2a7f,-118.396479,34.182985,91606,POINT (-118.396479 34.182985)
,San Pedro,Budee,budee-453d2005-d3f2-4567-8376-8001fa98b02f,CA,delivery,https://weedmaps.com/deliveries/budee-453d2005-d3f2-4567-8376-8001fa98b02f,-118.287891,33.740551,90731,POINT (-118.287891 33.740551)
,Marina Del Rey,Budee,budee-1b71fcd4-3530-48f3-a6c1-c6b3ecedd153,CA,delivery,https://weedmaps.com/deliveries/budee-1b71fcd4-3530-48f3-a6c1-c6b3ecedd153,-118.475388,33.991617,90291,POINT (-118.475388 33.991617)
,Los Angeles,Loud Pack Delivery - West Los Angeles,loud-pack-delivery-west-los-angeles,CA,delivery,https://weedmaps.com/deliveries/loud-pack-delivery-west-los-angeles,-118.437228,34.056266,90024,POINT (-118.437228 34.056266)
,Downtown Los Angeles,Nugg HUT,nugg-hut-2,CA,delivery,https://weedmaps.com/deliveries/nugg-hut-2,-118.261539,34.045865,90015,POINT (-118.261539 34.045865)
,Los Angeles,Good Tree,good-tree-35,,delivery,https://weedmaps.com/deliveries/good-tree-35,-118.275554,34.020906,90001,POINT (-118.275554 34.020906)
,Los Angeles,Sky High Originals,sky-high-originals-15,California,delivery,https://weedmaps.com/deliveries/sky-high-originals-15,-118.26555,34.064653,90005,POINT (-118.26555 34.064653)
,los angeles,Sky High Originals,sky-high-originals-12,California,delivery,https://weedmaps.com/deliveries/sky-high-originals-12,-118.226841,34.097255,90042,POINT (-118.226841 34.097255)
,East Los Angeles,Pressure,pressure,California,delivery,https://weedmaps.com/deliveries/pressure,-118.180137,34.065911,90032,POINT (-118.180137 34.065911)
,Venice,Cotton Inc,cotton-inc,CA,delivery,https://weedmaps.com/deliveries/cotton-inc,-118.472477,33.987498,90291,POINT (-118.472477 33.987498)
,Beverly Hills,The Green Earth Delivery,green-earth-delivery-5,California,delivery,https://weedmaps.com/deliveries/green-earth-delivery-5,-118.371443,34.06408,90211,POINT (-118.371443 34.06408)
,Canoga Park,The Green Earth Delivery,green-earth-delivery-6,,delivery,https://weedmaps.com/deliveries/green-earth-delivery-6,-118.605095,34.210061,92706,POINT (-118.605095 34.210061)
,Westwood,Budee,budee-53aab99b-ac36-4065-a40f-09b151490b85,CA,delivery,https://weedmaps.com/deliveries/budee-53aab99b-ac36-4065-a40f-09b151490b85,-118.466573,34.049261,90049,POINT (-118.466573 34.049261)
,La Canada Flintridge,Budee,budee-f1b676e1-6463-46eb-a84f-3ab7b0f3472d,CA,delivery,https://weedmaps.com/deliveries/budee-f1b676e1-6463-46eb-a84f-3ab7b0f3472d,-118.302593,34.25907,91042,POINT (-118.302593 34.25907)
,Los Angeles,Green Buddha,green-buddha-1,,delivery,https://weedmaps.com/deliveries/green-buddha-1,-118.209833,34.043734,90033,POINT (-118.209833 34.043734)
,Downtown Los Angeles,StarBuds,starbuds-7,CA,delivery,https://weedmaps.com/deliveries/starbuds-7,-118.255862,34.050159,90071,POINT (-118.255862 34.050159)
,Hollywood,Ganja Girls,ganja-girls-2,CA,delivery,https://weedmaps.com/deliveries/ganja-girls-2,-118.333141,34.090604,90038,POINT (-118.333141 34.090604)
,Los Angeles,Green City Collective,green-city-collective,California,delivery,https://weedmaps.com/deliveries/green-city-collective,-118.378438,33.948457,90045,POINT (-118.378438 33.948457)
,DTLA,Pure CA,pure-california,Ca,delivery,https://weedmaps.com/deliveries/pure-california,-118.25306,34.03494,90015,POINT (-118.25306 34.03494)
,Hollywood,MOTA (Medicine Of The Angels),mota-medicine-of-the-angels-2,California,delivery,https://weedmaps.com/deliveries/mota-medicine-of-the-angels-2,-118.317965,34.098382,90028,POINT (-118.317965 34.098382)
,Los Angeles,MOTA (Medicine Of The Angels),mota-medicine-of-the-angels,CA,delivery,https://weedmaps.com/deliveries/mota-medicine-of-the-angels,-118.304138,34.057968,90005,POINT (-118.304138 34.057968)
,North Hollywood,5 Star Meds Delivery - North Hollywood,5-star-meds-delivery-12,,delivery,https://weedmaps.com/deliveries/5-star-meds-delivery-12,-118.387791,34.175074,91606,POINT (-118.387791 34.175074)
,Los Angeles,Get Weed LA,get-weed-la-15,California,delivery,https://weedmaps.com/deliveries/get-weed-la-15,-118.287803,34.104152,90027,POINT (-118.287803 34.104152)
,Tujunga,Get Weed LA,get-weed-la-8,California,delivery,https://weedmaps.com/deliveries/get-weed-la-8,-118.299947,34.256324,91042,POINT (-118.299947 34.256324)
,Los Angeles,Get Weed LA,get-weed-la-11,California,delivery,https://weedmaps.com/deliveries/get-weed-la-11,-118.446052,34.10795,90077,POINT (-118.446052 34.10795)
,Van Nuys,Get Weed LA,get-weed-la-20,California,delivery,https://weedmaps.com/deliveries/get-weed-la-20,-118.500767,34.193577,91406,POINT (-118.500767 34.193577)
,Northridge,5 Star Meds Delivery - Northridge,5-star-meds-delivery-15,CA,delivery,https://weedmaps.com/deliveries/5-star-meds-delivery-15,-118.509873,34.21204,91335,POINT (-118.509873 34.21204)
,Van Nuys,5 Star Meds Delivery - Van Nuys,5-star-meds-delivery-14,,delivery,https://weedmaps.com/deliveries/5-star-meds-delivery-14,-118.457489,34.201259,91405,POINT (-118.457489 34.201259)
,Silver Lake,SoCal Organics,socal-organics,CA,delivery,https://weedmaps.com/deliveries/socal-organics,-118.274644,34.094278,90026,POINT (-118.274644 34.094278)
,Los Angeles,ganjarunner,ganjarunner-28,CA,delivery,https://weedmaps.com/deliveries/ganjarunner-28,-118.247596,34.046054,90013,POINT (-118.247596 34.046054)
,Los Angeles,Get Weed LA,get-weed-la-10,California,delivery,https://weedmaps.com/deliveries/get-weed-la-10,-118.373525,34.116112,90046,POINT (-118.373525 34.116112)
,Sylmar,Get Weed LA,get-weed-la-12,California,delivery,https://weedmaps.com/deliveries/get-weed-la-12,-118.443717,34.295207,91342,POINT (-118.443717 34.295207)
,Van Nuys,Get Weed LA,get-weed-la-13,California,delivery,https://weedmaps.com/deliveries/get-weed-la-13,-118.44837,34.193833,91405,POINT (-118.44837 34.193833)
,Hollywood,The Golden Drop,the-golden-drop-8,California,delivery,https://weedmaps.com/deliveries/the-golden-drop-8,-118.330519,34.092557,90038,POINT (-118.330519 34.092557)
,Mission Hills,Get Weed LA,get-weed-lac,California,delivery,https://weedmaps.com/deliveries/get-weed-lac,-118.458515,34.263751,91345,POINT (-118.458515 34.263751)
,Los Angeles,HOLLYWEED DELIVERY,hollyweed-delivery,California,delivery,https://weedmaps.com/deliveries/hollyweed-delivery,-118.351667,34.048049,90019,POINT (-118.351667 34.048049)
,Woodland Hills,THE HEALING TOUCH Delivery,the-healing-touch-delivery-2,CA,delivery,https://weedmaps.com/deliveries/the-healing-touch-delivery-2,-118.623314,34.164192,91364,POINT (-118.623314 34.164192)
,Los Angeles,420 CaliWeed,420-caliweed-3,CA,delivery,https://weedmaps.com/deliveries/420-caliweed-3,-118.412215,33.97774,90094,POINT (-118.412215 33.97774)
,Canoga Park,Divine Wellness Center,divine-wellness-center,California,delivery,https://weedmaps.com/deliveries/divine-wellness-center,-118.590506,34.179247,91303,POINT (-118.590506 34.179247)
,Los Angeles,Cannary West,cannary-west-2,CA,delivery,https://weedmaps.com/deliveries/cannary-west-2,-118.401044,34.020634,90034,POINT (-118.401044 34.020634)
,Woodland Hills,Loud Pack Delivery - Woodland Hills,loud-pack-delivery-3,California,delivery,https://weedmaps.com/deliveries/loud-pack-delivery-3,-118.607242,34.180106,91367,POINT (-118.607242 34.180106)
,Woodland Hills,Budee,budee-9,CA,delivery,https://weedmaps.com/deliveries/budee-9,-118.584856,34.166748,91364,POINT (-118.584856 34.166748)
,West Hollywood,Budee,budee-74f30390-2b84-457d-bebc-a300a2912dd3,CA,delivery,https://weedmaps.com/deliveries/budee-74f30390-2b84-457d-bebc-a300a2912dd3,-118.356383,34.083696,90036,POINT (-118.356383 34.083696)
,Lake View Terrace,Budee,budee-bc5a8e7a-4134-409f-a3e5-4c136ae585c5,CA,delivery,https://weedmaps.com/deliveries/budee-bc5a8e7a-4134-409f-a3e5-4c136ae585c5,-118.415059,34.259412,91331,POINT (-118.415059 34.259412)
,Northridge,Get Weed LA,get-weed-la-21,California,delivery,https://weedmaps.com/deliveries/get-weed-la-21,-118.502106,34.253772,91325,POINT (-118.502106 34.253772)
,Los Angeles,Cloud Nine Delivery,cloud-nine-delivery-van-nuys,(Select a state),delivery,https://weedmaps.com/deliveries/cloud-nine-delivery-van-nuys,-118.440458,34.168975,91401,POINT (-118.440458 34.168975)
,Los Angeles,Cannary West,cannary-west,California,delivery,https://weedmaps.com/deliveries/cannary-west,-118.445315,34.063669,90064,POINT (-118.445315 34.063669)
,Woodland Hills,5 Star Meds Delivery - Woodland Hills,5-star-meds-delivery-17,CA,delivery,https://weedmaps.com/deliveries/5-star-meds-delivery-17,-118.588486,34.188363,91303,POINT (-118.588486 34.188363)
,Los Angeles,Good Tree,good-tree-34,,delivery,https://weedmaps.com/deliveries/good-tree-34,-118.42442,34.032483,90064,POINT (-118.42442 34.032483)
,Wilmington,SB Delivery,sb-delivery-south-bay,CA,delivery,https://weedmaps.com/deliveries/sb-delivery-south-bay,-118.263788,33.791212,90744,POINT (-118.263788 33.791212)
,Los Angeles,Budee,budee-40715372-284c-4986-bcdd-d399a53495f2,CA,delivery,https://weedmaps.com/deliveries/budee-40715372-284c-4986-bcdd-d399a53495f2,-118.274906,34.059552,90057,POINT (-118.274906 34.059552)
,LA,Budee,budee-a2576aa8-9412-4801-86af-cc442e4e3773,CA,delivery,https://weedmaps.com/deliveries/budee-a2576aa8-9412-4801-86af-cc442e4e3773,-118.467333,34.045804,90049,POINT (-118.467333 34.045804)
,Vernon,Budee,budee-6bc39509-94b9-49ff-8a6e-a5501842a6f5,CA,delivery,https://weedmaps.com/deliveries/budee-6bc39509-94b9-49ff-8a6e-a5501842a6f5,-118.239191,34.00395,90058,POINT (-118.239191 34.00395)
,LA,Budee,budee-a7c6289f-08fd-45d3-97d5-ea78d0c1c2d6,CA,delivery,https://weedmaps.com/deliveries/budee-a7c6289f-08fd-45d3-97d5-ea78d0c1c2d6,-118.367466,34.097789,90046,POINT (-118.367466 34.097789)
,Toluca Lake,Budee,budee-54cef02c-622d-4a8f-afd2-27ad01a2b07e,CA,delivery,https://weedmaps.com/deliveries/budee-54cef02c-622d-4a8f-afd2-27ad01a2b07e,-118.370439,34.150383,91602,POINT (-118.370439 34.150383)
6411 Sepulveda Blvd Unit 2B,Van Nuys,VICTORY CLINIC,victory-medical-clinic,CA,doctor,https://weedmaps.com/doctors/victory-medical-clinic,-118.466683,34.187446,91411,POINT (-118.466683 34.187446)
5500 S Western Ave Suite #2,Los Angeles,Health and Wellness Medical Clinic S. Paul Daniels M.D. (Also online),health-and-wellness-medical-clinic-2,CA,doctor,https://weedmaps.com/doctors/health-and-wellness-medical-clinic-2,-118.3086331,33.9921964,90062,POINT (-118.3086331 33.9921964)
11335 Magnolia Blvd. Suite 2D,North Hollywood,Organic Medirex Consultations,organic-medirex-consultations,CA,doctor,https://weedmaps.com/doctors/organic-medirex-consultations,-118.3782932,34.1649223,91601,POINT (-118.3782932 34.1649223)
12045 Riverside Dr,Los Angeles,Growing Medical Marijuana Card Doctor / Cultivation License,ldls-evaluations,CA,doctor,https://weedmaps.com/doctors/ldls-evaluations,-118.3955729,34.1576121,91607,POINT (-118.3955729 34.1576121)
Please visit our website: dr-weedy.com,San Fernando,Dr. Weedy Clinic Online,dr-weedy-3,CA,doctor,https://weedmaps.com/doctors/dr-weedy-3,-118.484815,34.264666,91344,POINT (-118.484815 34.264666)
4842 Lankershim Blvd.,North Hollywood,Wellness Solutions,wellness-solutions,CA,doctor,https://weedmaps.com/doctors/wellness-solutions,-118.370927,34.158726,91601,POINT (-118.370927 34.158726)
5985 Topanga Canyon Blvd.,Woodland Hills,Total Herbal Consultation (Topanga Canyon),total-herbal-consultation-topanga-canyon,CA,doctor,https://weedmaps.com/doctors/total-herbal-consultation-topanga-canyon,-118.6052312,34.1785878,91367,POINT (-118.6052312 34.1785878)
420recs.com,Downtown La,420Recs.com- Downtown La (100% Online),420recs-com-downtown-la,ca,doctor,https://weedmaps.com/doctors/420recs-com-downtown-la,-118.2431292,34.0458307,90071,POINT (-118.2431292 34.0458307)
Los Angeles,Los Angeles,Weed Recs(100% Online),weedrecs-com-8,CA,doctor,https://weedmaps.com/doctors/weedrecs-com-8,-118.238135,34.043289,90013,POINT (-118.238135 34.043289)
420recs.com,Los Angeles,420Recs.com- South La (100% Online),420recs-com-south-la,ca,doctor,https://weedmaps.com/doctors/420recs-com-south-la,-118.273978,33.989486,90037,POINT (-118.273978 33.989486)
420recs.com,Northridge,420Recs.com- Northridge (100% Online),420recs-com-northridge,ca,doctor,https://weedmaps.com/doctors/420recs-com-northridge,-118.5506158,34.2413938,91324,POINT (-118.5506158 34.2413938)
420recs.com,West Los Angeles,420Recs.com- Western Ave (100% Online),420recs-com-western-ave,ca,doctor,https://weedmaps.com/doctors/420recs-com-western-ave,-118.444166,34.059797,90025,POINT (-118.444166 34.059797)
Please visit 420recs.com,Los Angeles,420Recs.com,420recs-com-421,CA,doctor,https://weedmaps.com/doctors/420recs-com-421,-118.248905,34.01206,90011,POINT (-118.248905 34.01206)
601 S Figureoa,Los Angeles,MMJ Doctor Online,mmj-doctor-online-4,CA,doctor,https://weedmaps.com/doctors/mmj-doctor-online-4,-118.2588761,34.0504874,90017,POINT (-118.2588761 34.0504874)
501 S Spring St,Los Angeles,SpotRec.com,mmj-herb-1,California,doctor,https://weedmaps.com/doctors/mmj-herb-1,-118.250103,34.047135,90013,POINT (-118.250103 34.047135)
Please Visit Our Website,Los Angeles,Dr. Weedy Clinic Online,dr-weedy-clinic-online-6,CA,doctor,https://weedmaps.com/doctors/dr-weedy-clinic-online-6,-118.256509,34.005764,90011,POINT (-118.256509 34.005764)
420recs.com,Van Nuys,420Recs.com- Van Nuys (100% Online),420recs-com-van-nuys,ca,doctor,https://weedmaps.com/doctors/420recs-com-van-nuys,-118.447932,34.171374,91401,POINT (-118.447932 34.171374)
Please Visit our Website:,Culver City,Dr. Weedy Clinic Online,dr-weedy-b5733414-00fb-4508-824e-5158624c9afa,California,doctor,https://weedmaps.com/doctors/dr-weedy-b5733414-00fb-4508-824e-5158624c9afa,-118.418367,34.012093,90230,POINT (-118.418367 34.012093)
150 Venice Blvd,Los Angeles,SpotRec.com,spotrec-com-14,California,doctor,https://weedmaps.com/doctors/spotrec-com-14,-118.26415,34.03435,90015,POINT (-118.26415 34.03435)
4821 Bakman Avenue,Valley Village,SpotRec.com,spotrec-com-13,California,doctor,https://weedmaps.com/doctors/spotrec-com-13,-118.377943,34.158278,91601,POINT (-118.377943 34.158278)
910 W. Pacific Coast Hwy. Unit D,Wilmington,POT DOCTORS,pch-doctors,CA,doctor,https://weedmaps.com/doctors/pch-doctors,-118.274294,33.7903873,90744,POINT (-118.274294 33.7903873)
11320 W. Pico Blvd.,Los Angeles,UniMed - Universal Medical of California Family Practice,unimed-universal-medical-of-california-family-practice,CA,doctor,https://weedmaps.com/doctors/unimed-universal-medical-of-california-family-practice,-118.4392145,34.0347883,90064,POINT (-118.4392145 34.0347883)
4343 Crenshaw Blvd. Suite 306,Los Angeles,420CrenshawMD,420crenshawmd,CA,doctor,https://weedmaps.com/doctors/420crenshawmd,-118.333172,34.004226,90008,POINT (-118.333172 34.004226)
425 S. Fairfax Ave. #302,Los Angeles,Dr. Anna Gravich,dr-anna-gravich,CA,doctor,https://weedmaps.com/doctors/dr-anna-gravich,-118.361531,34.069689,90036,POINT (-118.361531 34.069689)
5530 Corbin Ave. Suite 260,Tarzana,Blue Mountain Medical Dr. Stuart Kramer,blue-mountain-medical-dr-stuart-kramer,CA,doctor,https://weedmaps.com/doctors/blue-mountain-medical-dr-stuart-kramer,-118.562214,34.171779,91356,POINT (-118.562214 34.171779)
18531 Roscoe Blvd Ste #214,Northridge,MediCann - Northridge,medicann-northridge,CA,doctor,https://weedmaps.com/doctors/medicann-northridge,-118.537204,34.2211582,91324,POINT (-118.537204 34.2211582)
1010 S Robinson Suite A,Los Angeles,Quantum Medical Office,quantum-medical-office,Ca,doctor,https://weedmaps.com/doctors/quantum-medical-office,-118.3833,34.058925,90035,POINT (-118.3833 34.058925)
6051 W. San Vicente Blvd.,Los Angeles,Dr. Stafford,dr-stafford,CA,doctor,https://weedmaps.com/doctors/dr-stafford,-118.3630156,34.0583684,90036,POINT (-118.3630156 34.0583684)
1201 Ocean Front Walk,Venice,The Green Doctors (1201 Ocean Front),the-green-doctors-1201,CA,doctor,https://weedmaps.com/doctors/the-green-doctors-1201,-118.4752664,33.9889117,90291,POINT (-118.4752664 33.9889117)
