name,address,city,slug,state,type,url,x,y,zipcode,geometry,registered,registered_name,registered_address
110 Cooperative 30 Cap,520 W 182nd St,Gardena,110-co-op,CA,dispensary,https://weedmaps.com/dispensaries/110-co-op,-118.282474,33.870022,90248,POINT (-118.282474 33.870022),,,
110 Medical - 20 Cap,7111 South Broadway,Los Angeles,broadway-medical-center-2-2,CA,dispensary,https://weedmaps.com/dispensaries/broadway-medical-center-2-2,-118.278577,33.975231,90003,POINT (-118.278577 33.975231),,,
24/7 Recording,3783 East Olympic Blvd,Los Angeles,24-7-recording,California,dispensary,https://weedmaps.com/dispensaries/24-7-recording,-118.193928,34.01904,90023,POINT (-118.193928 34.01904),,,
25 Cap HNH Holistic Natural Healing,735 Broad Ave,Wilmington,holistic-natural-healing,CA,dispensary,https://weedmaps.com/dispensaries/holistic-natural-healing,-118.261479,33.779593,90744,POINT (-118.261479 33.779593),,,
25 King,1851 W FLORENCE AVE,LOS ANGELES,fw-king,CA,dispensary,https://weedmaps.com/dispensaries/fw-king,-118.310801,33.974778,90047,POINT (-118.310801 33.974778),,,
25 Woodley,6853 Woodley Avenue,Van Nuys,woodley-care-center,CA,dispensary,https://weedmaps.com/dispensaries/woodley-care-center,-118.484254,34.195415,91406,POINT (-118.484254 34.195415),,,
25CAP - Van Nuys Solutions,7301 Sepulveda Blvd,Van Nuys,organica,Ca,dispensary,https://weedmaps.com/dispensaries/organica,-118.466631,34.203437,91405,POINT (-118.466631 34.203437),TRUE,ORGANICA INC,7301 SEPULVEDA 91405-1782
420 Frat House 30 CAP,202 E Martin Luther King Jr Blvd.,Los Angeles,central-la-collective,CA,dispensary,https://weedmaps.com/dispensaries/central-la-collective,-118.271425,34.010753,90011,POINT (-118.271425 34.010753),,,
420 Mart,8405 San Pedro St,Los Angeles,420-mart,CA,dispensary,https://weedmaps.com/dispensaries/420-mart,-118.269641,33.962534,90003,POINT (-118.269641 33.962534),,,
4sure20 - GRAND OPENING!,7401 Foothill Blvd,Tujunga,4sure20,CA,dispensary,https://weedmaps.com/dispensaries/4sure20,-118.293335,34.251685,91042,POINT (-118.293335 34.251685),,,
5 Leaves,1037 E Pacific Coast Hwy,Wilmington,5-leaves,CA,dispensary,https://weedmaps.com/dispensaries/5-leaves,-118.249628,33.791101,90744,POINT (-118.249628 33.791101),,,
525 Collective,7809 South Western Ave.,Los Angeles,clear-choice-collective-2-2,CA,dispensary,https://weedmaps.com/dispensaries/clear-choice-collective-2-2,-118.309266,33.968736,90047,POINT (-118.309266 33.968736),,,
ADCC,2222 East Olympic Blvd.,Los Angeles,arts-district-cannabis-center,CA,dispensary,https://weedmaps.com/dispensaries/arts-district-cannabis-center,-118.232836,34.025585,90021,POINT (-118.232836 34.025585),TRUE,CALIFORNIA ORGANIC TREATMENT CENTER INC,2222 OLYMPIC 90021-2506
After Hours 20 Cap Collective,1226 San Pedro Street,Los Angeles,cpt-flight-club,CA,dispensary,https://weedmaps.com/dispensaries/cpt-flight-club,-118.253656,34.032966,90015,POINT (-118.253656 34.032966),,,
Alhambra Collective 25 Cap,5417 Huntington Dr N,Los Angeles,alhambra-collective-25-cap,CA,dispensary,https://weedmaps.com/dispensaries/alhambra-collective-25-cap,-118.162434,34.092724,90032,POINT (-118.162434 34.092724),,,
Alhambra Green Stop 25 CAP,5555 Alhambra Ave,Alhambra,alhambra-green-stop,CA,dispensary,https://weedmaps.com/dispensaries/alhambra-green-stop,-118.16354,34.079177,90032,POINT (-118.16354 34.079177),,,
Angels Kush - Korea Town,2500 W. 8th Street,Los Angeles,angels-kush,,dispensary,https://weedmaps.com/dispensaries/angels-kush,-118.282585,34.056529,90057,POINT (-118.282585 34.056529),,,
Apothecary,15374 Dickens St.,Sherman Oaks,apothecary-sherman-oaks,CA,dispensary,https://weedmaps.com/dispensaries/apothecary-sherman-oaks,-118.468735,34.153227,91403,POINT (-118.468735 34.153227),TRUE,NEW APOTHECARY INC,15374 DICKENS 91403-3007
ATRIUM,5441 Topanga Canyon Blvd,Woodland Hills,atrium,,dispensary,https://weedmaps.com/dispensaries/atrium,-118.606036,34.169815,91367,POINT (-118.606036 34.169815),TRUE,VALLEY COLLECTIVE CARE INC,5441 TOPANGA CANYON 91367-6314
Avalon Daily Deals - REAL 25 CAP,9408 S Avalon Blvd,Los Angeles,avalon-daily-deals,California,dispensary,https://weedmaps.com/dispensaries/avalon-daily-deals,-118.265,33.950767,90003,POINT (-118.265 33.950767),,,
BARC - BEVERLY ALTERNATIVE RELIEF,432 S. San Vicente Blvd. Suite #100,Los Angeles,barccollective,CA,dispensary,https://weedmaps.com/dispensaries/barccollective,-118.375675,34.070764,90048,POINT (-118.375675 34.070764),TRUE,RELIEF CCR,432 SAN VICENTE 90048-4185
BEACH Center - South Bay,1115 West 190th St.,Gardena,beach-center,CA,dispensary,https://weedmaps.com/dispensaries/beach-center,-118.295374,33.858537,90248,POINT (-118.295374 33.858537),TRUE,BEACH ENLIGHTENMENT AND COMPASSIONATE HEALING CORPORATION,1115 190TH 90248-4303
Beach Club 310,310 Culver,Playa Del Rey,beach-club,California,dispensary,https://weedmaps.com/dispensaries/beach-club,-118.447241,33.95964,90293,POINT (-118.447241 33.95964),,,
Beverly Club,4276 Beverly Blvd,Los Angeles,beverly-club,CA,dispensary,https://weedmaps.com/dispensaries/beverly-club,-118.302251,34.076133,90004,POINT (-118.302251 34.076133),,,
Bloom Valley 25 Cap,21729 devonshire st.,Chatsworth,bloom-valley,CA,dispensary,https://weedmaps.com/dispensaries/bloom-valley,-118.602615,34.257534,91311,POINT (-118.602615 34.257534),,,
BMAC,2418 N Broadway,Los Angeles,bmac,CA,dispensary,https://weedmaps.com/dispensaries/bmac,-118.216231,34.0733,90031,POINT (-118.216231 34.0733),,,
Bodhi Sattva,440.5 N. La Cienega Blvd,West Hollywood,buddhabar,CA,dispensary,https://weedmaps.com/dispensaries/buddhabar,-118.3763794,34.0793075,90048,POINT (-118.3763794 34.0793075),,,
BONAFIDE COLLECTIVE - Pre ICO,7570 San Fernando Rd.,Burbank,bonafide-group-collective,CA,dispensary,https://weedmaps.com/dispensaries/bonafide-group-collective,-118.35357,34.2094049,91504,POINT (-118.35357 34.2094049),,,
Breaking Bud 20 Cap,750 east Jefferson Blvd.,Los Angeles,breaking-bud-20-cap,CA,dispensary,https://weedmaps.com/dispensaries/breaking-bud-20-cap,-118.263924,34.01453,90011,POINT (-118.263924 34.01453),,,
Broadway LA Pharmacy - 30 CAP,9304 S. Broadway,Los Angeles,santa-ana-outrageousness,CA,dispensary,https://weedmaps.com/dispensaries/santa-ana-outrageousness,-118.277845,33.951708,90003,POINT (-118.277845 33.951708),,,
Bud King - PRE-ICO/Prop. D,18438 Saticoy Street,Reseda,bud-king,CA,dispensary,https://weedmaps.com/dispensaries/bud-king,-118.535189,34.20824,91335,POINT (-118.535189 34.20824),TRUE,GREEN PLANT THERAPY INC,18438 SATICOY 91335-2910
Buddha Company,837 South Los Angeles Street,Los Angeles,mosaic,California,dispensary,https://weedmaps.com/dispensaries/mosaic,-118.25342,34.04136,90014,POINT (-118.25342 34.04136),TRUE,PROGRESSIVE HORIZON INC,837 LOS ANGELES 90014-3301
Buddha Company,2038 Sacramento Street,Los Angeles,buddha-company-2,CA,dispensary,https://weedmaps.com/dispensaries/buddha-company-2,-118.230673,34.030303,90021,POINT (-118.230673 34.030303),TRUE,CARE CALIFORNIA CONSULTATION INC,2038 SACRAMENTO 90021-1720
Buds R Us 20 Cap,8927 South Western Ave,Los Angeles,buds-r-us-20-cap,CA,dispensary,https://weedmaps.com/dispensaries/buds-r-us-20-cap,-118.309197,33.955582,90047,POINT (-118.309197 33.955582),,,
Burdank Blvd,10626 Burbank Blvd,North Hollywood,burdank-blvd,CA,dispensary,https://weedmaps.com/dispensaries/burdank-blvd,-118.362507,34.171899,91601,POINT (-118.362507 34.171899),,,
CAC Venice,122 Lincoln Blvd Suite 204,Los Angeles,cac-venice-3,CA,dispensary,https://weedmaps.com/dispensaries/cac-venice-3,-118.469196,34.002255,90291,POINT (-118.469196 34.002255),TRUE,CAC VENICE LLC,122 LINCOLN 90291-2859
Cali Culture,1862 E 1st,Los Angeles,cali-culture,CA,dispensary,https://weedmaps.com/dispensaries/cali-culture,-118.217847,34.046554,90033,POINT (-118.217847 34.046554),,,
California Cannabis Crenshaw,7415 Crenshaw,Los Angeles,california-cannabis-crenshaw,CA,dispensary,https://weedmaps.com/dispensaries/california-cannabis-crenshaw,-118.331099,33.972214,90043,POINT (-118.331099 33.972214),TRUE,THE HOLISTIC CAREGIVERS INC,7415 CRENSHAW 90043-4931
California Cannabis Melrose,654 N Manhattan Pl,Los Angeles,california-cannabis-melrose,CA,dispensary,https://weedmaps.com/dispensaries/california-cannabis-melrose,-118.309961,34.0832,90004,POINT (-118.309961 34.0832),TRUE,WESTERN CAREGIVERS,654 MANHATTAN 90004-1711
California Cannabis Soto,1601 S Soto St.,Los Angeles,california-cannabis-soto,,dispensary,https://weedmaps.com/dispensaries/california-cannabis-soto,-118.22059,34.020821,90023,POINT (-118.22059 34.020821),TRUE,MED X NOW,1601 SOTO 90023-2621
California State,16850 Sherman Way,Lake Balboa,hemp-collective,CA,dispensary,https://weedmaps.com/dispensaries/hemp-collective,-118.500653,34.200744,91406,POINT (-118.500653 34.200744),,,
Ca√±a Farms,7011 Canoga Ave,Canoga Park,west-valley-caregivers,,dispensary,https://weedmaps.com/dispensaries/west-valley-caregivers,-118.597964,34.197807,91303,POINT (-118.597964 34.197807),TRUE,HUNTINGTON PATIENTS ASSOCIATION,7011 CANOGA 91303-2034
Cannabal City Collective - Los Angeles,547 Seaton Street,Los Angeles,cannabal-city,CA,dispensary,https://weedmaps.com/dispensaries/cannabal-city,-118.237489,34.04015,90013,POINT (-118.237489 34.04015),,,
Cannabis Local,12800 Wentworth St,Arleta,cannabislocal,CA,dispensary,https://weedmaps.com/dispensaries/cannabislocal,-118.411643,34.236191,91331,POINT (-118.411643 34.236191),TRUE,ROBERTSON CAREGIVERS BEVERLYWOOD,12800 WENTWORTH 91331-4331
Cannary West,2435 Military Ave.,Los Angeles,cannary-west,CA,dispensary,https://weedmaps.com/dispensaries/cannary-west,-118.432724,34.03732,90064,POINT (-118.432724 34.03732),TRUE,SOUTHERN CALIFORNIA COLLECTIVE,2435 MILITARY 90064-1920
Cannasseurs Club,10125 Sepulveda Boulevard,Mission Hills,cannasseurs-club,CA,dispensary,https://weedmaps.com/dispensaries/cannasseurs-club,-118.467826,34.254479,91345,POINT (-118.467826 34.254479),TRUE,HARBOR CAREGIVERS INC,10125 SEPULVEDA 91345-2613
CannaSutra Pre-ICO,11101 Ventura Blvd,Studio City,cannasutra-420,California,dispensary,https://weedmaps.com/dispensaries/cannasutra-420,-118.3719835,34.1413928,91604,POINT (-118.3719835 34.1413928),TRUE,DEC MEDICAL INC,11101 VENTURA 91604-3134
Canto Diem,10612 Chiquita St.,North Hollywood,canto-diem-2,California,dispensary,https://weedmaps.com/dispensaries/canto-diem-2,-118.3624613,34.1439691,91602,POINT (-118.3624613 34.1439691),TRUE,CANTODIEM DISPENSING COLLECTIVE INC,10612 CHIQUITA 91602-3215
CC Central Caregivers Inc.,9223 South Central Ave,Los Angeles,ccc-central-cannasseurs-collective,CA,dispensary,https://weedmaps.com/dispensaries/ccc-central-cannasseurs-collective,-118.255944,33.952078,90002,POINT (-118.255944 33.952078),,,
CCA California Caregivers Alliance,2815 W Sunset Blvd #201,Los Angeles,california-caregivers-alliance,CA,dispensary,https://weedmaps.com/dispensaries/california-caregivers-alliance,-118.272079,34.0822348,90026,POINT (-118.272079 34.0822348),TRUE,BARR CORPORATION,2815 SUNSET 90026-2169
CFC - SUGARBUDZ,9830 north San Fernando rd,Pacoima,healthy-life-pharmacy-hlp,CA,dispensary,https://weedmaps.com/dispensaries/healthy-life-pharmacy-hlp,-118.403018,34.249553,91331,POINT (-118.403018 34.249553),TRUE,WONDERLAND OASIS INC,9830 SAN FERNANDO 91331-2636
CHC Canna Health Caregivers,5658 W. Pico Blvd,"Los Angeles, Midtown",cannahealthcaregivers,CA,dispensary,https://weedmaps.com/dispensaries/cannahealthcaregivers,-118.362149,34.050333,90019,POINT (-118.362149 34.050333),,,
Church of Higher Healing,907 West Anaheim Street,Wilmington,churcch-of-higher-healing,CA,dispensary,https://weedmaps.com/dispensaries/churcch-of-higher-healing,-118.273242,33.779535,90744,POINT (-118.273242 33.779535),,,
Circle Of Hope,16901 Roscoe Blvd,Northridge,circle-of-hope,Ca,dispensary,https://weedmaps.com/dispensaries/circle-of-hope,-118.501258,34.221652,91343,POINT (-118.501258 34.221652),TRUE,CIRCLE OF HOPE ALLIANCE,16901 ROSCOE 91343-6112
City Compassionate Caregivers CCC,2235 E 7th Street,Los Angeles,citycompassionatecaregivers,CA,dispensary,https://weedmaps.com/dispensaries/citycompassionatecaregivers,-118.22343,34.034855,90023,POINT (-118.22343 34.034855),TRUE,CITY COMPASSIONATE CAREGIVERS,2235 7TH 90023-1019
Cloneville (CCSC),11422 Moorpark St,Studio City,cloneville-ccsc,CA,dispensary,https://weedmaps.com/dispensaries/cloneville-ccsc,-118.379918,34.15008,91604,POINT (-118.379918 34.15008),TRUE,COMPASSSIONATE CAREGIVER OF STUDIO CITY,11422 MOORPARK 91602-2010
Cloud 8th DTLA,2111 Long Beach Ave,Los Angeles,canna-health-caregiver,CA,dispensary,https://weedmaps.com/dispensaries/canna-health-caregiver,-118.243825,34.017649,90058,POINT (-118.243825 34.017649),TRUE,CANNA HEALTHCARE INC,2111 LONG BEACH 90058-1023
Club 101,21146 Ventura Blvd Unit 5,Woodland Hills,ventura-collective,CA,dispensary,https://weedmaps.com/dispensaries/ventura-collective,-118.59433,34.167019,91364,POINT (-118.59433 34.167019),,,
COAST TO COAST COLLECTIVE,7127 Canoga Avenue,Canoga Park,coast-to-coast-collective,CA,dispensary,https://weedmaps.com/dispensaries/coast-to-coast-collective,-118.5981,34.199973,91303,POINT (-118.5981 34.199973),TRUE,CALIFORNIA'S FINEST COAST TO COAST INC,7127 CANOGA 91303-2035
Compassion Union,11669 Vanowen St,North Hollywood,compassion-union-2-6,CA,dispensary,https://weedmaps.com/dispensaries/compassion-union-2-6,-118.386923,34.193945,91605,POINT (-118.386923 34.193945),TRUE,COMPASSION UNION INC,11669 VANOWEN 91605-6131
Cookies Melrose,8360 Melrose Ave,Los Angeles,cookies-melrose-hollywood,CA,dispensary,https://weedmaps.com/dispensaries/cookies-melrose-hollywood,-118.372365,34.083554,90069,POINT (-118.372365 34.083554),TRUE,PURPLE HEART COMPASSION INC,8360 MELROSE 90069-6501
Cornerstone Research Collective,2551 Colorado Blvd,Los Angeles,cornerstone-research-collective,CA,dispensary,https://weedmaps.com/dispensaries/cornerstone-research-collective,-118.22198,34.142091,90041,POINT (-118.22198 34.142091),TRUE,CORNERSTONE RESEARCH COLLECTIVE,2551 COLORADO 90041-1040
CPR,18526 Parthenia Street,Northridge,compassionate-patient-resources,CA,dispensary,https://weedmaps.com/dispensaries/compassionate-patient-resources,-118.53711,34.228094,91324,POINT (-118.53711 34.228094),TRUE,"COMPASSIONATE PATIENT RESOURCES, INC.",18526 PARTHENIA 91324-4025
Crenshaw Caregivers,3520 West Slauson Avenue,Los Angeles,crenshaw-caregivers-2,CA,dispensary,https://weedmaps.com/dispensaries/crenshaw-caregivers-2,-118.333845,33.988792,90043,POINT (-118.333845 33.988792),,,
Crenshaw Church of Herbs,5879 Crenshaw Blvd,Los Angeles,crenshaw-church-of-herbs,CA,dispensary,https://weedmaps.com/dispensaries/crenshaw-church-of-herbs,-118.331197,33.98737,90043,POINT (-118.331197 33.98737),,,
Crenshaw Daily Deals - REAL 25 CAP,4306 Crenshaw Blvd Suite 107,Los Angeles,tlpc-collective-grand-opening,CA,dispensary,https://weedmaps.com/dispensaries/tlpc-collective-grand-opening,-118.333294,34.005215,90008,POINT (-118.333294 34.005215),,,
Daddy's Dispensary,7040 Hayvenhurst Ave,Van Nuys,daddy-s-dispensary,CA,dispensary,https://weedmaps.com/dispensaries/daddy-s-dispensary,-118.491917,34.198594,91406,POINT (-118.491917 34.198594),TRUE,DADDY'S PIPES INC,7040 HAYVENHURST 91406-3801
Dank of California,5530 Corbin Avenue,Tarzana,dank-of-california,CA,dispensary,https://weedmaps.com/dispensaries/dank-of-california,-118.561866,34.171792,91356,POINT (-118.561866 34.171792),,,
Dankilicious 15 Cap,5021 San Vicente Blvd. Unit A,Los Angeles,dabilicious-15-cap,California,dispensary,https://weedmaps.com/dispensaries/dabilicious-15-cap,-118.345418,34.050911,90019,POINT (-118.345418 34.050911),,,
DC Collective,8053 Deering Ave.,Canoga Park,dc-collective,CA,dispensary,https://weedmaps.com/dispensaries/dc-collective,-118.595255,34.216779,91304,POINT (-118.595255 34.216779),TRUE,DISCOUNT CAREGIVERS,8053 DEERING 91304-5011
Delta 9 THC 21+,824 E. Anaheim St. Unit B,Wilmington,delta-9-thc,CA,dispensary,https://weedmaps.com/dispensaries/delta-9-thc,-118.252246,33.780288,90744,POINT (-118.252246 33.780288),TRUE,DELTA-9 T.H.C.,824 ANAHEIM 90744-6833
Disabled Veterans Collective,5248 Alhambra Ave. Unit B,Los Angeles,better-daze,CA,dispensary,https://weedmaps.com/dispensaries/better-daze,-118.170927,34.074523,90032,POINT (-118.170927 34.074523),,,
Divine Wellness Center,7246 Eton Ave,Canoga Park,divinewc,CA,dispensary,https://weedmaps.com/dispensaries/divinewc,-118.595155,34.202437,91303,POINT (-118.595155 34.202437),TRUE,DIVINE WELLNESS CENTER INC,7246 ETON 91303-1505
Dope Girls LA,6214 Santa Monica Blvd,Hollywood,dope-girls-la,CA,dispensary,https://weedmaps.com/dispensaries/dope-girls-la,-118.324896,34.09063,90038,POINT (-118.324896 34.09063),,,
Downtown Care,610 New High Street,Los Angeles,downtown-care-ftp-5-gram-8ths,CA,dispensary,https://weedmaps.com/dispensaries/downtown-care-ftp-5-gram-8ths,-118.239293,34.058508,90012,POINT (-118.239293 34.058508),,,
Downtown Fantastic 20 Cap,1135 Venice Blvd,Los Angeles,downtown-fantastic-20-cap,California,dispensary,https://weedmaps.com/dispensaries/downtown-fantastic-20-cap,-118.280001,34.042105,90015,POINT (-118.280001 34.042105),,,
Dr. Greenthumb's - Sylmar,12751 Foothill Blvd.,Sylmar,dr-greenthumbs-sylmar,CA,dispensary,https://weedmaps.com/dispensaries/dr-greenthumbs-sylmar,-118.412557,34.291486,91342,POINT (-118.412557 34.291486),TRUE,SOUTHWEST CAREGIVERS INC,12751 FOOTHILL 91342-5314
Dr. GT LA,847 W Florence Ave,Los Angeles,dr-greenthumb-la,CA,dispensary,https://weedmaps.com/dispensaries/dr-greenthumb-la,-118.288895,33.974853,90044,POINT (-118.288895 33.974853),,,
DTPG,930 South Alameda Street,Los Angeles,downtown-patients-group-dtpg,CA,dispensary,https://weedmaps.com/dispensaries/downtown-patients-group-dtpg,-118.238727,34.026479,90021,POINT (-118.238727 34.026479),,,
East LA Collective 25 CAP,4874 S Huntington Dr,East Los Angeles,east-la-collective-2,CA,dispensary,https://weedmaps.com/dispensaries/east-la-collective-2,-118.17746,34.086089,90032,POINT (-118.17746 34.086089),,,
ELEVATE,13509 Hubbard Street,Sylmar,sylmar-holistic-center,CA,dispensary,https://weedmaps.com/dispensaries/sylmar-holistic-center,-118.427823,34.3099158,91342,POINT (-118.427823 34.3099158),TRUE,420 GRAND INC,13509 HUBBARD 91342-4419
Elevate Harbor City - Coming Soon!,1227 West 253rd St,Harbor City,elevate-harbor-city,California,dispensary,https://weedmaps.com/dispensaries/elevate-harbor-city,-118.298215,33.79501,90710,POINT (-118.298215 33.79501),TRUE,GREEN EARTH PHARMACY INC,1227 253RD 90710-2413
ERB Supply,1236 Compton Ave,Los Angeles,erb-supply,California,dispensary,https://weedmaps.com/dispensaries/erb-supply,-118.241746,34.026621,90021,POINT (-118.241746 34.026621),,,
ERBA Markets,12320 W Pico Blvd,Los Angeles,erba,CA,dispensary,https://weedmaps.com/dispensaries/erba,-118.452265,34.028134,90064,POINT (-118.452265 34.028134),TRUE,LOS ANGELES WELLNESS CENTER LLC,12320 PICO 90064-1137
Euphoric,10655 West Pico Blvd,Los Angeles,euphoric-40-cap,CA,dispensary,https://weedmaps.com/dispensaries/euphoric-40-cap,-118.4237806,34.0427874,90064,POINT (-118.4237806 34.0427874),TRUE,ONESRA ENTERPRISES INC,10655 PICO 90064-2222
EVOLV Cannabis,25937 S Western Ave,Lomita,evolv-cannabis,CA,dispensary,https://weedmaps.com/dispensaries/evolv-cannabis,-118.308087,33.787102,90717,POINT (-118.308087 33.787102),TRUE,HERBAL SOLUTIONS SOUTHERN CALIFORNIA,25937 WESTERN 90717-3361
EXCLUSIVE 25 CAP PRE-ICO,6200 S Wilton Place,Los Angeles,exclusive-caregivers-of-california-2-2,Ca,dispensary,https://weedmaps.com/dispensaries/exclusive-caregivers-of-california-2-2,-118.314571,33.983001,90047,POINT (-118.314571 33.983001),TRUE,EXCLUSIVE CAREGIVERS OF CALIFORNIA INC,6200 WILTON 90047-1319
Exclusive Care and Wellness,25915 Senator Avenue,Harbor City,exclusive-care-and-wellness,CA,dispensary,https://weedmaps.com/dispensaries/exclusive-care-and-wellness,-118.302862,33.787915,90710,POINT (-118.302862 33.787915),,,
EXHALE MED CENTER,980 North La Cienega #102,Los Angeles,exhale-med-center,,dispensary,https://weedmaps.com/dispensaries/exhale-med-center,-118.376318,34.088813,90069,POINT (-118.376318 34.088813),TRUE,CHRONICPRACTOR CAREGIVER INC,980 LA CIENEGA 90069-4781
Exhalence,10467 Roscoe Blvd,Sun Valley,exhalence,CA,dispensary,https://weedmaps.com/dispensaries/exhalence,-118.359563,34.221922,91352,POINT (-118.359563 34.221922),TRUE,BOO-KU C.C. INC,10467 ROSCOE 91352-4101
FAMOUS ROOTS 25 CAP,12708 Foothill Blvd,Sylmar,famous-roots,CA,dispensary,https://weedmaps.com/dispensaries/famous-roots,-118.412123,34.290092,91342,POINT (-118.412123 34.290092),,,
FCC - Florence Canna Clinic,357 East Florence Ave,Los Angeles,skyline,CA,dispensary,https://weedmaps.com/dispensaries/skyline,-118.267547,33.974975,90003,POINT (-118.267547 33.974975),,,
Field Of Dreams,1787 Westwood,Los Angeles,field-of-dreams,Ca,dispensary,https://weedmaps.com/dispensaries/field-of-dreams,-118.437645,34.050216,90024,POINT (-118.437645 34.050216),TRUE,SYLMAR CAREGIVERS INC,1787 WESTWOOD 90024-5607
Fire Factory 15 Cap,3525 Emery St.,Los Angeles,fire-factory-15-cap,California,dispensary,https://weedmaps.com/dispensaries/fire-factory-15-cap,-118.202084,34.014402,90023,POINT (-118.202084 34.014402),,,
FireHaus,2000 Cotner Ave,Los Angeles,firehaus,CA,dispensary,https://weedmaps.com/dispensaries/firehaus,-118.4417437,34.0421216,90025,POINT (-118.4417437 34.0421216),TRUE,GREEN LEAF CAREGIVERS,2000 COTNER 90025-5604
Flower Shop DTLA,726 e 8th street,Los angeles,flower-shop-dtla,California,dispensary,https://weedmaps.com/dispensaries/flower-shop-dtla,-118.248623,34.037609,90021,POINT (-118.248623 34.037609),,,
FOOTHILL WELLNESS CENTER - Pre ICO,7132 Foothill Blvd.,Tujunga,foothill-wellness-center-2,,dispensary,https://weedmaps.com/dispensaries/foothill-wellness-center-2,-118.287349,34.247969,91042,POINT (-118.287349 34.247969),TRUE,PATIENTS CORP,7132 FOOTHILL 91042-2717
Fountain of Wellbeing - FWB,7231 Hinds Ave,North Hollywood,fountain-of-wellbeing,CA,dispensary,https://weedmaps.com/dispensaries/fountain-of-wellbeing,-118.39138,34.202133,91605,POINT (-118.39138 34.202133),TRUE,FOUNTAIN OF WELLBEING A COOPERATIVE CORPORATION,7231 HINDS 91605-3702
FourTwentyLA,1420 S Los Angeles Street Unit B,Los Angeles,fourtwentyla,CA,dispensary,https://weedmaps.com/dispensaries/fourtwentyla,-118.260365,34.034387,90015,POINT (-118.260365 34.034387),,,
Gardena Gardens,16220 South Vermont Ave,Gardena,gardena-gardens,CA,dispensary,https://weedmaps.com/dispensaries/gardena-gardens,-118.290989,33.883652,90247,POINT (-118.290989 33.883652),,,
Giving Back Collective,3205 W. Florence Ave,Los Angeles,giving-back-collectives,CA,dispensary,https://weedmaps.com/dispensaries/giving-back-collectives,-118.328213,33.974711,90043,POINT (-118.328213 33.974711),,,
GOLD 20 Cap Collective,4207 S Broadway,Los Angeles,green-heaven-collective-2,CA,dispensary,https://weedmaps.com/dispensaries/green-heaven-collective-2,-118.278372,34.007076,90037,POINT (-118.278372 34.007076),,,
Grace Medical,2340 S Centinela Ave,Los Angeles,grace-medical,CA,dispensary,https://weedmaps.com/dispensaries/grace-medical,-118.453677,34.028556,90064,POINT (-118.453677 34.028556),,,
Granada Gardens 20 Cap,17815 Chatsworth St. Suite A,Granada Hills,granada-gardens-20-cap,CA,dispensary,https://weedmaps.com/dispensaries/granada-gardens-20-cap,-118.522024,34.265109,91344,POINT (-118.522024 34.265109),,,
Green Angel (Pre-ICO),14000 Ventura Blvd,Sherman Oaks,mmrc,CA,dispensary,https://weedmaps.com/dispensaries/mmrc,-118.437371,34.148845,91423,POINT (-118.437371 34.148845),TRUE,MMR CENTER INC,14000 VENTURA 91423-3512
Green Angel Pre-Ico,22748 Ventura Blvd,Woodland Hills,green-angel,CA,dispensary,https://weedmaps.com/dispensaries/green-angel,-118.621991,34.166073,91364,POINT (-118.621991 34.166073),TRUE,ALTERNATIVE MEDICINAL CAREGIVERS INC,22748 VENTURA 91364-1333
Green Awning Collective - GAC,22708 Ventura Boulevard,Woodland Hills,one-bud-collective-obc,CA,dispensary,https://weedmaps.com/dispensaries/one-bud-collective-obc,-118.620961,34.166493,91364,POINT (-118.620961 34.166493),,,
Green Castle 25 Cap,9118 South Broadway,Los Angeles,the-greenhouse-2-4,CA,dispensary,https://weedmaps.com/dispensaries/the-greenhouse-2-4,-118.277926,33.953219,90003,POINT (-118.277926 33.953219),,,
Green City Collective,8405 Pershing dr. suite 100,Playa Del Ray,green-city-collective-la,CA,dispensary,https://weedmaps.com/dispensaries/green-city-collective-la,-118.443269,33.957087,90293,POINT (-118.443269 33.957087),TRUE,NILE COOPERATIVE CORPORATION,8405 PERSHING 90293-7870
Green Cross of Torrance,1658 West Carson St. Suite B,Torrance,green-cross-of-torrance,CA,dispensary,https://weedmaps.com/dispensaries/green-cross-of-torrance,-118.3086093,33.831098,90501,POINT (-118.3086093 33.831098),TRUE,CORNERSTONE RESEARCH COLLECTIVE,2551 COLORADO 90041-1040
Green Diamond Caregivers,8514 S Broadway,Los Angeles,green-diamond-caregivers-2,CA,dispensary,https://weedmaps.com/dispensaries/green-diamond-caregivers-2,-118.278141,33.961095,90003,POINT (-118.278141 33.961095),,,
Green Door,5522 Cahuenga Blvd,North Hollywood,5222-collective,CA,dispensary,https://weedmaps.com/dispensaries/5222-collective,-118.361314,34.17072,91601,POINT (-118.361314 34.17072),,,
Green Dot Medicinal Cannabis Patient's Group,4200 Lincoln Blvd,Marina Del Rey,californiahealinggardens,CA,dispensary,https://weedmaps.com/dispensaries/californiahealinggardens,-118.444227,33.986927,90292,POINT (-118.444227 33.986927),TRUE,GREEN DOT MEDICINAL CANNABIS PATIENT'S GROUP,4200 LINCOLN 90292-5618
GREEN DRAGON,7236 Varna Ave,North Hollywood,green-dragon-caregivers-inc,CA,dispensary,https://weedmaps.com/dispensaries/green-dragon-caregivers-inc,-118.42468,34.202202,91605,POINT (-118.42468 34.202202),TRUE,GREEN DRAGON CAREGIVERS INC,7236 VARNA 91605-4102
Green Earth Collective,4801 York Blvd,Los Angeles,green-earth-collective,CA,dispensary,https://weedmaps.com/dispensaries/green-earth-collective,-118.210695,34.122485,90042,POINT (-118.210695 34.122485),TRUE,GREEN EARTH VITALITY CORPORATION,4801 YORK 90042-1636
Green Earth Farmacie,7756 Burnet Ave.,Van Nuys,van-nuys-91405,CA,dispensary,https://weedmaps.com/dispensaries/van-nuys-91405,-118.462523,34.212052,91405,POINT (-118.462523 34.212052),TRUE,THE COMPASSION NETWORK LLC,410 LINCOLN 90291-2829
Green Garden Collective,11414 S Vermont Ave.,Los Angeles,green-garden-collective-3,CA,dispensary,https://weedmaps.com/dispensaries/green-garden-collective-3,-118.291258,33.930478,90044,POINT (-118.291258 33.930478),,,
Green Ghost,753 East Jefferson Blvd,Los Angeles,green-ghost-2,CA,dispensary,https://weedmaps.com/dispensaries/green-ghost-2,-118.263499,34.014802,90011,POINT (-118.263499 34.014802),,,
Green Ghost 2,7402 S Western Ave,Los Angeles,gas-kingz,CA,dispensary,https://weedmaps.com/dispensaries/gas-kingz,-118.308973,33.972579,90047,POINT (-118.308973 33.972579),,,
f2,1716 MAIN ST.,Venice,greengoddess,CA,dispensary,https://weedmaps.com/dispensaries/greengoddess,-118.47047,33.987753,90291,POINT (-118.47047 33.987753),TRUE,GREEN GODDESS INC.,1716 MAIN 90291-6612
Green State University 20 Cap,2604 South Hill St,Los Angeles,superior-herbal-health-25-cap,CA,dispensary,https://weedmaps.com/dispensaries/superior-herbal-health-25-cap,-118.270856,34.025523,90007,POINT (-118.270856 34.025523),,,
Green Zone Collective,7040 Owensmouth Ave,Canoga Park,green-zone-collective,CA,dispensary,https://weedmaps.com/dispensaries/green-zone-collective,-118.601416,34.198693,91303,POINT (-118.601416 34.198693),,,
Greenbear 20 Cap Collective,1412 S Alameda St,Los Angeles,ogb-2,CA,dispensary,https://weedmaps.com/dispensaries/ogb-2,-118.23904,34.025136,90021,POINT (-118.23904 34.025136),,,
GreenBuds Collective,8110 S Broadway,Los Angeles,greenbuds-collective,Ca,dispensary,https://weedmaps.com/dispensaries/greenbuds-collective,-118.277716,33.965565,90003,POINT (-118.277716 33.965565),,,
"Greenhouse Herbal Center, LLC",5224 Hollywood Blvd.,Hollywood,greenhouse-herbal-center,CA,dispensary,https://weedmaps.com/dispensaries/greenhouse-herbal-center,-118.3041071,34.1016334,90027,POINT (-118.3041071 34.1016334),TRUE,GREENHOUSE HERBAL CENTER LLC,5224 HOLLYWOOD 90027-4909
Greenlight Discount Pharmacy Pre-ICO,15507 Cobalt Street #4,Sylmar,greenlight-discount-pharmacy,CA,dispensary,https://weedmaps.com/dispensaries/greenlight-discount-pharmacy,-118.470101,34.307005,91342,POINT (-118.470101 34.307005),TRUE,ZEN MEDICAL GARDEN CO OP INC,15507 COBALT 91342-3563
Greens Good,8762 Pico Blvd,Los Angeles,greens-good,Ca,dispensary,https://weedmaps.com/dispensaries/greens-good,-118.383178,34.054705,90035,POINT (-118.383178 34.054705),,,
GREENWOLF LA Pre ICO,2950 Los Feliz Blvd. Unit #100,Los Angeles,greenwolf-la,California,dispensary,https://weedmaps.com/dispensaries/greenwolf-la,-118.263905,34.125669,90039,POINT (-118.263905 34.125669),TRUE,HOLISTIC HEALING ALTERNATIVE INC,2950 LOS FELIZ 90039-1532
GSG - Gold State Greens,5632 Lankershim Blvd,North Hollywood,gsg-gold-state-greens,CA,dispensary,https://weedmaps.com/dispensaries/gsg-gold-state-greens,-118.37961,34.173795,91601,POINT (-118.37961 34.173795),,,
GTR NOHO,5024 VINELAND AVE,NORTH HOLLYWOOD,gtr-noho,CA,dispensary,https://weedmaps.com/dispensaries/gtr-noho,-118.370005,34.161932,91601,POINT (-118.370005 34.161932),,,
GW Inc,7561 Lankershim Blvd Unit 104,North Hollywood,grassware-inc,CA,dispensary,https://weedmaps.com/dispensaries/grassware-inc,-118.388284,34.208088,91605,POINT (-118.388284 34.208088),,,
H.A.I,18306 Eddy St.,Northridge,holistic-alternative-inc-57-d-2,CA,dispensary,https://weedmaps.com/dispensaries/holistic-alternative-inc-57-d-2,-118.531973,34.227216,91325,POINT (-118.531973 34.227216),TRUE,HOLISTIC ALTERNATIVE INC. #57/D,18306 EDDY 91325-3314
HACC - Torrance,1613 West Carson Street #104,Torrance,haccnc,CA,dispensary,https://weedmaps.com/dispensaries/haccnc,-118.306984,33.831736,90501,POINT (-118.306984 33.831736),,,
Happy Leaf Collective,2131 Westwood Blvd,Los Angeles,happy-leaf-la,CA,dispensary,https://weedmaps.com/dispensaries/happy-leaf-la,-118.432401,34.044288,90025,POINT (-118.432401 34.044288),TRUE,TRINITY MEDICAL ALLIANCE INC,2131 WESTWOOD 90025-6330
HAPPY LIFE,25916 S Western Ave,Lomita,happy-life-la,CA,dispensary,https://weedmaps.com/dispensaries/happy-life-la,-118.307338,33.787723,90710,POINT (-118.307338 33.787723),,,
Harbor High Meds,1318 N. Wilmington Blvd.,Wilmington,harbor-high-meds,CA,dispensary,https://weedmaps.com/dispensaries/harbor-high-meds,-118.274796,33.789165,90744,POINT (-118.274796 33.789165),,,
Harvest of Venice (Coming Soon),712 Lincoln Blvd,Venice,harvest-venice,CA,dispensary,https://weedmaps.com/dispensaries/harvest-venice,-118.463986,33.999778,90291,POINT (-118.463986 33.999778),,,
Hazel PRE-ICO - CLOSED DURING REMODELING,17523 Ventura Blvd.,Encino,hazel,CA,dispensary,https://weedmaps.com/dispensaries/hazel,-118.514986,34.162006,91316,POINT (-118.514986 34.162006),TRUE,HAZELWOOD PATIENTS COLLECTIVE,17523 VENTURA 91316-3836
"HCMA - NC Co-Op, Inc.",11826 Sheldon Street,Sun Valley,northridge-caregivers-co-op-inc,CA,dispensary,https://weedmaps.com/dispensaries/northridge-caregivers-co-op-inc,-118.390294,34.241126,91352,POINT (-118.390294 34.241126),TRUE,NORTHRIDGE CAREGIVERS CO-OP INC,11826 SHELDON 91352-1507
Herbal Pain Relief Center,10736 Sepulveda Blvd.,Mission Hills,missionhillsorganic,CA,dispensary,https://weedmaps.com/dispensaries/missionhillsorganic,-118.4670804,34.2652813,91345,POINT (-118.4670804 34.2652813),TRUE,HERBAL PAIN RELIEF CENTER COOPERATIVE INC,10736 SEPULVEDA 91345-1904
Herbal Remedies Caregivers,12423 Gladstone Avenue,Sylmar,herbal-remedies-caregivers-2,CA,dispensary,https://weedmaps.com/dispensaries/herbal-remedies-caregivers-2,-118.412265,34.295557,91342,POINT (-118.412265 34.295557),TRUE,HERBAL REMEDIES CAREGIVERS INC,
HHC - Healthy Herbal Care,7123 Sepulveda Blvd.,Van Nuys,hhc-heavenly-herbal-collective,California,dispensary,https://weedmaps.com/dispensaries/hhc-heavenly-herbal-collective,-118.466586,34.200152,91405,POINT (-118.466586 34.200152),TRUE,HEALTHY HERBAL CARE INC,7123 SEPULVEDA 91405-2930
HHC Plus,1901 S. Alameda St. #112,Los Angeles,hhc-plus,CA,dispensary,https://weedmaps.com/dispensaries/hhc-plus,-118.239628,34.020211,90058,POINT (-118.239628 34.020211),TRUE,HHC PLUS INC A CA NON-PROF CORP,1901 ALAMEDA 90058-1037
High City Collective,4507 West Pico Blvd,Los Angles,pico-collective,CA,dispensary,https://weedmaps.com/dispensaries/pico-collective,-118.333968,34.048697,90019,POINT (-118.333968 34.048697),,,
High Society Wellness Center,2000 Marengo Street Unit G,Los Angeles,high-society-wellness-center,CA,dispensary,https://weedmaps.com/dispensaries/high-society-wellness-center,-118.208297,34.056549,90033,POINT (-118.208297 34.056549),,,
HOLLYWEED DISPENSARY,5158 Venice Blvd,Los Angeles,hollyweed,CA,dispensary,https://weedmaps.com/dispensaries/hollyweed,-118.352704,34.044844,90019,POINT (-118.352704 34.044844),,,
Hollywood High Grade,7051 B Santa Monica Blvd,Hollywood,hollywood-high-grade-hollywood-los-angeles,ca,dispensary,https://weedmaps.com/dispensaries/hollywood-high-grade-hollywood-los-angeles,-118.343381,34.090861,90038,POINT (-118.343381 34.090861),TRUE,ASHMOON INC,7051 SANTA MONICA 90038-1042
Hollywood Holistic,5419 W. Sunset Blvd,Hollywood,hollywood-holistic-3,,dispensary,https://weedmaps.com/dispensaries/hollywood-holistic-3,-118.307933,34.09857,90027,POINT (-118.307933 34.09857),,,
Hollywood House of Herbs 20 Cap,5011 lankershim blvd,north hollywood,hollywood-house-of-bogo-collective,California,dispensary,https://weedmaps.com/dispensaries/hollywood-house-of-bogo-collective,-118.372832,34.161159,91601,POINT (-118.372832 34.161159),,,
HOOVER GREENS,6127 S Hoover St,Los Angeles,hoover-greens,,dispensary,https://weedmaps.com/dispensaries/hoover-greens,-118.287196,33.983884,90044,POINT (-118.287196 33.983884),,,
Hoover Street Caregivers,6801 South Hoover Street,Los Angeles,hsc-la,CA,dispensary,https://weedmaps.com/dispensaries/hsc-la,-118.287225,33.9781,90044,POINT (-118.287225 33.9781),,,
House of Kush,653 West Florence,Los Angeles,house-of-kush-4,CA,dispensary,https://weedmaps.com/dispensaries/house-of-kush-4,-118.28527,33.974834,90044,POINT (-118.28527 33.974834),,,
House of Savage,5608 Willow Crest Avenue,North Hollywood,the-house-of-savage-2,CA,dispensary,https://weedmaps.com/dispensaries/the-house-of-savage-2,-118.362628,34.172195,91601,POINT (-118.362628 34.172195),,,
Infinite Wellness 20 Cap,5017 S. Broadway,Los Angeles,infinite-wellness-1,CA,dispensary,https://weedmaps.com/dispensaries/infinite-wellness-1,-118.278516,33.996866,90037,POINT (-118.278516 33.996866),,,
INFINITY MEDICAL ALLIANCE - Torrance,1609 Lockness Place,Torrance,infinity-medical-alliance,CA,dispensary,https://weedmaps.com/dispensaries/infinity-medical-alliance,-118.305964,33.818082,90501,POINT (-118.305964 33.818082),TRUE,INFINITY MEDICAL ALLIANCE,"1609 LOCKNESS PL W, 90501"
Jayne's World,2622 S. Robertson Blvd,Los Angeles,jayne-s-world,CA,dispensary,https://weedmaps.com/dispensaries/jayne-s-world,-118.388331,34.037683,90034,POINT (-118.388331 34.037683),,,
K-Town Vermont,737 S. Vermont Ave,Los Angeles,k-town-vermont,CA,dispensary,https://weedmaps.com/dispensaries/k-town-vermont,-118.291675,34.058561,90005,POINT (-118.291675 34.058561),,,
Killer Meds 30CAP,1677 Pacific Coast Hwy,Lomita,killer-meds-2,CA,dispensary,https://weedmaps.com/dispensaries/killer-meds-2,-118.306936,33.789778,90710,POINT (-118.306936 33.789778),,,
King Kush Collective of LOS ANGELES,8950 S. Western Ave,Los Angeles,broadway-medical-collectivve,CA,dispensary,https://weedmaps.com/dispensaries/broadway-medical-collectivve,-118.30879,33.954821,90047,POINT (-118.30879 33.954821),,,
KoreaTown Collective / Ktown Collective on Melrose,7382 Melrose Ave,Los Angeles,koreatown-collective-sc-labs-full-menu-testing,CA,dispensary,https://weedmaps.com/dispensaries/koreatown-collective-sc-labs-full-menu-testing,-118.350991,34.083421,90046,POINT (-118.350991 34.083421),TRUE,KOREA TOWN COLLECTIVE LLC,7382 MELROSE 90046-7527
Kush 25,650 N. Broad Ave,Wilmington,kush-25,CA,dispensary,https://weedmaps.com/dispensaries/kush-25,-118.260574,33.778519,90744,POINT (-118.260574 33.778519),,,
Kush Kings,9800 S San Pedro St,Los Angeles,lit-korner,CA,dispensary,https://weedmaps.com/dispensaries/lit-korner,-118.26939,33.947145,90003,POINT (-118.26939 33.947145),,,
Kush Kings Caregivers,2309 W Pico,Los Angeles,kush-factory,CA,dispensary,https://weedmaps.com/dispensaries/kush-factory,-118.287013,34.047511,90006,POINT (-118.287013 34.047511),,,
Kush Mart 20 Cap Collective,420 E 11th Street,Los Angeles,kush-mart-20-cap-collective,CA,dispensary,https://weedmaps.com/dispensaries/kush-mart-20-cap-collective,-118.254535,34.036598,90015,POINT (-118.254535 34.036598),,,
Kush Palace,1716 S Sepulveda Blvd,Los Angeles,kush-palace,California,dispensary,https://weedmaps.com/dispensaries/kush-palace,-118.44327,34.047007,90025,POINT (-118.44327 34.047007),,,
Kush Town,3305 W. 8th,Koreatown,kush-town,California,dispensary,https://weedmaps.com/dispensaries/kush-town,-118.300143,34.057883,90005,POINT (-118.300143 34.057883),,,
Kushism Van Nuys,7555 Woodley Avenue,Van Nuys,kushism,CA,dispensary,https://weedmaps.com/dispensaries/kushism,-118.483965,34.208235,91406,POINT (-118.483965 34.208235),TRUE,KUSHISM INC,7555 WOODLEY 91406-2930
KUSHLAND,8459 S Broadway,South Los Angeles,kush-land,CA,dispensary,https://weedmaps.com/dispensaries/kush-land,-118.27863,33.961571,90003,POINT (-118.27863 33.961571),,,
Kushology 5 Grams,4817 Normandie Ave,Los Angeles,kushology-1,California,dispensary,https://weedmaps.com/dispensaries/kushology-1,-118.300433,33.999555,90037,POINT (-118.300433 33.999555),,,
LA 420,124 E. Florence St.,Los Angeles,la-420,CA,dispensary,https://weedmaps.com/dispensaries/la-420,-118.273001,33.974556,90003,POINT (-118.273001 33.974556),,,
La Brea Collective - LBC,5057 W. Pico Blvd,Los Angeles,la-brea-collective-2-2,CA,dispensary,https://weedmaps.com/dispensaries/la-brea-collective-2-2,-118.347761,34.048176,90019,POINT (-118.347761 34.048176),TRUE,MID CITY CANNABIS CLUB INC,5057 PICO 90019-4129
La Brea Gardens 25 Cap,1289 S. La Brea Ave.,Los Angeles,la-brea-gardens-25-cap,California,dispensary,https://weedmaps.com/dispensaries/la-brea-gardens-25-cap,-118.34468,34.050989,90019,POINT (-118.34468 34.050989),,,
LA Cannabis Co. - Inglewood,5993 S St Andrews Pl.,Los Angeles,holistic-pain-relief-lax,CA,dispensary,https://weedmaps.com/dispensaries/holistic-pain-relief-lax,-118.311999,33.985454,90047,POINT (-118.311999 33.985454),TRUE,HOLISTIC PAIN RELIEF INC,5993 ST ANDREWS 90047-1308
LA Cannabis Co. - La Brea,1603 S. La Brea Avenue,Los Angeles,wcc-2,CA,dispensary,https://weedmaps.com/dispensaries/wcc-2,-118.345797,34.045424,90019,POINT (-118.345797 34.045424),TRUE,MELROSE HERBAL COLLECTIVE INC,1603 LA BREA 90019-5434
LA Cannabis Co. - Los Angeles,3791 2nd Avenue,Los Angeles,organic-green-treatment-center,CA,dispensary,https://weedmaps.com/dispensaries/organic-green-treatment-center,-118.319333,34.018748,90018,POINT (-118.319333 34.018748),TRUE,ORGANIC GREEN TREATMENT CENTER INC,3791 2ND 90018-4308
LA CBD,778 North Virgil ave,Los Angeles,la-cbd,CA,dispensary,https://weedmaps.com/dispensaries/la-cbd,-118.286565,34.085475,90029,POINT (-118.286565 34.085475),,,
La Fumee - CBD ONLY,"10649 Burbank Blvd,",North Hollywood,la-fumee,Ca,dispensary,https://weedmaps.com/dispensaries/la-fumee,-118.363256,34.172384,91601,POINT (-118.363256 34.172384),,,
LA GAS HOUSE - Los Angeles,3024 Wabash Ave,Los Angeles,la-gas-house-los-angeles,,dispensary,https://weedmaps.com/dispensaries/la-gas-house-los-angeles,-118.195751,34.049193,90063,POINT (-118.195751 34.049193),,,
LA Kush - Los Angeles Kush,5470 Valley Blvd,Los Angeles,los-angeles-kush-east-la,California,dispensary,https://weedmaps.com/dispensaries/los-angeles-kush-east-la,-118.163739,34.073396,90032,POINT (-118.163739 34.073396),TRUE,"CALIFORNIA HERBAL REMEDIES, INC.",5470 VALLEY BLVD 90032-3530
LA Kush - Los Angeles Kush - Echo Park,182 S Alvarado St.,Los Angeles,los-angeles-kush-echo-park,CA,dispensary,https://weedmaps.com/dispensaries/los-angeles-kush-echo-park,-118.271457,34.064294,90057,POINT (-118.271457 34.064294),,,
LA Meds 4 less,1720 East 14th st SUITE #A,Los Angeles,la-med-s-4-less,CA,dispensary,https://weedmaps.com/dispensaries/la-med-s-4-less,-118.240412,34.0255439,90021,POINT (-118.240412 34.0255439),,,
LA Treehouse,1216 West Florence Ave,Los Angeles,la-treehouse,California,dispensary,https://weedmaps.com/dispensaries/la-treehouse,-118.29693,33.974322,90044,POINT (-118.29693 33.974322),,,
LA Wellness,6916 S. Western Ave Unit - B,Los Angeles,la-wellness,CA,dispensary,https://weedmaps.com/dispensaries/la-wellness,-118.308554,33.976471,90047,POINT (-118.308554 33.976471),,,
LA Wonderland Marijuana Dispensary Recreational,150 Venice Blvd.,Los Angeles,la-wonderland-caregivers,CA,dispensary,https://weedmaps.com/dispensaries/la-wonderland-caregivers,-118.2640434,34.0344313,90015,POINT (-118.2640434 34.0344313),,,
LA Zone,1140 S. Santee,Los Angeles,la-zone,CA,dispensary,https://weedmaps.com/dispensaries/la-zone,-118.25688,34.036771,90015,POINT (-118.25688 34.036771),,,
LAC,326 N Vermont Ave,Los Angeles,lac-la-collective,CA,dispensary,https://weedmaps.com/dispensaries/lac-la-collective,-118.291419,34.077185,90004,POINT (-118.291419 34.077185),,,
LAFinestCollectives,419 S Los Angeles St,Los Angeles,lafinestcollectives,CA,dispensary,https://weedmaps.com/dispensaries/lafinestcollectives,-118.246888,34.046991,90013,POINT (-118.246888 34.046991),,,
LAVC,6132 Wilshire Blvd,Los Angeles,los-angeles-valley-caregivers,CA,dispensary,https://weedmaps.com/dispensaries/los-angeles-valley-caregivers,-118.363085,34.063139,90048,POINT (-118.363085 34.063139),TRUE,"LOS ANGELES VALLEY CAREGIVERS, INC.",6132 WILSHIRE 90048-5102
LAXCC 21+,8332 Lincoln Blvd.,Los Angeles,premium-pacific,CA,dispensary,https://weedmaps.com/dispensaries/premium-pacific,-118.420744,33.961924,90045,POINT (-118.420744 33.961924),TRUE,LAX CC INC,8332 LINCOLN 90045-2414
Lights Out 20 Cap,844 W Gardena Blvd.,Gardena,lights-out-20-cap,CA,dispensary,https://weedmaps.com/dispensaries/lights-out-20-cap,-118.290633,33.881469,90247,POINT (-118.290633 33.881469),,,
Lit Co,1323 South Flower Street,LA,lit-co,CA,dispensary,https://weedmaps.com/dispensaries/lit-co,-118.267763,34.039396,90015,POINT (-118.267763 34.039396),TRUE,THE LIVING EARTH WELLNESS CENTER COLLECTIVE INC,1323 FLOWER 90015-2907
Los Angeles Farmers - (AHPS),824 E 17th St,Los Angeles,los-angeles-farmers,CA,dispensary,https://weedmaps.com/dispensaries/los-angeles-farmers,-118.253208,34.027245,90021,POINT (-118.253208 34.027245),TRUE,ABSOLUTE HERBAL PAIN SOLUTIONS INC,824 17TH 90021-3002
Loud 20 Cap,157-159 East Florence,Los Angeles,loud-30-cap-collective,CA,dispensary,https://weedmaps.com/dispensaries/loud-30-cap-collective,-118.272003,33.974956,90003,POINT (-118.272003 33.974956),,,
Loud Pack 20 Cap Collective,2505 E Caesar Chavez Suite A&B,Los Angeles,dank-city-3-2,CA,dispensary,https://weedmaps.com/dispensaries/dank-city-3-2,-118.205412,34.046041,90033,POINT (-118.205412 34.046041),,,
Manchester Remedy,2133 W Manchester Ave,Los Angeles,manchester-remedy,Ca,dispensary,https://weedmaps.com/dispensaries/manchester-remedy,-118.316834,33.96022,90047,POINT (-118.316834 33.96022),,,
"Marina Caregivers, Inc.",13453 Beach Avenue,Marina del Rey,marina-caregivers-inc,California,dispensary,https://weedmaps.com/dispensaries/marina-caregivers-inc,-118.445791,33.990801,90292,POINT (-118.445791 33.990801),TRUE,MARINA CAREGIVERS COOPERATIVE INC,13453 BEACH 90292-5623
Mary J's Cafe,21608 Sherman Way,Canoga Park,mary-js-cafe,CA,dispensary,https://weedmaps.com/dispensaries/mary-js-cafe,-118.600547,34.200729,91303,POINT (-118.600547 34.200729),,,
Mary Janes - Hollywood,4901 Melrose Ave,Los Angeles,mary-janes-collective,CA,dispensary,https://weedmaps.com/dispensaries/mary-janes-collective,-118.30708,34.083579,90029,POINT (-118.30708 34.083579),TRUE,MARY JANES COLLECTIVE CAREGIVERS,4901 MELROSE 90029-3731
Medgo,3438 West 8th Street,Korea Town,select-supply-2,CA,dispensary,https://weedmaps.com/dispensaries/select-supply-2,-118.304726,34.05722,90005,POINT (-118.304726 34.05722),,,
Medical Caregivers Company,1039 North Mission Rd.,Los Angeles,medical-caregivers-co-op-2,CA,dispensary,https://weedmaps.com/dispensaries/medical-caregivers-co-op-2,-118.2157238,34.0595878,90033,POINT (-118.2157238 34.0595878),TRUE,MEDICAL CAREGIVERS COOPERATIVE,1039 MISSION 90033-1218
MedMart 30 CAP,5977 S Broadway,Los Angeles,gasbankla,CA,dispensary,https://weedmaps.com/dispensaries/gasbankla,-118.27848,33.985327,90003,POINT (-118.27848 33.985327),,,
MedMen Abbot Kinney,1310 Abbot Kinney Blvd.,Venice,medmen-venice-beach-abbot-kinney,CA,dispensary,https://weedmaps.com/dispensaries/medmen-venice-beach-abbot-kinney,-118.467878,33.990829,90291,POINT (-118.467878 33.990829),TRUE,VENICE CAREGIVER FOUNDATION INC,1310 ABBOT KINNEY 90291-3758
MedMen Beverly Hills,110 S. Robertson Blvd,Los Angeles,medmen-beverly-hills,CA,dispensary,https://weedmaps.com/dispensaries/medmen-beverly-hills,-118.38352,34.074921,90048,POINT (-118.38352 34.074921),TRUE,CYON CORPORATION INC,110 ROBERTSON 90048-3208
MedMen Downtown (DTLA),735 S Broadway,Los Angeles,medmen-2,CA,dispensary,https://weedmaps.com/dispensaries/medmen-2,-118.254446,34.044597,90014,POINT (-118.254446 34.044597),TRUE,ADVANCED PATIENTS' COLLECTIVE,735 BROADWAY 90014-2878
MedMen LAX Airport,8740 S. Sepulveda Blvd,Los Angeles,medmen-3,CA,dispensary,https://weedmaps.com/dispensaries/medmen-3,-118.396137,33.957636,90045,POINT (-118.396137 33.957636),TRUE,NATURES CURE INC,8740 SEPULVEDA 90045-4000
MedMen Lincoln Blvd.,410 Lincoln Blvd,Venice,medmen-venice,CA,dispensary,https://weedmaps.com/dispensaries/medmen-venice,-118.466121,34.00079,90291,POINT (-118.466121 34.00079),TRUE,THE COMPASSION NETWORK LLC,410 LINCOLN 90291-2829
Melrose Place 25 Cap,5635 Melrose Ave. Unit A,Los Angeles,melrose-place,CA,dispensary,https://weedmaps.com/dispensaries/melrose-place,-118.32348,34.083805,90038,POINT (-118.32348 34.083805),,,
Merica Cannabis Company,7503 Laurel Canyon Blvd,North Hollywood,merica-cannabis-company,CA,dispensary,https://weedmaps.com/dispensaries/merica-cannabis-company,-118.396719,34.206955,91605,POINT (-118.396719 34.206955),,,
Metro Green Meds - Downtown LA,1616 S. Los Angeles St,Downtown LA,metro-green-meds-downtown-la,CA,dispensary,https://weedmaps.com/dispensaries/metro-green-meds-downtown-la,-118.262105,34.032338,90015,POINT (-118.262105 34.032338),,,
Mission Hills Patients Collective - Northridge / Reseda / Chatsworth,18446 Hart St. Unit M2,Reseda,bmc-2,CA,dispensary,https://weedmaps.com/dispensaries/bmc-2,-118.5348403,34.1972522,91335,POINT (-118.5348403 34.1972522),TRUE,"MISSION HILLS PATIENTS COLLECTIVE, INC",18446 HART 91335-4215
MMC,12737 Glenoaks Blvd. UNIT #15,Sylmar,mmc-3,CA,dispensary,https://weedmaps.com/dispensaries/mmc-3,-118.44293,34.301736,91342,POINT (-118.44293 34.301736),,,
MMD - North Hollywood,4720 Vineland Avenue,North Hollywood,californiacompassionate,CA,dispensary,https://weedmaps.com/dispensaries/californiacompassionate,-118.3702321,34.1561445,91602,POINT (-118.3702321 34.1561445),TRUE,CALIFORNIA COMPASSIONATE CARE NETWORK INC,4720 VINELAND 91602-1222
MMD Hollywood,1515 N Cahuenga Blvd,Los Angeles,mmd,CA,dispensary,https://weedmaps.com/dispensaries/mmd,-118.329756,34.098493,90028,POINT (-118.329756 34.098493),TRUE,"MMD, INC.",1515 CAHUENGA 90028-7312
MOTA (Medicine Of The Angels),4001 West Sunset BLVD,Los Angeles,soho-sherman-oaks-holistic-oasis,CA,dispensary,https://weedmaps.com/dispensaries/soho-sherman-oaks-holistic-oasis,-118.280382,34.092881,90029,POINT (-118.280382 34.092881),TRUE,MOTA INC,4001 SUNSET 90029-2105
Mother Mary Janes Church of Cannabis,1101 North Western ave,Los Angeles,mother-mary-janes-church-of-cannabis-2,CA,dispensary,https://weedmaps.com/dispensaries/mother-mary-janes-church-of-cannabis-2,-118.309363,34.091135,90029,POINT (-118.309363 34.091135),,,
Mother Nature Remedy Caregivers,22817 Ventura Blvd,Woodland Hills,mnrcoop,CA,dispensary,https://weedmaps.com/dispensaries/mnrcoop,-118.624032,34.166071,91364,POINT (-118.624032 34.166071),TRUE,MOTHER NATURE'S REMEDY CAREGIVERS INC,22815 VENTURA 91364-1202
Mr Green,1804 S Main St,Los Angeles,mr-green-2,CA,dispensary,https://weedmaps.com/dispensaries/mr-green-2,-118.263564,34.031786,90015,POINT (-118.263564 34.031786),,,
Mr. T's Collective PRE-ICO,6820 Crenshaw Blvd,Los Angeles,mr-t-s-collective,CA,dispensary,https://weedmaps.com/dispensaries/mr-t-s-collective,-118.330521,33.976316,90043,POINT (-118.330521 33.976316),,,
NACCC,1719 Pacific Coast Highway,Lomita,new-age-compassion-care,CA,dispensary,https://weedmaps.com/dispensaries/new-age-compassion-care,-118.308412,33.789777,90717,POINT (-118.308412 33.789777),,,
Natural Remedies Caregivers,927 1/2 Western ave.,Los Angeles,nrc,CA,dispensary,https://weedmaps.com/dispensaries/nrc,-118.3091782,34.0874643,90029,POINT (-118.3091782 34.0874643),TRUE,"NATURAL REMEDIES, INC",927 WESTERN 90029-3215
Nature's Therapy,19709 Ventura Blvd Unit 103,Woodland Hills,high-spot,CA,dispensary,https://weedmaps.com/dispensaries/high-spot,-118.562821,34.172819,91364,POINT (-118.562821 34.172819),,,
New Age Care Center,350 W Martin Luther King Jr Blvd,Los Angeles,la-new-age-collective-center,CA,dispensary,https://weedmaps.com/dispensaries/la-new-age-collective-center,-118.279622,34.010792,90037,POINT (-118.279622 34.010792),TRUE,NEW AGE COMPASSION CARE CENTER CORP,350 MARTIN LUTHER KING JR 90037-4529
New Amsterdam Naturals,9021 Exposition Blvd,Los Angeles,nncc-nature-s-natural-collective-care,CA,dispensary,https://weedmaps.com/dispensaries/nncc-nature-s-natural-collective-care,-118.392697,34.028878,90034,POINT (-118.392697 34.028878),TRUE,NATURE'S NATURAL COOPERATIVE CARE INC,9021 EXPOSITION 90034-3305
New Amsterdam Naturals,9021 Exposition Blvd,Los Angeles,new-amsterdam-naturals,CA,dispensary,https://weedmaps.com/dispensaries/new-amsterdam-naturals,-118.392697,34.028878,90034,POINT (-118.392697 34.028878),TRUE,NATURE'S NATURAL COOPERATIVE CARE INC,9021 EXPOSITION 90034-3305
NOHO CC : Pre-ICO,8085 Webb Ave,North Hollywood,nohocc-van-nuys-oasis,CA,dispensary,https://weedmaps.com/dispensaries/nohocc-van-nuys-oasis,-118.389845,34.217639,91605,POINT (-118.389845 34.217639),TRUE,NORTH HOLLYWOOD COMPASSIONATE CAREGIVERS INC,8085 WEBB 91605-1505
Noho Wellness Center,4942 Vineland Ave,North Hollywood,noho-wellness-center,CA,dispensary,https://weedmaps.com/dispensaries/noho-wellness-center,-118.369982,34.160602,91601,POINT (-118.369982 34.160602),,,
NoHo's Finest (PRE - ICO),11739 VOSE ST,NORTH HOLLYWOOD,noho-s-finest,CA,dispensary,https://weedmaps.com/dispensaries/noho-s-finest,-118.389203,34.198729,91605,POINT (-118.389203 34.198729),,,
Normandie House of BOGO,6424 South Normandie,Los Angeles,normandy,CA,dispensary,https://weedmaps.com/dispensaries/normandy,-118.300004,33.980797,90044,POINT (-118.300004 33.980797),,,
NORMANDIE MEDICAL CENTER,4821 S Normandie Ave,Los Angeles,normandie-medical-center,CA,dispensary,https://weedmaps.com/dispensaries/normandie-medical-center,-118.300359,33.999466,90037,POINT (-118.300359 33.999466),,,
Nurple Purps,4716 Melrose Avenue,Los Angeles,deluxe-collective,CA,dispensary,https://weedmaps.com/dispensaries/deluxe-collective,-118.302988,34.083268,90029,POINT (-118.302988 34.083268),,,
Oceanside Collective,5859 South Broadway Suite B,Los Angeles,oceans-la,CA,dispensary,https://weedmaps.com/dispensaries/oceans-la,-118.278325,33.987945,90003,POINT (-118.278325 33.987945),,,
OG 20 CAP,5119 Long Beach Avenue,Los Angeles,og-30-cap-collective,CA,dispensary,https://weedmaps.com/dispensaries/og-30-cap-collective,-118.243594,33.99589,90011,POINT (-118.243594 33.99589),,,
OG Florence 25 Cap,1649 W Florence Ave,Los Angeles,top-shelf-25-cap,CA,dispensary,https://weedmaps.com/dispensaries/top-shelf-25-cap,-118.306316,33.974786,90047,POINT (-118.306316 33.974786),,,
OG HIGH LIFE,1506 West Manchester Ave,LOS ANGELES,og-high-life,CA,dispensary,https://weedmaps.com/dispensaries/og-high-life,-118.302802,33.959786,90047,POINT (-118.302802 33.959786),,,
OG Roots,14626 Victory Blvd,Van Nuys,og-roots,CA,dispensary,https://weedmaps.com/dispensaries/og-roots,-118.451929,34.18651,91411,POINT (-118.451929 34.18651),,,
OG Top Shop,8836 South Vermont,Los Angeles,vermont-gas,CA,dispensary,https://weedmaps.com/dispensaries/vermont-gas,-118.291209,33.957239,90044,POINT (-118.291209 33.957239),,,
Og Western 20 Cap,8407 S Western Ave,Los Angeles,pacific-city-collective,CA,dispensary,https://weedmaps.com/dispensaries/pacific-city-collective,-118.309406,33.962526,90047,POINT (-118.309406 33.962526),,,
Olympic 25,3750 East Olympic Blvd.,Los Angeles,olympic-25,CA,dispensary,https://weedmaps.com/dispensaries/olympic-25,-118.194604,34.018665,90023,POINT (-118.194604 34.018665),,,
Olympic Best 20,3609 E Olympic BLVD,Los Angeles,only-20-cap,CA,dispensary,https://weedmaps.com/dispensaries/only-20-cap,-118.200565,34.01934,90023,POINT (-118.200565 34.01934),,,
OMG Avalon 20 Cap Collective,8018 Avalon Blvd,Los Angeles,535-collective,CA,dispensary,https://weedmaps.com/dispensaries/535-collective,-118.264877,33.965903,90003,POINT (-118.264877 33.965903),,,
OMG GROUP,13567 Glenoaks Blvd.,Sylmar,omg-group,CA,dispensary,https://weedmaps.com/dispensaries/omg-group,-118.4637737,34.3184215,91342,POINT (-118.4637737 34.3184215),,,
One Stop Shop 20 Cap Collective,11410 S Central Ave,Los Angeles,one-stop-shop-25-cap-collective,CA,dispensary,https://weedmaps.com/dispensaries/one-stop-shop-25-cap-collective,-118.253938,33.930619,90059,POINT (-118.253938 33.930619),,,
Oz n Bounce Drive-Thru,416 W 8th St,Downtown Los Angeles,oz-n-bounce,CA,dispensary,https://weedmaps.com/dispensaries/oz-n-bounce,-118.244262,34.067299,90014,POINT (-118.244262 34.067299),,,
Oz N Bounce Drive-Thru,1460 Vine St.,Los Angeles,oz-n-bounce-drive-thru,,dispensary,https://weedmaps.com/dispensaries/oz-n-bounce-drive-thru,-118.326369,34.097363,90028,POINT (-118.326369 34.097363),,,
PAC House Of Top Shelf - 25 Cap,12814 Bradley Ave,Sylmar,patients-alternative-caregiver-pac,CA,dispensary,https://weedmaps.com/dispensaries/patients-alternative-caregiver-pac,-118.45635,34.303359,91342,POINT (-118.45635 34.303359),,,
Patients and Caregivers,6141 Vineland Ave.,North Hollywood,patients-and-caregivers,CA,dispensary,https://weedmaps.com/dispensaries/patients-and-caregivers,-118.370629,34.1823539,91606,POINT (-118.370629 34.1823539),TRUE,PATIENTS AND CAREGIVERS LOS ANGELES INC,6141 VINELAND 91606-4913
PCH Herbarium,1605 Pacific Coast Highway Suite #107,Harbor City,pch-herbarium,CA,dispensary,https://weedmaps.com/dispensaries/pch-herbarium,-118.304773,33.789798,90710,POINT (-118.304773 33.789798),,,
People Collective 25 CAP,8926 S. Western Ave,Los Angeles,people-collective-25-cap,CA,dispensary,https://weedmaps.com/dispensaries/people-collective-25-cap,-118.308714,33.955482,90047,POINT (-118.308714 33.955482),,,
Pico Gardens,2753 W Pico Blvd,Los Angeles,pico-gardens-2,California,dispensary,https://weedmaps.com/dispensaries/pico-gardens-2,-118.299046,34.047393,90006,POINT (-118.299046 34.047393),,,
Planet Noho,12814 Riverside Drive,North Hollywood,planet-noho,California,dispensary,https://weedmaps.com/dispensaries/planet-noho,-118.412031,34.15732,91601,POINT (-118.412031 34.15732),,,
Platinum Club,18441 Vanowen St,Reseda,platinum-club-la,CA,dispensary,https://weedmaps.com/dispensaries/platinum-club-la,-118.534803,34.193901,91335,POINT (-118.534803 34.193901),TRUE,PLATINUM CLUB INC,18441 VANOWEN 91335-5324
Positive Energy Associated,1206 W. Anaheim St.,Wilmington,willmingtons-finest,CA,dispensary,https://weedmaps.com/dispensaries/willmingtons-finest,-118.277173,33.778943,90744,POINT (-118.277173 33.778943),,,
Pot Spot Collective,900 S Westmoreland ave. Ste 102,Los Angeles,pot-spot-collective,CA,dispensary,https://weedmaps.com/dispensaries/pot-spot-collective,-118.288771,34.055666,90006,POINT (-118.288771 34.055666),,,
Project Cannabis Boyle Heights,1500 Esperanza St,LOS ANGELES,ggr,CA,dispensary,https://weedmaps.com/dispensaries/ggr,-118.20062,34.015485,90023,POINT (-118.20062 34.015485),TRUE,GOURMET GREEN ROOM INC,1500 ESPERANZA 90023-3915
Project Cannabis DTLA,1555 Newton St.,Los Angeles,project-cannabis,CA,dispensary,https://weedmaps.com/dispensaries/project-cannabis,-118.241626,34.025814,90021,POINT (-118.241626 34.025814),,,
Project Cannabis NoHo,10842¬†Magnolia blvd,North Hollywood,green-valley-collective-2,CA,dispensary,https://weedmaps.com/dispensaries/green-valley-collective-2,-118.367371,34.164791,91601,POINT (-118.367371 34.164791),TRUE,RESOURCE REFERRAL SERVICES INC,10842 MAGNOLIA 91601-3920
PureLife Alternative Wellness Center,20751 Marilla St,Chatsworth,purelife-alternative-wellness-center-2,CA,dispensary,https://weedmaps.com/dispensaries/purelife-alternative-wellness-center-2,-118.586159,34.248401,91311,POINT (-118.586159 34.248401),TRUE,PURA VIDA TRES INC,20751 MARILLA 91311-4408
Red Moon,14350 Oxnard St,Van Nuys,redmoon-holistic-wellness-center,CA,dispensary,https://weedmaps.com/dispensaries/redmoon-holistic-wellness-center,-118.44618,34.179103,91401,POINT (-118.44618 34.179103),TRUE,RED MOON INC,14350 OXNARD 91401-3311
Reefer Room,1122 East 14th Street,Los Angeles,reefer-room,CA,dispensary,https://weedmaps.com/dispensaries/reefer-room,-118.248478,34.028887,90021,POINT (-118.248478 34.028887),,,
REMEDISTA CBD - Grand Opening 05/18!,22831 Ventura Blvd,Woodland Hills,remidista-cbd-coming-soon,California,dispensary,https://weedmaps.com/dispensaries/remidista-cbd-coming-soon,-118.624429,34.165918,91364,POINT (-118.624429 34.165918),,,
Reseda Discount Caregivers,18448 Oxnard Street,Reseda,reseda-discount-caregivers-van-nuys,CA,dispensary,https://weedmaps.com/dispensaries/reseda-discount-caregivers-van-nuys,-118.535003,34.179629,91356,POINT (-118.535003 34.179629),TRUE,RDC COLLECTIVE CORP,18448 OXNARD 91356-1504
Rollin Smoke,5710 West Manchester Avenue,Los Angeles,urban-medicinals-inc-2,CA,dispensary,https://weedmaps.com/dispensaries/urban-medicinals-inc-2,-118.381047,33.959772,90045,POINT (-118.381047 33.959772),,,
Rose Collective Pre-ICO,411 Rose Ave,Venice,rose-collective,CA,dispensary,https://weedmaps.com/dispensaries/rose-collective,-118.4745905,33.9979881,90291,POINT (-118.4745905 33.9979881),TRUE,VFARM 1509,411 ROSE 90291-2629
Rose Garden Collective,8225 South Broadway,Los Angeles,rose-garden-collective,CA,dispensary,https://weedmaps.com/dispensaries/rose-garden-collective,-118.278606,33.964668,90003,POINT (-118.278606 33.964668),,,
Royal Greens,5067 West Washington Blvd.,Los Angeles,royal-greens,CA,dispensary,https://weedmaps.com/dispensaries/royal-greens,-118.35028,34.041136,90016,POINT (-118.35028 34.041136),TRUE,THE NATURAL WAY OF L A,5067 WASHINGTON 90016-1450
Royal Greens,1418 W Florence Ave,Los Angeles,royal-greens-3,Ca,dispensary,https://weedmaps.com/dispensaries/royal-greens-3,-118.301102,33.974454,90047,POINT (-118.301102 33.974454),,,
SafeWay Trees - North Hollywood,6006 Vantage Avenue,North Hollywood,safeway-trees,CA,dispensary,https://weedmaps.com/dispensaries/safeway-trees,-118.397505,34.17973,91606,POINT (-118.397505 34.17973),,,
Save Greens,11221 Venice Blvd,Los Angeles,save-greens,CA,dispensary,https://weedmaps.com/dispensaries/save-greens,-118.418316,34.013027,90066,POINT (-118.418316 34.013027),,,
SCF,22865 Lockness Ave.,Torrance,south-bay-collective,CA,dispensary,https://weedmaps.com/dispensaries/south-bay-collective,-118.307436,33.81734,90501,POINT (-118.307436 33.81734),TRUE,SUNRISE CAREGIVER FOUNDATION INC,22865 LOCKNESS 90501-5103
SCG,13187 San Fernando Rd,Sylmar,scg,California,dispensary,https://weedmaps.com/dispensaries/scg,-118.47414,34.310285,91342,POINT (-118.47414 34.310285),,,
Scooters,11318 S. Vermont Ave,Los Angeles,skooters,CA,dispensary,https://weedmaps.com/dispensaries/skooters,-118.29127,33.931863,90044,POINT (-118.29127 33.931863),,,
Secret Gardens 20 Cap,4901 S. Western Ave,los angeles,secret-gardens-20-cap-1,ca,dispensary,https://weedmaps.com/dispensaries/secret-gardens-20-cap-1,-118.309167,33.998902,90062,POINT (-118.309167 33.998902),,,
SEMILLA HRC,7648 Clybourn Ave.,Sun Valley,herbal-relief-caregivers-inc,CA,dispensary,https://weedmaps.com/dispensaries/herbal-relief-caregivers-inc,-118.363005,34.209269,91352,POINT (-118.363005 34.209269),TRUE,HERBAL RELIEF CAREGIVERS INC,7648 CLYBOURN 91352-4622
Sepulveda Caregivers,7234 Sepulveda Blvd,Van Nuys,sepulveda-caregivers,,dispensary,https://weedmaps.com/dispensaries/sepulveda-caregivers,-118.466003,34.202351,91405,POINT (-118.466003 34.202351),,,
Sexy Buds,9735 Glenoaks Blvd,Sun Valley,glenoaks-collective,CA,dispensary,https://weedmaps.com/dispensaries/glenoaks-collective,-118.384516,34.246593,91352,POINT (-118.384516 34.246593),,,
Sexy Nuggs Collective,1914 E Olympic Blvd,Los Angeles,sexy-nuggs-collective,CA,dispensary,https://weedmaps.com/dispensaries/sexy-nuggs-collective,-118.237391,34.026861,90021,POINT (-118.237391 34.026861),,,
SFVPC,12527 San Fernando Road,Sylmar,san-fernando-valley-patients-group,CA,dispensary,https://weedmaps.com/dispensaries/san-fernando-valley-patients-group,-118.457868,34.297559,91342,POINT (-118.457868 34.297559),TRUE,SAN FERNANDO VALLEY PATIENTS' COOPERATIVE,12527 SAN FERNANDO 91342-5023
SHIVAS DTLA PRE-ICO,1339 South Hill Street,Los Angeles,shivas-dtla,CA,dispensary,https://weedmaps.com/dispensaries/shivas-dtla,-118.263011,34.036765,90015,POINT (-118.263011 34.036765),,,
SKY HIGH HOLISTIC NOHO,6102 Vineland Ave.,North Hollywood,sky-high-holistic-hollywood,CA,dispensary,https://weedmaps.com/dispensaries/sky-high-holistic-hollywood,-118.370136,34.181421,91606,POINT (-118.370136 34.181421),,,
Slauson Medical Collective,1645 Slauson Ave,Los Angeles,slauson-medical-collective,California,dispensary,https://weedmaps.com/dispensaries/slauson-medical-collective,-118.244036,33.989807,90011,POINT (-118.244036 33.989807),,,
Smart Collective,10745 RIVERSIDE DR SUITE A,NORTH HOLLYWOOD,smartcollective-2,CA,dispensary,https://weedmaps.com/dispensaries/smartcollective-2,-118.365146,34.152411,91602,POINT (-118.365146 34.152411),TRUE,SMART COLLECTIVE INC,10745 RIVERSIDE 91602-2371
Smartweed,1040 North Western Ave.,Los Angeles,smartweed,CA,dispensary,https://weedmaps.com/dispensaries/smartweed,-118.308888,34.08956,90029,POINT (-118.308888 34.08956),TRUE,VALLEY HOLISTIC CAREGIVERS INC,1038 WESTERN 90029-2310
SO CAL PRIVATE RESERVE,6061 S Vermont Ave,Los Angeles,so-cal-private-reserve,CA,dispensary,https://weedmaps.com/dispensaries/so-cal-private-reserve,-118.291631,33.984571,90044,POINT (-118.291631 33.984571),,,
So-Cal Co-op,6322 Fallbrook Ave.,Woodland Hills,so-cal-co-op-2,CA,dispensary,https://weedmaps.com/dispensaries/so-cal-co-op-2,-118.622936,34.185259,91367,POINT (-118.622936 34.185259),TRUE,"SO CAL CO-OP, INC",6322 FALLBROOK 91367-1603
SOCC PRE-ICO,5740 Lankershim Blvd,Los Angeles,sherman-oaks-collective-care-2,California,dispensary,https://weedmaps.com/dispensaries/sherman-oaks-collective-care-2,-118.380492,34.175075,91601,POINT (-118.380492 34.175075),,,
Stash Studio City,12433 Ventura Blvd,Studio City,420-for-the-people,California,dispensary,https://weedmaps.com/dispensaries/420-for-the-people,-118.404153,34.143057,91604,POINT (-118.404153 34.143057),,,
Stone Age Farmacy LA - Recreational,621 W. Rosecrans Ave Suite #101,Gardena,the-stone-age-pharmacy,CA,dispensary,https://weedmaps.com/dispensaries/the-stone-age-pharmacy,-118.2856391,33.9028761,90248,POINT (-118.2856391 33.9028761),TRUE,THERAPEUTIC HEALTH COLLECTIVE INC,621 ROSECRANS 90248-1516
STR8 UP Collective,1100 East 14th Place,Los Angeles,whittier-20-cap-collective,CA,dispensary,https://weedmaps.com/dispensaries/whittier-20-cap-collective,-118.249581,34.028352,90021,POINT (-118.249581 34.028352),,,
Straight Gas 20 Cap,"119 West Anaheim Street, Unit 6",Wilmington,straight-gas-20-cap,California,dispensary,https://weedmaps.com/dispensaries/straight-gas-20-cap,-118.263408,33.78016,90744,POINT (-118.263408 33.78016),,,
Strain Balboa Caregivers - Adult Use,21627 Devonshire st.,Chatsworth,strain-30-cap-selective,CA,dispensary,https://weedmaps.com/dispensaries/strain-30-cap-selective,-118.6013195,34.2574809,91311,POINT (-118.6013195 34.2574809),TRUE,STRAIN BALBOA CAREGIVERS INC,21627 DEVONSHIRE 91311-2902
Sun Valley Caregivers,11000 Randall St. #E,Sun Valley,svc-home-of-the-louie-xiii,CA,dispensary,https://weedmaps.com/dispensaries/svc-home-of-the-louie-xiii,-118.370245,34.237405,91352,POINT (-118.370245 34.237405),TRUE,SUN VALLEY CAREGIVERS INC,11000 RANDALL 91352-2649
SUNSET HERBAL,11503 Burbank Blvd,North Hollywood,sunset-herbal-corner-2-2,CA,dispensary,https://weedmaps.com/dispensaries/sunset-herbal-corner-2-2,-118.38277,34.172486,91601,POINT (-118.38277 34.172486),TRUE,SUNSET HERBAL CORNER INC,11503 BURBANK 91601-2309
Supa Nova Canoga,21500 Sherman Way,Canoga,supa-nova-canoga,CA,dispensary,https://weedmaps.com/dispensaries/supa-nova-canoga,-118.59917,34.200792,91303,POINT (-118.59917 34.200792),,,
Super Supreme,3350 W. 8th Street,Los Angeles,7solstice-collective,California,dispensary,https://weedmaps.com/dispensaries/7solstice-collective,-118.301898,34.057475,90005,POINT (-118.301898 34.057475),,,
Sweet Flower - Melrose,8163 Melrose Avenue,Los Angeles,sweet-flower-melrose,California,dispensary,https://weedmaps.com/dispensaries/sweet-flower-melrose,-118.367402,34.083988,90046,POINT (-118.367402 34.083988),,,
Sweet Flower - Studio City,11705 Ventura Blvd.,Studio City,perennial-holistic,CA,dispensary,https://weedmaps.com/dispensaries/perennial-holistic,-118.3878578,34.1413384,91604,POINT (-118.3878578 34.1413384),TRUE,PERENNIAL HOLISTIC WELLNESS CENTER INC,11705 VENTURA 91604-2616
SYLMAR CANNA CORNER,13095 San Fernando Rd,Sylmar,sylmar-wellness-grand-opening,CA,dispensary,https://weedmaps.com/dispensaries/sylmar-wellness-grand-opening,-118.471774,34.30799,91342,POINT (-118.471774 34.30799),,,
TCC,"1555 W Sepulveda Blvd, Suite J",Torrance,tcc-3,CA,dispensary,https://weedmaps.com/dispensaries/tcc-3,-118.304897,33.816182,90501,POINT (-118.304897 33.816182),,,
The 15 Spot,15050 Oxnard St.,Van Nuys,the-15-spot,California,dispensary,https://weedmaps.com/dispensaries/the-15-spot,-118.461304,34.179086,91411,POINT (-118.461304 34.179086),,,
The 20 Spot,6329 Van Nuys Blvd,Van Nuys,the-20-spot,Ca,dispensary,https://weedmaps.com/dispensaries/the-20-spot,-118.449011,34.185616,91401,POINT (-118.449011 34.185616),,,
The 710 Club - OPEN 24 Hours!,16418 S. Vermont Ave,Gardena,the-710-club-south-bay,CA,dispensary,https://weedmaps.com/dispensaries/the-710-club-south-bay,-118.291129,33.881973,90247,POINT (-118.291129 33.881973),,,
The Bogo House,1511 Esperanza St,Los Angeles,ela-space-buds,,dispensary,https://weedmaps.com/dispensaries/ela-space-buds,-118.201255,34.015549,90023,POINT (-118.201255 34.015549),,,
The Farmacy Westwood,1035 Gayley Ave,Los Angeles,sunnyside-care-collective,CA,dispensary,https://weedmaps.com/dispensaries/sunnyside-care-collective,-118.447467,34.061137,90024,POINT (-118.447467 34.061137),TRUE,WFARM1045 INC,1035 GAYLEY 90024-3401
The Fav,10718 Riverside Drive,North Hollywood,the-fav,CA,dispensary,https://weedmaps.com/dispensaries/the-fav,-118.364387,34.152041,91602,POINT (-118.364387 34.152041),,,
The Green Easy,8311 Beverly Blvd,Los Angeles,tge,CA,dispensary,https://weedmaps.com/dispensaries/tge,-118.370479,34.076304,90048,POINT (-118.370479 34.076304),TRUE,THE VAN NUYS GROUP,8311 BEVERLY 90048-2607
The Green Rose,4569 Melrose Ave,Hollywood,the-green-rose,CA,dispensary,https://weedmaps.com/dispensaries/the-green-rose,-118.3,34.083868,90029,POINT (-118.3 34.083868),,,
THE HEALING TOUCH,18013 Ventura Blvd unit A,Encino,tht,CA,dispensary,https://weedmaps.com/dispensaries/tht,-118.525072,34.16488,91316,POINT (-118.525072 34.16488),TRUE,WELCOME THE HEALING TOUCH INC,18013 VENTURA 91316-3517
The Herb Shack,11224 Burbank Boulevard,North Hollywood,the-herb-shack,CA,dispensary,https://weedmaps.com/dispensaries/the-herb-shack,-118.376225,34.172136,91601,POINT (-118.376225 34.172136),,,
The High Note East,5359 Valley Blvd,Los Angeles,highnoteeast,CA,dispensary,https://weedmaps.com/dispensaries/highnoteeast,-118.166772,34.074718,90032,POINT (-118.166772 34.074718),TRUE,GREEN AID RECOVERY GROUP INC,5359 VALLEY 90032-3930
The High Note West,5277 West Jefferson Blvd,Los Angeles,highnotewest,CA,dispensary,https://weedmaps.com/dispensaries/highnotewest,-118.360725,34.025836,90016,POINT (-118.360725 34.025836),TRUE,COLLECTIVE PHARM,5277 JEFFERSON 90016-3841
The Higher Path,14080 Ventura Blvd,Sherman Oaks,the-higher-path-sherman-oaks,California,dispensary,https://weedmaps.com/dispensaries/the-higher-path-sherman-oaks,-118.4398272,34.1493088,91423,POINT (-118.4398272 34.1493088),TRUE,THE HIGHER PATH PATIENT ASSOCIATION,14080 VENTURA 91423-3542
"The Kind Center, Inc.",1944 N Cahuenga Blvd,Hollywood,the-kind-center-inc,California,dispensary,https://weedmaps.com/dispensaries/the-kind-center-inc,-118.330486,34.10657,90068,POINT (-118.330486 34.10657),TRUE,KB COLLECTIVE FOR COMPASSION AND CARE INC,1944 CAHUENGA 90068-3853
The Originals Factory & Weed Shop,6500 Stanford Ave,Los Angeles,the-originals-factory-weed-shop,CA,dispensary,https://weedmaps.com/dispensaries/the-originals-factory-weed-shop,-118.262644,33.981015,90001,POINT (-118.262644 33.981015),TRUE,KUSH VALLEY COLLECTIVE,6500 STANFORD 90001-1536
The Plant,21759 Erwin St,Woodland Hills,the-plant,California,dispensary,https://weedmaps.com/dispensaries/the-plant,-118.60294,34.183078,91367,POINT (-118.60294 34.183078),TRUE,HIGHLAND PARK PATIENT COLLECTIVE INC,21759 ERWIN 91367-3608
The Plug 20 Cap Collective,2138 W Florence Ave,Los Angeles,plug-20-cap-collective,CA,dispensary,https://weedmaps.com/dispensaries/plug-20-cap-collective,-118.316794,33.974321,90047,POINT (-118.316794 33.974321),,,
The Pottery - Medical,5042 Venice Blvd,Los Angeles,the-pottery-2,CA,dispensary,https://weedmaps.com/dispensaries/the-pottery-2,-118.348584,34.04513,90019,POINT (-118.348584 34.04513),TRUE,TIMOTHY LEARY MEMORIAL DISPENSARY COLLECTIVE,5042 VENICE 90019-5310
The Pottery - Recreational,5042 Venice Blvd,Los Angeles,the-pottery,Ca,dispensary,https://weedmaps.com/dispensaries/the-pottery,-118.348584,34.04513,90019,POINT (-118.348584 34.04513),TRUE,TIMOTHY LEARY MEMORIAL DISPENSARY COLLECTIVE,5042 VENICE 90019-5310
THE PRESIDENTIAL COLLECTIVE,8111 S Western,Los Angeles,anaheim-healing-30-cap,CA,dispensary,https://weedmaps.com/dispensaries/anaheim-healing-30-cap,-118.309234,33.96511,90047,POINT (-118.309234 33.96511),,,
The Reefinery - Adult Use,14901 Oxnard Street,Van Nuys,sherman-oaks-health-center,CA,dispensary,https://weedmaps.com/dispensaries/sherman-oaks-health-center,-118.457681,34.179607,91411,POINT (-118.457681 34.179607),TRUE,CAHUENGA CAREGIVERS INC,14901 OXNARD 91411-2611
The Reefinery - Medical,14901 Oxnard Street,Van Nuys,the-reefinery,CA,dispensary,https://weedmaps.com/dispensaries/the-reefinery,-118.457681,34.179607,91411,POINT (-118.457681 34.179607),TRUE,CAHUENGA CAREGIVERS INC,14901 OXNARD 91411-2611
The Relief Collective,5818 West Pico Blvd.,Midtown,the-relief-collective,CA,dispensary,https://weedmaps.com/dispensaries/the-relief-collective,-118.365329,34.051079,90019,POINT (-118.365329 34.051079),TRUE,THE RELIEF COLLECTIVE INC,5816 PICO 90019-3713
The Shop WH,5338 Alhama Dr.,Woodland Hills,the-loft-co-op,CA,dispensary,https://weedmaps.com/dispensaries/the-loft-co-op,-118.592936,34.166414,91364,POINT (-118.592936 34.166414),TRUE,AFTER CARE COLLECTIVE,5338 ALHAMA 91364-2101
The Smoke Shop,7143 Owensmouth Ave,Canoga Park,the-smoke-shop-1,CA,dispensary,https://weedmaps.com/dispensaries/the-smoke-shop-1,-118.601775,34.200434,91303,POINT (-118.601775 34.200434),,,
The W 25CAP of Wilmington,1302 North Wilmington Blvd,Wilmington,the-w-collective,CA,dispensary,https://weedmaps.com/dispensaries/the-w-collective,-118.274743,33.788653,90744,POINT (-118.274743 33.788653),,,
Three Kings,4359 Avalon Boulevard,Los Angeles,three-kings-1,Ca,dispensary,https://weedmaps.com/dispensaries/three-kings-1,-118.265544,34.004493,90011,POINT (-118.265544 34.004493),,,
TLC,3650 E. Olympic Blvd (4th Floor),Los Angeles,tlc-2-2,CA,dispensary,https://weedmaps.com/dispensaries/tlc-2-2,-118.198549,34.018206,90023,POINT (-118.198549 34.018206),TRUE,"TLC, INC",3650 OLYMPIC 90023-3129
TNT Green,7520 Foothill Blvd,Tujunga,tnt-green,CA,dispensary,https://weedmaps.com/dispensaries/tnt-green,-118.296504,34.253362,91042,POINT (-118.296504 34.253362),,,
Torrance Healing Church,1321 W Carson St,Torrance,torrance-gold,CA,dispensary,https://weedmaps.com/dispensaries/torrance-gold,-118.300463,33.831797,90501,POINT (-118.300463 33.831797),,,
Trapacanna Collective,728 E. Florence Ave,Los Angeles,trapacanna-collective-2,California,dispensary,https://weedmaps.com/dispensaries/trapacanna-collective-2,-118.262235,33.974401,90001,POINT (-118.262235 33.974401),,,
TREETOP LA,138 N San Fernando Rd,Los Angeles,treetop-la,CA,dispensary,https://weedmaps.com/dispensaries/treetop-la,-118.221583,34.075423,90031,POINT (-118.221583 34.075423),,,
Tri Star Organics,11123 Burbank Blvd,North Hollywood,ccc-3,California,dispensary,https://weedmaps.com/dispensaries/ccc-3,-118.373309,34.17229,91601,POINT (-118.373309 34.17229),,,
Trichome Research Group (TRG),10401 S Avalon Blvd,Los Angeles,trg,CA,dispensary,https://weedmaps.com/dispensaries/trg,-118.265507,33.941773,90003,POINT (-118.265507 33.941773),,,
True 20,5501 S Broadway,Los Angeles,stoners-heaven-25-cap,CA,dispensary,https://weedmaps.com/dispensaries/stoners-heaven-25-cap,-118.278609,33.99226,90037,POINT (-118.278609 33.99226),,,
Unified Patient Alliance,8416 Lankershim Bl. #107,Sun Valley,unified-patient-alliance,CA,dispensary,https://weedmaps.com/dispensaries/unified-patient-alliance,-118.387437,34.223115,91352,POINT (-118.387437 34.223115),,,
Universal Collective - Adult Use,3625 CAHUENGA BLVD W,LOS ANGELES,studio-city-caregivers-studio-city,CA,dispensary,https://weedmaps.com/dispensaries/studio-city-caregivers-studio-city,-118.360261,34.1343953,90068,POINT (-118.360261 34.1343953),TRUE,STUDIO CITY CAREGIVERS CO-OP INC,3625 CAHUENGA 90068-1205
University 20 CAP,253 West Jefferson Blvd,Los Angeles,jefferson-20-cap,CA,dispensary,https://weedmaps.com/dispensaries/jefferson-20-cap,-118.275478,34.020447,90007,POINT (-118.275478 34.020447),,,
Urban Treez - Adult Use,11376 Ventura Blvd,Studio City,bhang-society-2-5,CA,dispensary,https://weedmaps.com/dispensaries/bhang-society-2-5,-118.378285,34.139913,91604,POINT (-118.378285 34.139913),TRUE,HERBAL SOLUTIONS PRE ICO LLC,11376 VENTURA 91604-3139
Urbland Park,5324 York Blvd,Los Angeles,urbland-park,California,dispensary,https://weedmaps.com/dispensaries/urbland-park,-118.19947,34.119792,90042,POINT (-118.19947 34.119792),,,
US Dank,8242 Louise Ave,Northridge,us-dank,,dispensary,https://weedmaps.com/dispensaries/us-dank,-118.509639,34.220396,91325,POINT (-118.509639 34.220396),,,
UVC - Downtown LA,221 W 4th St,Los Angeles,uvc-2,CA,dispensary,https://weedmaps.com/dispensaries/uvc-2,-118.248907,34.049344,90013,POINT (-118.248907 34.049344),,,
Valley Herbal Center,14522 Victory Blvd,Van Nuys,vhc-van-nuys,CA,dispensary,https://weedmaps.com/dispensaries/vhc-van-nuys,-118.449643,34.186467,91405,POINT (-118.449643 34.186467),TRUE,VALLEY HERBAL CENTER INC,14522 VICTORY 91411-1618
Van Nuys Medical Alliance,7826 Balboa Blvd,Van Nuys,van-nuys-medical-alliance,CA,dispensary,https://weedmaps.com/dispensaries/van-nuys-medical-alliance,-118.500787,34.212951,91406,POINT (-118.500787 34.212951),,,
Venice Medical Center,9636 Venice Blvd,Culver City,culver-medical-center,CA,dispensary,https://weedmaps.com/dispensaries/culver-medical-center,-118.396509,34.024321,90232,POINT (-118.396509 34.024321),,,
Venice Royals,12581 venice blvd,Los Angeles,venice-royals,California,dispensary,https://weedmaps.com/dispensaries/venice-royals,-118.436334,34.002694,90066,POINT (-118.436334 34.002694),,,
Venice Serenity Gardens,10717 Venice Blvd,Los Angeles,venice-serenity-gardens-1,CA,dispensary,https://weedmaps.com/dispensaries/venice-serenity-gardens-1,-118.407696,34.018826,90034,POINT (-118.407696 34.018826),,,
Vermont 30 Cap,8918 S Vermont Ave,Los Angeles,vermont-30-cap,California,dispensary,https://weedmaps.com/dispensaries/vermont-30-cap,-118.29127,33.955963,90044,POINT (-118.29127 33.955963),,,
Via Verde Collective,1600 S Main St,Los Angeles,mk-wellness,Ca,dispensary,https://weedmaps.com/dispensaries/mk-wellness,-118.262368,34.033284,90015,POINT (-118.262368 34.033284),,,
VIP Collective,8113 S Western Ave,Los Angeles,vip-collective,CA,dispensary,https://weedmaps.com/dispensaries/vip-collective,-118.309159,33.965219,90047,POINT (-118.309159 33.965219),,,
WEED - Wellness Earth Energy Dispensary Powered by Project Cannabis,11557 Ventura Blvd.,Studio City,concentrate-leader,CA,dispensary,https://weedmaps.com/dispensaries/concentrate-leader,-118.38341,34.139865,91604,POINT (-118.38341 34.139865),TRUE,THE WELLNESS EARTH ENERGY DISPENSARY,11557 VENTURA 91604-2611
Weed 4 Less 15 Cap,7500 S. Main St.,Los Angeles,weed-4-less-15-cap,California,dispensary,https://weedmaps.com/dispensaries/weed-4-less-15-cap,-118.273791,33.972033,90003,POINT (-118.273791 33.972033),,,
WEED CENTRAL - 10G for 45,9221 S Central Ave,Los Angeles,weed-central,,dispensary,https://weedmaps.com/dispensaries/weed-central,-118.256068,33.952134,90002,POINT (-118.256068 33.952134),,,
Weedland Hills,22150 Ventura Blvd unit 102,Woodland Hills,weedland-hills-3,CA,dispensary,https://weedmaps.com/dispensaries/weedland-hills-3,-118.609931,34.168379,91364,POINT (-118.609931 34.168379),,,
WeedWay,7031 Foothill Blvd.,Tujunga,st-andrews-green-tujunga,CA,dispensary,https://weedmaps.com/dispensaries/st-andrews-green-tujunga,-118.284412,34.248169,91042,POINT (-118.284412 34.248169),TRUE,"ST. ANDREW'S GREEN, A COOPERATIVE CORPORATION",7031 FOOTHILL 91042-2714
West Coast Collective,5422 Normandie Avenue,Los Angeles,cpt-flight-club-collective,CA,dispensary,https://weedmaps.com/dispensaries/cpt-flight-club-collective,-118.300032,33.992731,90037,POINT (-118.300032 33.992731),,,
West Coast Holistic Center Pre-ICO,15460 Devonshire st.,Mission Hills,west-coast-holistic-center,CA,dispensary,https://weedmaps.com/dispensaries/west-coast-holistic-center,-118.469481,34.257104,91345,POINT (-118.469481 34.257104),TRUE,WELLNESS CAREGIVERS COLLECTIVE,15460 DEVONSHIRE 91345-2619
West Valley Patients Center (PRE-ICO),23043 Ventura Blvd.,Woodland Hills,west-valley-patients-group-2-2,CA,dispensary,https://weedmaps.com/dispensaries/west-valley-patients-group-2-2,-118.6282757,34.1644899,91364,POINT (-118.6282757 34.1644899),TRUE,TANIS INDUSTRIES LLC,23043 VENTURA 91364-1107
Western Top Shop 20 CAP,6900 S Western Ave,Los Angeles,western-top-shop-20-cap,California,dispensary,https://weedmaps.com/dispensaries/western-top-shop-20-cap,-118.308427,33.976954,90047,POINT (-118.308427 33.976954),,,
"Western Wellness ""Grand Opening""",3601 South Western AVe,Los Angeles,western-wellness-los-angeles,CA,dispensary,https://weedmaps.com/dispensaries/western-wellness-los-angeles,-118.309104,34.022672,90018,POINT (-118.309104 34.022672),,,
Westside Meds,8940 National Blvd UNIT B,Los Angeles,westside-meds-2-3,CA,dispensary,https://weedmaps.com/dispensaries/westside-meds-2-3,-118.389652,34.03008,90034,POINT (-118.389652 34.03008),,,
Westside Station,7022 Valjean Ave,Van Nuys,westside-caregivers-club-inc,CA,dispensary,https://weedmaps.com/dispensaries/westside-caregivers-club-inc,-118.485506,34.198235,91406,POINT (-118.485506 34.198235),TRUE,WESTSIDE CAREGIVERS CLUB INC,7022 VALJEAN 91406-3914
White Castle,1026 W Pacific Coast,Wilmington,lol-1,CA,dispensary,https://weedmaps.com/dispensaries/lol-1,-118.276013,33.790018,90744,POINT (-118.276013 33.790018),,,
WHTC - Adult Use,3760 Cahuenga Blvd.,Studio City,woodland-hills-treatment-center,CA,dispensary,https://weedmaps.com/dispensaries/woodland-hills-treatment-center,-118.362129,34.136431,91604,POINT (-118.362129 34.136431),TRUE,LIZBOR INC,3760 CAHUENGA 91604-3578
WOW 25 CAP,830 Sampson Ave,Wilmington,worshipofwilmington,CA,dispensary,https://weedmaps.com/dispensaries/worshipofwilmington,-118.233304,33.782501,90744,POINT (-118.233304 33.782501),,,
WWC 25 CAP,3733 Whittier Blvd,Los Angeles,wwc-25-cap,CA,dispensary,https://weedmaps.com/dispensaries/wwc-25-cap,-118.192874,34.024388,90023,POINT (-118.192874 34.024388),,,
Zen Noho pre-ICO,5142 Vineland Avenue,North Hollywood,magnolia-wellness-center,CA,dispensary,https://weedmaps.com/dispensaries/magnolia-wellness-center,-118.3700182,34.1638419,91601,POINT (-118.3700182 34.1638419),TRUE,DOWNTOWN COLLECTIVE INC,5142 VINELAND 91601-3849
